<?xml version="1.0" encoding="UTF-8"?>
<gpx creator="Garmin Connect" version="1.1"
  xsi:schemaLocation="http://www.topografix.com/GPX/1/1 http://www.topografix.com/GPX/11.xsd"
  xmlns:ns3="http://www.garmin.com/xmlschemas/TrackPointExtension/v1"
  xmlns="http://www.topografix.com/GPX/1/1"
  xmlns:xsi="http://www.w3.org/2001/XMLSchema-instance" xmlns:ns2="http://www.garmin.com/xmlschemas/GpxExtensions/v3">
  <metadata>
    <name>天元宮 - 大屯山助航站</name>
    <link href="connect.garmin.com">
      <text>Garmin Connect</text>
    </link>
    <time>2023-11-04T14:17:18.000Z</time>
  </metadata>
  <trk>
    <name>天元宮 - 大屯山助航站</name>
    <trkseg>
      <trkpt lat="25.18599210307002" lon="121.48601685650647">
        <ele>181.15</ele>
      </trkpt>
      <trkpt lat="25.186092853546143" lon="121.48576498031616">
        <ele>179.22</ele>
      </trkpt>
      <trkpt lat="25.186092853546143" lon="121.4857006072998">
        <ele>177.47</ele>
      </trkpt>
      <trkpt lat="25.186092853546143" lon="121.48563623428345">
        <ele>175.77</ele>
      </trkpt>
      <trkpt lat="25.186071395874023" lon="121.48559331893921">
        <ele>174.18</ele>
      </trkpt>
      <trkpt lat="25.185856819152832" lon="121.48542165756226">
        <ele>173.04</ele>
      </trkpt>
      <trkpt lat="25.186522006988525" lon="121.48437023162842">
        <ele>169.31</ele>
      </trkpt>
      <trkpt lat="25.186565006151795" lon="121.48417711257935">
        <ele>166.8</ele>
      </trkpt>
      <trkpt lat="25.186586463823915" lon="121.48404836654663">
        <ele>164.69</ele>
      </trkpt>
      <trkpt lat="25.186629379168153" lon="121.48387670516968">
        <ele>162.91</ele>
      </trkpt>
      <trkpt lat="25.18667229451239" lon="121.48372650146484">
        <ele>161.47</ele>
      </trkpt>
      <trkpt lat="25.186800956726074" lon="121.4837908744812">
        <ele>160.53</ele>
      </trkpt>
      <trkpt lat="25.18686532974243" lon="121.48387670516968">
        <ele>159.94</ele>
      </trkpt>
      <trkpt lat="25.187144363299012" lon="121.48417711257935">
        <ele>159.77</ele>
      </trkpt>
      <trkpt lat="25.187337482348084" lon="121.48437023162842">
        <ele>159.9</ele>
      </trkpt>
      <trkpt lat="25.187337398529053" lon="121.48437023162842">
        <ele>160.11</ele>
      </trkpt>
      <trkpt lat="25.187509059906006" lon="121.48458480834961">
        <ele>160.48</ele>
      </trkpt>
      <trkpt lat="25.18765934742987" lon="121.48494958877563">
        <ele>160.74</ele>
      </trkpt>
      <trkpt lat="25.187831008806825" lon="121.48533582687378">
        <ele>160.92</ele>
      </trkpt>
      <trkpt lat="25.188002586364746" lon="121.48574352264404">
        <ele>161.4</ele>
      </trkpt>
      <trkpt lat="25.18817433156073" lon="121.4863657951355">
        <ele>162.32</ele>
      </trkpt>
      <trkpt lat="25.188345992937684" lon="121.48698806762695">
        <ele>163.45</ele>
      </trkpt>
      <trkpt lat="25.188345909118652" lon="121.48698806762695">
        <ele>164.5</ele>
      </trkpt>
      <trkpt lat="25.18838882446289" lon="121.48707389831543">
        <ele>165.78</ele>
      </trkpt>
      <trkpt lat="25.188453197479248" lon="121.48718118667603">
        <ele>167.19</ele>
      </trkpt>
      <trkpt lat="25.188581943511963" lon="121.48724555969238">
        <ele>168.61</ele>
      </trkpt>
      <trkpt lat="25.188796604052186" lon="121.48730993270874">
        <ele>170.06</ele>
      </trkpt>
      <trkpt lat="25.18913984298706" lon="121.48741722106934">
        <ele>171.55</ele>
      </trkpt>
      <trkpt lat="25.189247131347656" lon="121.4874815940857">
        <ele>173.19</ele>
      </trkpt>
      <trkpt lat="25.189311504364014" lon="121.48754596710205">
        <ele>174.8</ele>
      </trkpt>
      <trkpt lat="25.189976692199707" lon="121.48829698562622">
        <ele>176.54</ele>
      </trkpt>
      <trkpt lat="25.190126979723573" lon="121.4884901046753">
        <ele>178.35</ele>
      </trkpt>
      <trkpt lat="25.190277099609375" lon="121.48881196975708">
        <ele>180.24</ele>
      </trkpt>
      <trkpt lat="25.190448760986328" lon="121.48919820785522">
        <ele>181.98</ele>
      </trkpt>
      <trkpt lat="25.190534675493836" lon="121.48952007293701">
        <ele>183.58</ele>
      </trkpt>
      <trkpt lat="25.190749168395996" lon="121.49024963378906">
        <ele>185.24</ele>
      </trkpt>
      <trkpt lat="25.19094228744507" lon="121.49070024490356">
        <ele>186.71</ele>
      </trkpt>
      <trkpt lat="25.19122132100165" lon="121.49125814437866">
        <ele>188.27</ele>
      </trkpt>
      <trkpt lat="25.191350067034364" lon="121.49151563644409">
        <ele>189.6</ele>
      </trkpt>
      <trkpt lat="25.191543186083436" lon="121.49190187454224">
        <ele>191.12</ele>
      </trkpt>
      <trkpt lat="25.19167193211615" lon="121.49213790893555">
        <ele>192.56</ele>
      </trkpt>
      <trkpt lat="25.191779136657715" lon="121.4923095703125">
        <ele>193.88</ele>
      </trkpt>
      <trkpt lat="25.191843509674072" lon="121.49235248565674">
        <ele>194.99</ele>
      </trkpt>
      <trkpt lat="25.191993713378906" lon="121.4924168586731">
        <ele>195.97</ele>
      </trkpt>
      <trkpt lat="25.192337119951844" lon="121.49254560470581">
        <ele>196.8</ele>
      </trkpt>
      <trkpt lat="25.192573070526123" lon="121.4926528930664">
        <ele>197.54</ele>
      </trkpt>
      <trkpt lat="25.193345546722412" lon="121.49314641952515">
        <ele>198.33</ele>
      </trkpt>
      <trkpt lat="25.193560207262635" lon="121.49327516555786">
        <ele>199.32</ele>
      </trkpt>
      <trkpt lat="25.193603038787842" lon="121.49329662322998">
        <ele>199.98</ele>
      </trkpt>
      <trkpt lat="25.193731784820557" lon="121.49329662322998">
        <ele>200.61</ele>
      </trkpt>
      <trkpt lat="25.194075107574463" lon="121.49323225021362">
        <ele>201.02</ele>
      </trkpt>
      <trkpt lat="25.194225311279297" lon="121.49314641952515">
        <ele>201.23</ele>
      </trkpt>
      <trkpt lat="25.19439705647528" lon="121.4929747581482">
        <ele>201.34</ele>
      </trkpt>
      <trkpt lat="25.194826209917665" lon="121.49254560470581">
        <ele>201.65</ele>
      </trkpt>
      <trkpt lat="25.194976329803467" lon="121.49245977401733">
        <ele>201.91</ele>
      </trkpt>
      <trkpt lat="25.19514807499945" lon="121.49243831634521">
        <ele>202.05</ele>
      </trkpt>
      <trkpt lat="25.195298194885254" lon="121.49250268936157">
        <ele>202.11</ele>
      </trkpt>
      <trkpt lat="25.195384109392762" lon="121.49256706237793">
        <ele>202.12</ele>
      </trkpt>
      <trkpt lat="25.195577144622803" lon="121.49282455444336">
        <ele>202.17</ele>
      </trkpt>
      <trkpt lat="25.1956844329834" lon="121.49291038513184">
        <ele>202.21</ele>
      </trkpt>
      <trkpt lat="25.195770347490907" lon="121.49293184280396">
        <ele>202.19</ele>
      </trkpt>
      <trkpt lat="25.19589900970459" lon="121.49295330047607">
        <ele>202.17</ele>
      </trkpt>
      <trkpt lat="25.19622095860541" lon="121.49295330047607">
        <ele>202.1</ele>
      </trkpt>
      <trkpt lat="25.19641399383545" lon="121.49299621582031">
        <ele>202.14</ele>
      </trkpt>
      <trkpt lat="25.19660711288452" lon="121.49310350418091">
        <ele>202.28</ele>
      </trkpt>
      <trkpt lat="25.196692943572998" lon="121.49318933486938">
        <ele>202.5</ele>
      </trkpt>
      <trkpt lat="25.196843147277832" lon="121.4933180809021">
        <ele>202.79</ele>
      </trkpt>
      <trkpt lat="25.19692897796631" lon="121.49340391159058">
        <ele>202.97</ele>
      </trkpt>
      <trkpt lat="25.197079265490174" lon="121.493661403656">
        <ele>203.24</ele>
      </trkpt>
      <trkpt lat="25.19718647003174" lon="121.49381160736084">
        <ele>203.62</ele>
      </trkpt>
      <trkpt lat="25.197272300720215" lon="121.4938759803772">
        <ele>203.95</ele>
      </trkpt>
      <trkpt lat="25.19737958908081" lon="121.49389743804932">
        <ele>204.24</ele>
      </trkpt>
      <trkpt lat="25.197508418932557" lon="121.49385452270508">
        <ele>204.53</ele>
      </trkpt>
      <trkpt lat="25.197787284851074" lon="121.49374723434448">
        <ele>204.74</ele>
      </trkpt>
      <trkpt lat="25.197958946228027" lon="121.49374723434448">
        <ele>205.05</ele>
      </trkpt>
      <trkpt lat="25.198838710784912" lon="121.49413347244263">
        <ele>205.63</ele>
      </trkpt>
      <trkpt lat="25.198988914489746" lon="121.49419784545898">
        <ele>206.14</ele>
      </trkpt>
      <trkpt lat="25.19918203353882" lon="121.49436950683594">
        <ele>206.89</ele>
      </trkpt>
      <trkpt lat="25.199310779571533" lon="121.49439096450806">
        <ele>207.33</ele>
      </trkpt>
      <trkpt lat="25.19941806793213" lon="121.49439096450806">
        <ele>207.77</ele>
      </trkpt>
      <trkpt lat="25.199546813964844" lon="121.4943265914917">
        <ele>208.15</ele>
      </trkpt>
      <trkpt lat="25.199825763702393" lon="121.49402618408203">
        <ele>208.16</ele>
      </trkpt>
      <trkpt lat="25.19989013671875" lon="121.4939832687378">
        <ele>208.52</ele>
      </trkpt>
      <trkpt lat="25.20010471343994" lon="121.49389743804932">
        <ele>208.96</ele>
      </trkpt>
      <trkpt lat="25.2006196975708" lon="121.49379014968872">
        <ele>209.38</ele>
      </trkpt>
      <trkpt lat="25.200619781389832" lon="121.49379014968872">
        <ele>209.97</ele>
      </trkpt>
      <trkpt lat="25.20096310414374" lon="121.49372577667236">
        <ele>210.41</ele>
      </trkpt>
      <trkpt lat="25.201091766357422" lon="121.49374723434448">
        <ele>211.2</ele>
      </trkpt>
      <trkpt lat="25.20119913853705" lon="121.49383306503296">
        <ele>212.19</ele>
      </trkpt>
      <trkpt lat="25.201327800750732" lon="121.49400472640991">
        <ele>213.35</ele>
      </trkpt>
      <trkpt lat="25.2016282081604" lon="121.49460554122925">
        <ele>215.15</ele>
      </trkpt>
      <trkpt lat="25.202057361602783" lon="121.49505615234375">
        <ele>216.13</ele>
      </trkpt>
      <trkpt lat="25.20212173461914" lon="121.49518489837646">
        <ele>217.37</ele>
      </trkpt>
      <trkpt lat="25.202229022979736" lon="121.49548530578613">
        <ele>219.03</ele>
      </trkpt>
      <trkpt lat="25.202314853668213" lon="121.49563550949097">
        <ele>220.29</ele>
      </trkpt>
      <trkpt lat="25.20237922668457" lon="121.49569988250732">
        <ele>221.27</ele>
      </trkpt>
      <trkpt lat="25.202486515045166" lon="121.4957857131958">
        <ele>222.18</ele>
      </trkpt>
      <trkpt lat="25.202550888061523" lon="121.49582862854004">
        <ele>223.02</ele>
      </trkpt>
      <trkpt lat="25.203216075897217" lon="121.49604320526123">
        <ele>223.38</ele>
      </trkpt>
      <trkpt lat="25.2033878210932" lon="121.49617195129395">
        <ele>224.47</ele>
      </trkpt>
      <trkpt lat="25.203537940979004" lon="121.49632215499878">
        <ele>225.56</ele>
      </trkpt>
      <trkpt lat="25.20360231399536" lon="121.49640798568726">
        <ele>226.43</ele>
      </trkpt>
      <trkpt lat="25.20370968617499" lon="121.49657964706421">
        <ele>227.24</ele>
      </trkpt>
      <trkpt lat="25.203773975372314" lon="121.4967942237854">
        <ele>228.17</ele>
      </trkpt>
      <trkpt lat="25.203816890716553" lon="121.49707317352295">
        <ele>229.2</ele>
      </trkpt>
      <trkpt lat="25.203773975372314" lon="121.49765253067017">
        <ele>230.59</ele>
      </trkpt>
      <trkpt lat="25.203774059191346" lon="121.49784564971924">
        <ele>231.4</ele>
      </trkpt>
      <trkpt lat="25.203838348388672" lon="121.4988112449646">
        <ele>232.13</ele>
      </trkpt>
      <trkpt lat="25.20388126373291" lon="121.49893999099731">
        <ele>232.78</ele>
      </trkpt>
      <trkpt lat="25.20392417907715" lon="121.49902582168579">
        <ele>233.35</ele>
      </trkpt>
      <trkpt lat="25.203988552093506" lon="121.49906873703003">
        <ele>233.83</ele>
      </trkpt>
      <trkpt lat="25.20413875579834" lon="121.49911165237427">
        <ele>234.27</ele>
      </trkpt>
      <trkpt lat="25.20441770553589" lon="121.49911165237427">
        <ele>234.69</ele>
      </trkpt>
      <trkpt lat="25.204546535387635" lon="121.4991545677185">
        <ele>235.21</ele>
      </trkpt>
      <trkpt lat="25.204718112945557" lon="121.49924039840698">
        <ele>235.87</ele>
      </trkpt>
      <trkpt lat="25.204825401306152" lon="121.49934768676758">
        <ele>236.75</ele>
      </trkpt>
      <trkpt lat="25.20486831665039" lon="121.49941205978394">
        <ele>237.76</ele>
      </trkpt>
      <trkpt lat="25.204932689666748" lon="121.49958372116089">
        <ele>238.95</ele>
      </trkpt>
      <trkpt lat="25.204997062683105" lon="121.49994850158691">
        <ele>240.31</ele>
      </trkpt>
      <trkpt lat="25.204997062683105" lon="121.5001630783081">
        <ele>241.8</ele>
      </trkpt>
      <trkpt lat="25.204825401306152" lon="121.50080680847168">
        <ele>243.7</ele>
      </trkpt>
      <trkpt lat="25.204761112108827" lon="121.50102138519287">
        <ele>245.26</ele>
      </trkpt>
      <trkpt lat="25.204589366912842" lon="121.50136470794678">
        <ele>247.14</ele>
      </trkpt>
      <trkpt lat="25.204589366912842" lon="121.50153636932373">
        <ele>248.66</ele>
      </trkpt>
      <trkpt lat="25.204589366912842" lon="121.50179386138916">
        <ele>250.34</ele>
      </trkpt>
      <trkpt lat="25.204331874847412" lon="121.50205135345459">
        <ele>252.62</ele>
      </trkpt>
      <trkpt lat="25.204267501831055" lon="121.50209426879883">
        <ele>254.21</ele>
      </trkpt>
      <trkpt lat="25.20416021347046" lon="121.50211572647095">
        <ele>255.78</ele>
      </trkpt>
      <trkpt lat="25.20396717824042" lon="121.50209426879883">
        <ele>257.18</ele>
      </trkpt>
      <trkpt lat="25.20391554571688" lon="121.50207214057446">
        <ele>261.79</ele>
      </trkpt>
      <trkpt lat="25.203816890716553" lon="121.50202989578247">
        <ele>262.97</ele>
      </trkpt>
      <trkpt lat="25.2033878210932" lon="121.5016222000122">
        <ele>265.58</ele>
      </trkpt>
      <trkpt lat="25.20291575230658" lon="121.50121450424194">
        <ele>267.81</ele>
      </trkpt>
      <trkpt lat="25.20285129547119" lon="121.50115013122559">
        <ele>269.55</ele>
      </trkpt>
      <trkpt lat="25.202808380126953" lon="121.50115013122559">
        <ele>271.11</ele>
      </trkpt>
      <trkpt lat="25.202722549438477" lon="121.50115013122559">
        <ele>272.57</ele>
      </trkpt>
      <trkpt lat="25.20263671875" lon="121.50119304656982">
        <ele>274.26</ele>
      </trkpt>
      <trkpt lat="25.20267963409424" lon="121.50136470794678">
        <ele>276.17</ele>
      </trkpt>
      <trkpt lat="25.203065872192383" lon="121.50177240371704">
        <ele>277.84</ele>
      </trkpt>
      <trkpt lat="25.20310878753662" lon="121.50185823440552">
        <ele>279.42</ele>
      </trkpt>
      <trkpt lat="25.20315170288086" lon="121.50200843811035">
        <ele>281.01</ele>
      </trkpt>
      <trkpt lat="25.20317316055298" lon="121.50286674499512">
        <ele>283.37</ele>
      </trkpt>
      <trkpt lat="25.203065872192383" lon="121.50333881378174">
        <ele>285.63</ele>
      </trkpt>
      <trkpt lat="25.203065872192383" lon="121.5036392211914">
        <ele>287.91</ele>
      </trkpt>
      <trkpt lat="25.203044414520264" lon="121.50389671325684">
        <ele>290.41</ele>
      </trkpt>
      <trkpt lat="25.203065956011415" lon="121.50398254394531">
        <ele>292.42</ele>
      </trkpt>
      <trkpt lat="25.20310878753662" lon="121.50408983230591">
        <ele>294.24</ele>
      </trkpt>
      <trkpt lat="25.203301906585693" lon="121.50421857833862">
        <ele>295.44</ele>
      </trkpt>
      <trkpt lat="25.20334482192993" lon="121.50426149368286">
        <ele>296.74</ele>
      </trkpt>
      <trkpt lat="25.20338773727417" lon="121.50432586669922">
        <ele>297.97</ele>
      </trkpt>
      <trkpt lat="25.203473567962646" lon="121.5047550201416">
        <ele>299.44</ele>
      </trkpt>
      <trkpt lat="25.203495109453797" lon="121.50499105453491">
        <ele>300.93</ele>
      </trkpt>
      <trkpt lat="25.203473651781678" lon="121.50514125823975">
        <ele>302.55</ele>
      </trkpt>
      <trkpt lat="25.203473567962646" lon="121.50514125823975">
        <ele>303.92</ele>
      </trkpt>
      <trkpt lat="25.203473567962646" lon="121.50554895401001">
        <ele>306.08</ele>
      </trkpt>
      <trkpt lat="25.203473567962646" lon="121.50563478469849">
        <ele>307.69</ele>
      </trkpt>
      <trkpt lat="25.203495025634766" lon="121.50572061538696">
        <ele>309.2</ele>
      </trkpt>
      <trkpt lat="25.203537940979004" lon="121.50578498840332">
        <ele>310.56</ele>
      </trkpt>
      <trkpt lat="25.203580856323242" lon="121.50582790374756">
        <ele>311.77</ele>
      </trkpt>
      <trkpt lat="25.203795433044434" lon="121.50591373443604">
        <ele>312.66</ele>
      </trkpt>
      <trkpt lat="25.203838348388672" lon="121.50593519210815">
        <ele>313.64</ele>
      </trkpt>
      <trkpt lat="25.20388126373291" lon="121.50602102279663">
        <ele>314.72</ele>
      </trkpt>
      <trkpt lat="25.20385980606079" lon="121.50653600692749">
        <ele>316.27</ele>
      </trkpt>
      <trkpt lat="25.203688144683838" lon="121.50685787200928">
        <ele>317.55</ele>
      </trkpt>
      <trkpt lat="25.20366668701172" lon="121.50698661804199">
        <ele>318.5</ele>
      </trkpt>
      <trkpt lat="25.2036452293396" lon="121.50735139846802">
        <ele>319.39</ele>
      </trkpt>
      <trkpt lat="25.2036452293396" lon="121.50745868682861">
        <ele>320.26</ele>
      </trkpt>
      <trkpt lat="25.20368822850287" lon="121.50760889053345">
        <ele>321.01</ele>
      </trkpt>
      <trkpt lat="25.203688144683838" lon="121.50760889053345">
        <ele>321.73</ele>
      </trkpt>
      <trkpt lat="25.203752517700195" lon="121.50784492492676">
        <ele>322.41</ele>
      </trkpt>
      <trkpt lat="25.203752601519227" lon="121.50797367095947">
        <ele>323.17</ele>
      </trkpt>
      <trkpt lat="25.203731060028076" lon="121.50825262069702">
        <ele>323.85</ele>
      </trkpt>
      <trkpt lat="25.203709602355957" lon="121.50831699371338">
        <ele>324.56</ele>
      </trkpt>
      <trkpt lat="25.203688144683838" lon="121.50840282440186">
        <ele>325.26</ele>
      </trkpt>
      <trkpt lat="25.20362377166748" lon="121.50846719741821">
        <ele>326.05</ele>
      </trkpt>
      <trkpt lat="25.203537940979004" lon="121.50853157043457">
        <ele>326.89</ele>
      </trkpt>
      <trkpt lat="25.203323448076844" lon="121.50861740112305">
        <ele>328.12</ele>
      </trkpt>
      <trkpt lat="25.203323364257812" lon="121.50861740112305">
        <ele>328.81</ele>
      </trkpt>
      <trkpt lat="25.203216075897217" lon="121.5086817741394">
        <ele>329.7</ele>
      </trkpt>
      <trkpt lat="25.20315170288086" lon="121.50881052017212">
        <ele>330.38</ele>
      </trkpt>
      <trkpt lat="25.20313024520874" lon="121.50887489318848">
        <ele>330.93</ele>
      </trkpt>
      <trkpt lat="25.203130329027772" lon="121.50906801223755">
        <ele>331.39</ele>
      </trkpt>
      <trkpt lat="25.20313024520874" lon="121.50917530059814">
        <ele>331.84</ele>
      </trkpt>
      <trkpt lat="25.20313024520874" lon="121.5092396736145">
        <ele>332.43</ele>
      </trkpt>
      <trkpt lat="25.203087329864502" lon="121.50926113128662">
        <ele>333.08</ele>
      </trkpt>
      <trkpt lat="25.203044414520264" lon="121.50928258895874">
        <ele>333.7</ele>
      </trkpt>
      <trkpt lat="25.203001499176025" lon="121.50926113128662">
        <ele>334.34</ele>
      </trkpt>
      <trkpt lat="25.202980041503906" lon="121.5092396736145">
        <ele>334.98</ele>
      </trkpt>
      <trkpt lat="25.202958583831787" lon="121.5091323852539">
        <ele>335.73</ele>
      </trkpt>
      <trkpt lat="25.202980125322938" lon="121.5088963508606">
        <ele>336.57</ele>
      </trkpt>
      <trkpt lat="25.203065872192383" lon="121.50855302810669">
        <ele>337.32</ele>
      </trkpt>
      <trkpt lat="25.203065872192383" lon="121.50835990905762">
        <ele>338.13</ele>
      </trkpt>
      <trkpt lat="25.203001499176025" lon="121.50816679000854">
        <ele>339.17</ele>
      </trkpt>
      <trkpt lat="25.20291575230658" lon="121.50801658630371">
        <ele>340.41</ele>
      </trkpt>
      <trkpt lat="25.202786922454834" lon="121.50771617889404">
        <ele>341.88</ele>
      </trkpt>
      <trkpt lat="25.202572345733643" lon="121.50739431381226">
        <ele>343.32</ele>
      </trkpt>
      <trkpt lat="25.202550888061523" lon="121.50730848312378">
        <ele>344.39</ele>
      </trkpt>
      <trkpt lat="25.202550971880555" lon="121.50707244873047">
        <ele>345.54</ele>
      </trkpt>
      <trkpt lat="25.202550888061523" lon="121.50707244873047">
        <ele>346.98</ele>
      </trkpt>
      <trkpt lat="25.202507972717285" lon="121.50690078735352">
        <ele>348.73</ele>
      </trkpt>
      <trkpt lat="25.202486515045166" lon="121.50685787200928">
        <ele>350.89</ele>
      </trkpt>
      <trkpt lat="25.20242214202881" lon="121.50679349899292">
        <ele>353.57</ele>
      </trkpt>
      <trkpt lat="25.201842784881592" lon="121.50655746459961">
        <ele>357.41</ele>
      </trkpt>
      <trkpt lat="25.20167112350464" lon="121.50651454925537">
        <ele>360.3</ele>
      </trkpt>
      <trkpt lat="25.2011775970459" lon="121.50647163391113">
        <ele>363.47</ele>
      </trkpt>
      <trkpt lat="25.200748443603516" lon="121.50634288787842">
        <ele>365.94</ele>
      </trkpt>
      <trkpt lat="25.200555324554443" lon="121.50625705718994">
        <ele>368.66</ele>
      </trkpt>
      <trkpt lat="25.200083255767822" lon="121.50595664978027">
        <ele>371.52</ele>
      </trkpt>
      <trkpt lat="25.199978230521083" lon="121.50586662814021">
        <ele>374.73</ele>
      </trkpt>
      <trkpt lat="25.19993305206299" lon="121.50582790374756">
        <ele>374.78</ele>
      </trkpt>
      <trkpt lat="25.199782848358154" lon="121.50563478469849">
        <ele>374.46</ele>
      </trkpt>
      <trkpt lat="25.19967555999756" lon="121.50554895401001">
        <ele>374.26</ele>
      </trkpt>
      <trkpt lat="25.199568271636963" lon="121.50552749633789">
        <ele>374.25</ele>
      </trkpt>
      <trkpt lat="25.199310779571533" lon="121.50559186935425">
        <ele>374.51</ele>
      </trkpt>
      <trkpt lat="25.199074828997254" lon="121.50552749633789">
        <ele>374.43</ele>
      </trkpt>
      <trkpt lat="25.199074745178223" lon="121.50552749633789">
        <ele>374.66</ele>
      </trkpt>
      <trkpt lat="25.198967456817627" lon="121.50550603866577">
        <ele>375.03</ele>
      </trkpt>
      <trkpt lat="25.19888162612915" lon="121.50550603866577">
        <ele>375.58</ele>
      </trkpt>
      <trkpt lat="25.198838710784912" lon="121.50552749633789">
        <ele>376.3</ele>
      </trkpt>
      <trkpt lat="25.198774421587586" lon="121.50563478469849">
        <ele>377.41</ele>
      </trkpt>
      <trkpt lat="25.19866713322699" lon="121.50578498840332">
        <ele>378.82</ele>
      </trkpt>
      <trkpt lat="25.198581218719482" lon="121.50582790374756">
        <ele>380.06</ele>
      </trkpt>
      <trkpt lat="25.198516845703125" lon="121.50582790374756">
        <ele>381.29</ele>
      </trkpt>
      <trkpt lat="25.19843101501465" lon="121.50578498840332">
        <ele>382.59</ele>
      </trkpt>
      <trkpt lat="25.198237895965576" lon="121.50554895401001">
        <ele>383.89</ele>
      </trkpt>
      <trkpt lat="25.198194980621338" lon="121.50550603866577">
        <ele>385.1</ele>
      </trkpt>
      <trkpt lat="25.198087692260742" lon="121.50546312332153">
        <ele>386.36</ele>
      </trkpt>
      <trkpt lat="25.197594165802002" lon="121.50535583496094">
        <ele>388.04</ele>
      </trkpt>
      <trkpt lat="25.1971435546875" lon="121.5054202079773">
        <ele>389.77</ele>
      </trkpt>
      <trkpt lat="25.19695051945746" lon="121.50539875030518">
        <ele>391.29</ele>
      </trkpt>
      <trkpt lat="25.19669302739203" lon="121.50524854660034">
        <ele>392.51</ele>
      </trkpt>
      <trkpt lat="25.19643545150757" lon="121.50511980056763">
        <ele>393.56</ele>
      </trkpt>
      <trkpt lat="25.19617795944214" lon="121.50503396987915">
        <ele>394.75</ele>
      </trkpt>
      <trkpt lat="25.196070671081543" lon="121.50494813919067">
        <ele>395.75</ele>
      </trkpt>
      <trkpt lat="25.196006298065186" lon="121.50484085083008">
        <ele>396.62</ele>
      </trkpt>
      <trkpt lat="25.19592046737671" lon="121.50451898574829">
        <ele>397.45</ele>
      </trkpt>
      <trkpt lat="25.195813262835145" lon="121.50421857833862">
        <ele>398.44</ele>
      </trkpt>
      <trkpt lat="25.195813179016113" lon="121.50421857833862">
        <ele>399.23</ele>
      </trkpt>
      <trkpt lat="25.195748805999756" lon="121.50408983230591">
        <ele>400.06</ele>
      </trkpt>
      <trkpt lat="25.195705890655518" lon="121.50400400161743">
        <ele>400.81</ele>
      </trkpt>
      <trkpt lat="25.195598602294922" lon="121.50393962860107">
        <ele>401.61</ele>
      </trkpt>
      <trkpt lat="25.19540548324585" lon="121.50391817092896">
        <ele>402.48</ele>
      </trkpt>
      <trkpt lat="25.195319652557373" lon="121.50391817092896">
        <ele>403.29</ele>
      </trkpt>
      <trkpt lat="25.1949764136225" lon="121.50400400161743">
        <ele>404.24</ele>
      </trkpt>
      <trkpt lat="25.194976329803467" lon="121.50400400161743">
        <ele>405.12</ele>
      </trkpt>
      <trkpt lat="25.194761753082275" lon="121.50408983230591">
        <ele>406.13</ele>
      </trkpt>
      <trkpt lat="25.194718837738037" lon="121.50413274765015">
        <ele>407.15</ele>
      </trkpt>
      <trkpt lat="25.1946759223938" lon="121.50417566299438">
        <ele>408.2</ele>
      </trkpt>
      <trkpt lat="25.19463300704956" lon="121.5044116973877">
        <ele>409.52</ele>
      </trkpt>
      <trkpt lat="25.194590091705322" lon="121.50447607040405">
        <ele>410.75</ele>
      </trkpt>
      <trkpt lat="25.194547176361084" lon="121.50449752807617">
        <ele>411.97</ele>
      </trkpt>
      <trkpt lat="25.194482803344727" lon="121.50449752807617">
        <ele>413.2</ele>
      </trkpt>
      <trkpt lat="25.194332683458924" lon="121.50447607040405">
        <ele>414.48</ele>
      </trkpt>
      <trkpt lat="25.193774700164795" lon="121.50439023971558">
        <ele>415.67</ele>
      </trkpt>
      <trkpt lat="25.19362449645996" lon="121.5044116973877">
        <ele>417.02</ele>
      </trkpt>
      <trkpt lat="25.19340991973877" lon="121.50445461273193">
        <ele>418.52</ele>
      </trkpt>
      <trkpt lat="25.19321688450873" lon="121.50445461273193">
        <ele>419.93</ele>
      </trkpt>
      <trkpt lat="25.192980766296387" lon="121.50447607040405">
        <ele>421.33</ele>
      </trkpt>
      <trkpt lat="25.19289493560791" lon="121.50449752807617">
        <ele>422.72</ele>
      </trkpt>
      <trkpt lat="25.192852020263672" lon="121.50454044342041">
        <ele>424.16</ele>
      </trkpt>
      <trkpt lat="25.192744731903076" lon="121.50473356246948">
        <ele>425.87</ele>
      </trkpt>
      <trkpt lat="25.19242286682129" lon="121.50499105453491">
        <ele>427.34</ele>
      </trkpt>
      <trkpt lat="25.192251205444336" lon="121.50522708892822">
        <ele>428.9</ele>
      </trkpt>
      <trkpt lat="25.19216537475586" lon="121.5053129196167">
        <ele>430.33</ele>
      </trkpt>
      <trkpt lat="25.192058086395264" lon="121.50537729263306">
        <ele>431.76</ele>
      </trkpt>
      <trkpt lat="25.192015171051025" lon="121.50537729263306">
        <ele>432.98</ele>
      </trkpt>
      <trkpt lat="25.191843593493104" lon="121.50535583496094">
        <ele>434.03</ele>
      </trkpt>
      <trkpt lat="25.191757678985596" lon="121.50533437728882">
        <ele>435.08</ele>
      </trkpt>
      <trkpt lat="25.191650390625" lon="121.50535583496094">
        <ele>436.16</ele>
      </trkpt>
      <trkpt lat="25.19143589772284" lon="121.50544166564941">
        <ele>437.26</ele>
      </trkpt>
      <trkpt lat="25.191307151690125" lon="121.50546312332153">
        <ele>438.23</ele>
      </trkpt>
      <trkpt lat="25.19113540649414" lon="121.50548458099365">
        <ele>439.19</ele>
      </trkpt>
      <trkpt lat="25.191071033477783" lon="121.50550603866577">
        <ele>440.06</ele>
      </trkpt>
      <trkpt lat="25.191006660461426" lon="121.50554895401001">
        <ele>440.94</ele>
      </trkpt>
      <trkpt lat="25.190985202789307" lon="121.50559186935425">
        <ele>441.71</ele>
      </trkpt>
      <trkpt lat="25.190985202789307" lon="121.5056562423706">
        <ele>442.45</ele>
      </trkpt>
      <trkpt lat="25.191006660461426" lon="121.50572061538696">
        <ele>443.12</ele>
      </trkpt>
      <trkpt lat="25.191049575805664" lon="121.5057635307312">
        <ele>443.71</ele>
      </trkpt>
      <trkpt lat="25.19111394882202" lon="121.5057635307312">
        <ele>444.19</ele>
      </trkpt>
      <trkpt lat="25.19165047444403" lon="121.50563478469849">
        <ele>444.38</ele>
      </trkpt>
      <trkpt lat="25.191757678985596" lon="121.5056562423706">
        <ele>444.87</ele>
      </trkpt>
      <trkpt lat="25.191950798034668" lon="121.50578498840332">
        <ele>445.61</ele>
      </trkpt>
      <trkpt lat="25.192058086395264" lon="121.50580644607544">
        <ele>446.11</ele>
      </trkpt>
      <trkpt lat="25.19216537475586" lon="121.50578498840332">
        <ele>446.49</ele>
      </trkpt>
      <trkpt lat="25.19235849380493" lon="121.50563478469849">
        <ele>446.6</ele>
      </trkpt>
      <trkpt lat="25.192444324493408" lon="121.50561332702637">
        <ele>446.89</ele>
      </trkpt>
      <trkpt lat="25.192551612854004" lon="121.50561332702637">
        <ele>447.2</ele>
      </trkpt>
      <trkpt lat="25.192744815722108" lon="121.50569915771484">
        <ele>447.69</ele>
      </trkpt>
      <trkpt lat="25.192744731903076" lon="121.50569915771484">
        <ele>448.06</ele>
      </trkpt>
      <trkpt lat="25.192852020263672" lon="121.50574207305908">
        <ele>448.54</ele>
      </trkpt>
      <trkpt lat="25.192959308624268" lon="121.5057635307312">
        <ele>449.03</ele>
      </trkpt>
      <trkpt lat="25.19313097000122" lon="121.50574207305908">
        <ele>449.48</ele>
      </trkpt>
      <trkpt lat="25.193259716033936" lon="121.50572061538696">
        <ele>450.03</ele>
      </trkpt>
      <trkpt lat="25.19336700439453" lon="121.50572061538696">
        <ele>450.63</ele>
      </trkpt>
      <trkpt lat="25.193474292755127" lon="121.5057635307312">
        <ele>451.35</ele>
      </trkpt>
      <trkpt lat="25.19364595413208" lon="121.5058708190918">
        <ele>452.15</ele>
      </trkpt>
      <trkpt lat="25.194010734558105" lon="121.50595664978027">
        <ele>452.69</ele>
      </trkpt>
      <trkpt lat="25.194032192230225" lon="121.50597810745239">
        <ele>453.5</ele>
      </trkpt>
      <trkpt lat="25.194075107574463" lon="121.50606393814087">
        <ele>454.43</ele>
      </trkpt>
      <trkpt lat="25.193989276885986" lon="121.50638580322266">
        <ele>455.82</ele>
      </trkpt>
      <trkpt lat="25.194010734558105" lon="121.50649309158325">
        <ele>456.94</ele>
      </trkpt>
      <trkpt lat="25.194032192230225" lon="121.50655746459961">
        <ele>458.06</ele>
      </trkpt>
      <trkpt lat="25.194289684295654" lon="121.50694370269775">
        <ele>459.43</ele>
      </trkpt>
      <trkpt lat="25.19439697265625" lon="121.50700807571411">
        <ele>460.62</ele>
      </trkpt>
      <trkpt lat="25.194633090868592" lon="121.50702953338623">
        <ele>461.69</ele>
      </trkpt>
      <trkpt lat="25.194761753082275" lon="121.50707244873047">
        <ele>462.86</ele>
      </trkpt>
      <trkpt lat="25.194847583770752" lon="121.50715827941895">
        <ele>464.13</ele>
      </trkpt>
      <trkpt lat="25.19489049911499" lon="121.5072226524353">
        <ele>465.43</ele>
      </trkpt>
      <trkpt lat="25.194997871294618" lon="121.5074372291565">
        <ele>466.87</ele>
      </trkpt>
      <trkpt lat="25.19516944885254" lon="121.50775909423828">
        <ele>468.45</ele>
      </trkpt>
      <trkpt lat="25.195298194885254" lon="121.50786638259888">
        <ele>469.8</ele>
      </trkpt>
      <trkpt lat="25.195512771606445" lon="121.50795221328735">
        <ele>471.07</ele>
      </trkpt>
      <trkpt lat="25.195791721343994" lon="121.50801658630371">
        <ele>472.47</ele>
      </trkpt>
      <trkpt lat="25.19592046737671" lon="121.50805950164795">
        <ele>473.8</ele>
      </trkpt>
      <trkpt lat="25.196757316589355" lon="121.50870323181152">
        <ele>475.16</ele>
      </trkpt>
      <trkpt lat="25.19735813140869" lon="121.50904655456543">
        <ele>476.73</ele>
      </trkpt>
      <trkpt lat="25.197551250457764" lon="121.50919675827026">
        <ele>478.04</ele>
      </trkpt>
      <trkpt lat="25.19761562347412" lon="121.50928258895874">
        <ele>479.27</ele>
      </trkpt>
      <trkpt lat="25.19765853881836" lon="121.50938987731934">
        <ele>480.52</ele>
      </trkpt>
      <trkpt lat="25.197787284851074" lon="121.50975465774536">
        <ele>481.78</ele>
      </trkpt>
      <trkpt lat="25.198001945391297" lon="121.5101408958435">
        <ele>482.83</ele>
      </trkpt>
      <trkpt lat="25.198023319244385" lon="121.51022672653198">
        <ele>483.92</ele>
      </trkpt>
      <trkpt lat="25.198044860735536" lon="121.5104627609253">
        <ele>484.99</ele>
      </trkpt>
      <trkpt lat="25.198044776916504" lon="121.51063442230225">
        <ele>486.04</ele>
      </trkpt>
      <trkpt lat="25.198001861572266" lon="121.51072025299072">
        <ele>487.21</ele>
      </trkpt>
      <trkpt lat="25.197937488555908" lon="121.51074171066284">
        <ele>488.36</ele>
      </trkpt>
      <trkpt lat="25.19787311553955" lon="121.51072025299072">
        <ele>489.48</ele>
      </trkpt>
      <trkpt lat="25.19785165786743" lon="121.51067733764648">
        <ele>490.46</ele>
      </trkpt>
      <trkpt lat="25.197830200195312" lon="121.51061296463013">
        <ele>491.4</ele>
      </trkpt>
      <trkpt lat="25.197830200195312" lon="121.51037693023682">
        <ele>492.19</ele>
      </trkpt>
      <trkpt lat="25.197787284851074" lon="121.51022672653198">
        <ele>493.2</ele>
      </trkpt>
      <trkpt lat="25.197744369506836" lon="121.51011943817139">
        <ele>494.2</ele>
      </trkpt>
      <trkpt lat="25.197594165802002" lon="121.50996923446655">
        <ele>495.4</ele>
      </trkpt>
      <trkpt lat="25.197529876604676" lon="121.50986194610596">
        <ele>496.46</ele>
      </trkpt>
      <trkpt lat="25.19740104675293" lon="121.509690284729">
        <ele>497.62</ele>
      </trkpt>
      <trkpt lat="25.197336673736572" lon="121.50962591171265">
        <ele>498.77</ele>
      </trkpt>
      <trkpt lat="25.19716501235962" lon="121.50954008102417">
        <ele>500.08</ele>
      </trkpt>
      <trkpt lat="25.196843231096864" lon="121.50949716567993">
        <ele>501.41</ele>
      </trkpt>
      <trkpt lat="25.196478366851807" lon="121.50941133499146">
        <ele>502.95</ele>
      </trkpt>
      <trkpt lat="25.196049213409424" lon="121.50928258895874">
        <ele>504.5</ele>
      </trkpt>
      <trkpt lat="25.1956844329834" lon="121.50921821594238">
        <ele>506.1</ele>
      </trkpt>
      <trkpt lat="25.195491313934326" lon="121.50915384292603">
        <ele>507.69</ele>
      </trkpt>
      <trkpt lat="25.195233905687928" lon="121.50902509689331">
        <ele>509.26</ele>
      </trkpt>
      <trkpt lat="25.19495495595038" lon="121.50887489318848">
        <ele>510.82</ele>
      </trkpt>
      <trkpt lat="25.194847583770752" lon="121.50883197784424">
        <ele>512.53</ele>
      </trkpt>
      <trkpt lat="25.194718837738037" lon="121.50883197784424">
        <ele>514.34</ele>
      </trkpt>
      <trkpt lat="25.193989276885986" lon="121.50915384292603">
        <ele>516.67</ele>
      </trkpt>
      <trkpt lat="25.193839073181152" lon="121.50917530059814">
        <ele>518.44</ele>
      </trkpt>
      <trkpt lat="25.1936674118042" lon="121.50915384292603">
        <ele>520.36</ele>
      </trkpt>
      <trkpt lat="25.19343137741089" lon="121.50906801223755">
        <ele>522.33</ele>
      </trkpt>
      <trkpt lat="25.193281173706055" lon="121.50902509689331">
        <ele>524.45</ele>
      </trkpt>
      <trkpt lat="25.193002223968506" lon="121.50900363922119">
        <ele>526.46</ele>
      </trkpt>
      <trkpt lat="25.192551612854004" lon="121.50900363922119">
        <ele>528.67</ele>
      </trkpt>
      <trkpt lat="25.192294120788574" lon="121.50904655456543">
        <ele>530.89</ele>
      </trkpt>
      <trkpt lat="25.192036628723145" lon="121.50911092758179">
        <ele>533.03</ele>
      </trkpt>
      <trkpt lat="25.191950798034668" lon="121.50915384292603">
        <ele>535.18</ele>
      </trkpt>
      <trkpt lat="25.191543102264404" lon="121.50947570800781">
        <ele>537.66</ele>
      </trkpt>
      <trkpt lat="25.191500186920166" lon="121.50954008102417">
        <ele>539.8</ele>
      </trkpt>
      <trkpt lat="25.191457271575928" lon="121.50960445404053">
        <ele>541.9</ele>
      </trkpt>
      <trkpt lat="25.19143581390381" lon="121.509690284729">
        <ele>543.98</ele>
      </trkpt>
      <trkpt lat="25.191457271575928" lon="121.50977611541748">
        <ele>546.06</ele>
      </trkpt>
      <trkpt lat="25.191650390625" lon="121.51031255722046">
        <ele>548.65</ele>
      </trkpt>
      <trkpt lat="25.19167184829712" lon="121.51052713394165">
        <ele>550.62</ele>
      </trkpt>
      <trkpt lat="25.19162893295288" lon="121.51089191436768">
        <ele>552.28</ele>
      </trkpt>
      <trkpt lat="25.19167184829712" lon="121.51106357574463">
        <ele>554.17</ele>
      </trkpt>
      <trkpt lat="25.19169338978827" lon="121.5111494064331">
        <ele>555.81</ele>
      </trkpt>
      <trkpt lat="25.191779220476747" lon="121.51134252548218">
        <ele>557.59</ele>
      </trkpt>
      <trkpt lat="25.191800594329834" lon="121.51147127151489">
        <ele>559.0</ele>
      </trkpt>
      <trkpt lat="25.191757762804627" lon="121.51160001754761">
        <ele>560.15</ele>
      </trkpt>
      <trkpt lat="25.191736221313477" lon="121.51164293289185">
        <ele>561.22</ele>
      </trkpt>
      <trkpt lat="25.191650390625" lon="121.5117073059082">
        <ele>562.06</ele>
      </trkpt>
      <trkpt lat="25.191564559936523" lon="121.51166439056396">
        <ele>562.67</ele>
      </trkpt>
      <trkpt lat="25.19143581390381" lon="121.51153564453125">
        <ele>562.94</ele>
      </trkpt>
      <trkpt lat="25.191285610198975" lon="121.51147127151489">
        <ele>563.35</ele>
      </trkpt>
      <trkpt lat="25.191221237182617" lon="121.51142835617065">
        <ele>563.93</ele>
      </trkpt>
      <trkpt lat="25.191114032641053" lon="121.51119232177734">
        <ele>564.14</ele>
      </trkpt>
      <trkpt lat="25.191006744280457" lon="121.51110649108887">
        <ele>564.68</ele>
      </trkpt>
      <trkpt lat="25.190706253051758" lon="121.51095628738403">
        <ele>565.5</ele>
      </trkpt>
      <trkpt lat="25.190534591674805" lon="121.51078462600708">
        <ele>566.02</ele>
      </trkpt>
      <trkpt lat="25.190491676330566" lon="121.51076316833496">
        <ele>566.65</ele>
      </trkpt>
      <trkpt lat="25.19042730331421" lon="121.51076316833496">
        <ele>567.33</ele>
      </trkpt>
      <trkpt lat="25.190320014953613" lon="121.51082754135132">
        <ele>568.12</ele>
      </trkpt>
      <trkpt lat="25.1901912689209" lon="121.51097774505615">
        <ele>569.21</ele>
      </trkpt>
      <trkpt lat="25.189976692199707" lon="121.51106357574463">
        <ele>569.88</ele>
      </trkpt>
      <trkpt lat="25.18989086151123" lon="121.5111494064331">
        <ele>570.68</ele>
      </trkpt>
      <trkpt lat="25.189847946166992" lon="121.51119232177734">
        <ele>571.43</ele>
      </trkpt>
      <trkpt lat="25.18967628479004" lon="121.51164293289185">
        <ele>573.26</ele>
      </trkpt>
      <trkpt lat="25.18961191177368" lon="121.51172876358032">
        <ele>574.13</ele>
      </trkpt>
      <trkpt lat="25.189568996429443" lon="121.51172876358032">
        <ele>574.75</ele>
      </trkpt>
      <trkpt lat="25.189483165740967" lon="121.51168584823608">
        <ele>575.21</ele>
      </trkpt>
      <trkpt lat="25.189311504364014" lon="121.5113639831543">
        <ele>574.72</ele>
      </trkpt>
      <trkpt lat="25.189268589019775" lon="121.51132106781006">
        <ele>575.19</ele>
      </trkpt>
      <trkpt lat="25.18916130065918" lon="121.5112566947937">
        <ele>575.63</ele>
      </trkpt>
      <trkpt lat="25.189075469970703" lon="121.51123523712158">
        <ele>576.18</ele>
      </trkpt>
      <trkpt lat="25.18892526626587" lon="121.51127815246582">
        <ele>576.94</ele>
      </trkpt>
      <trkpt lat="25.18873223103583" lon="121.5113639831543">
        <ele>577.75</ele>
      </trkpt>
      <trkpt lat="25.188517654314637" lon="121.51153564453125">
        <ele>578.53</ele>
      </trkpt>
      <trkpt lat="25.188303077593446" lon="121.51168584823608">
        <ele>579.26</ele>
      </trkpt>
      <trkpt lat="25.18819570541382" lon="121.51172876358032">
        <ele>579.98</ele>
      </trkpt>
      <trkpt lat="25.18815279006958" lon="121.51172876358032">
        <ele>580.62</ele>
      </trkpt>
      <trkpt lat="25.188109874725342" lon="121.5117073059082">
        <ele>581.2</ele>
      </trkpt>
      <trkpt lat="25.18787384033203" lon="121.51157855987549">
        <ele>581.65</ele>
      </trkpt>
      <trkpt lat="25.187830924987793" lon="121.51155710220337">
        <ele>582.3</ele>
      </trkpt>
      <trkpt lat="25.187745094299316" lon="121.51155710220337">
        <ele>583.06</ele>
      </trkpt>
      <trkpt lat="25.18768072128296" lon="121.51162147521973">
        <ele>583.97</ele>
      </trkpt>
      <trkpt lat="25.187509059906006" lon="121.51187896728516">
        <ele>585.31</ele>
      </trkpt>
      <trkpt lat="25.18744468688965" lon="121.51190042495728">
        <ele>586.06</ele>
      </trkpt>
      <trkpt lat="25.18738031387329" lon="121.51190042495728">
        <ele>586.78</ele>
      </trkpt>
      <trkpt lat="25.187337398529053" lon="121.51187896728516">
        <ele>587.47</ele>
      </trkpt>
      <trkpt lat="25.187294483184814" lon="121.51183605194092">
        <ele>588.1</ele>
      </trkpt>
      <trkpt lat="25.18718719482422" lon="121.51164293289185">
        <ele>588.44</ele>
      </trkpt>
      <trkpt lat="25.18714427947998" lon="121.51157855987549">
        <ele>589.06</ele>
      </trkpt>
      <trkpt lat="25.187058448791504" lon="121.51153564453125">
        <ele>589.73</ele>
      </trkpt>
      <trkpt lat="25.186994075775146" lon="121.51151418685913">
        <ele>590.5</ele>
      </trkpt>
      <trkpt lat="25.18688678741455" lon="121.51149272918701">
        <ele>591.38</ele>
      </trkpt>
      <trkpt lat="25.18673666752875" lon="121.51151418685913">
        <ele>592.4</ele>
      </trkpt>
      <trkpt lat="25.186586380004883" lon="121.51160001754761">
        <ele>593.58</ele>
      </trkpt>
      <trkpt lat="25.186457633972168" lon="121.5117073059082">
        <ele>594.88</ele>
      </trkpt>
      <trkpt lat="25.186328887939453" lon="121.51196479797363">
        <ele>596.45</ele>
      </trkpt>
      <trkpt lat="25.186264514923096" lon="121.51205062866211">
        <ele>597.73</ele>
      </trkpt>
      <trkpt lat="25.18620014190674" lon="121.51207208633423">
        <ele>598.83</ele>
      </trkpt>
      <trkpt lat="25.185835361480713" lon="121.51200771331787">
        <ele>599.37</ele>
      </trkpt>
      <trkpt lat="25.185770988464355" lon="121.51200771331787">
        <ele>600.46</ele>
      </trkpt>
      <trkpt lat="25.18568515777588" lon="121.51205062866211">
        <ele>601.7</ele>
      </trkpt>
      <trkpt lat="25.18562078475952" lon="121.51209354400635">
        <ele>602.95</ele>
      </trkpt>
      <trkpt lat="25.18519163131714" lon="121.51278018951416">
        <ele>605.59</ele>
      </trkpt>
      <trkpt lat="25.18512725830078" lon="121.51286602020264">
        <ele>606.73</ele>
      </trkpt>
      <trkpt lat="25.185084342956543" lon="121.51288747787476">
        <ele>607.7</ele>
      </trkpt>
      <trkpt lat="25.184955596923828" lon="121.51286602020264">
        <ele>608.34</ele>
      </trkpt>
      <trkpt lat="25.18486976623535" lon="121.5128231048584">
        <ele>609.13</ele>
      </trkpt>
      <trkpt lat="25.184826850891113" lon="121.51278018951416">
        <ele>609.97</ele>
      </trkpt>
      <trkpt lat="25.184805393218994" lon="121.51273727416992">
        <ele>610.84</ele>
      </trkpt>
      <trkpt lat="25.184783935546875" lon="121.51265144348145">
        <ele>611.71</ele>
      </trkpt>
      <trkpt lat="25.184826934710145" lon="121.51239395141602">
        <ele>612.18</ele>
      </trkpt>
      <trkpt lat="25.185019969940186" lon="121.51164293289185">
        <ele>612.49</ele>
      </trkpt>
      <trkpt lat="25.185062885284424" lon="121.51149272918701">
        <ele>613.38</ele>
      </trkpt>
      <trkpt lat="25.18512725830078" lon="121.5113639831543">
        <ele>613.96</ele>
      </trkpt>
      <trkpt lat="25.185213088989258" lon="121.51123523712158">
        <ele>614.5</ele>
      </trkpt>
      <trkpt lat="25.185513496398926" lon="121.51078462600708">
        <ele>615.35</ele>
      </trkpt>
      <trkpt lat="25.185620868578553" lon="121.51050567626953">
        <ele>616.18</ele>
      </trkpt>
      <trkpt lat="25.18570669926703" lon="121.51009798049927">
        <ele>617.23</ele>
      </trkpt>
      <trkpt lat="25.185728073120117" lon="121.50994777679443">
        <ele>618.22</ele>
      </trkpt>
      <trkpt lat="25.185728073120117" lon="121.509690284729">
        <ele>619.32</ele>
      </trkpt>
      <trkpt lat="25.185706615447998" lon="121.50962591171265">
        <ele>620.46</ele>
      </trkpt>
      <trkpt lat="25.18566370010376" lon="121.50956153869629">
        <ele>621.74</ele>
      </trkpt>
      <trkpt lat="25.185513580217957" lon="121.5093469619751">
        <ele>623.39</ele>
      </trkpt>
      <trkpt lat="25.18544912338257" lon="121.50926113128662">
        <ele>624.8</ele>
      </trkpt>
      <trkpt lat="25.18538475036621" lon="121.50915384292603">
        <ele>626.17</ele>
      </trkpt>
      <trkpt lat="25.185148799791932" lon="121.5082311630249">
        <ele>627.81</ele>
      </trkpt>
      <trkpt lat="25.18512725830078" lon="121.50803804397583">
        <ele>629.16</ele>
      </trkpt>
      <trkpt lat="25.185105884447694" lon="121.50773763656616">
        <ele>630.35</ele>
      </trkpt>
      <trkpt lat="25.185062885284424" lon="121.50758743286133">
        <ele>631.81</ele>
      </trkpt>
      <trkpt lat="25.18486976623535" lon="121.50724411010742">
        <ele>633.5</ele>
      </trkpt>
      <trkpt lat="25.184783935546875" lon="121.50717973709106">
        <ele>635.17</ele>
      </trkpt>
      <trkpt lat="25.1846981048584" lon="121.50717973709106">
        <ele>636.96</ele>
      </trkpt>
      <trkpt lat="25.18465518951416" lon="121.5072226524353">
        <ele>638.66</ele>
      </trkpt>
      <trkpt lat="25.18465518951416" lon="121.50724411010742">
        <ele>640.15</ele>
      </trkpt>
      <trkpt lat="25.18465518951416" lon="121.5073299407959">
        <ele>641.71</ele>
      </trkpt>
      <trkpt lat="25.18467664718628" lon="121.50737285614014">
        <ele>643.13</ele>
      </trkpt>
      <trkpt lat="25.184826850891113" lon="121.50752305984497">
        <ele>644.22</ele>
      </trkpt>
      <trkpt lat="25.184848308563232" lon="121.50758743286133">
        <ele>645.62</ele>
      </trkpt>
      <trkpt lat="25.18486976623535" lon="121.50765180587769">
        <ele>647.03</ele>
      </trkpt>
      <trkpt lat="25.184848308563232" lon="121.50782346725464">
        <ele>648.58</ele>
      </trkpt>
      <trkpt lat="25.18467664718628" lon="121.50831699371338">
        <ele>650.13</ele>
      </trkpt>
      <trkpt lat="25.184483528137207" lon="121.50870323181152">
        <ele>651.86</ele>
      </trkpt>
      <trkpt lat="25.184354782104492" lon="121.50885343551636">
        <ele>653.41</ele>
      </trkpt>
      <trkpt lat="25.184268951416016" lon="121.50893926620483">
        <ele>654.82</ele>
      </trkpt>
      <trkpt lat="25.183839797973633" lon="121.50921821594238">
        <ele>656.66</ele>
      </trkpt>
      <trkpt lat="25.18373259343207" lon="121.50936841964722">
        <ele>658.1</ele>
      </trkpt>
      <trkpt lat="25.1836895942688" lon="121.50947570800781">
        <ele>659.3</ele>
      </trkpt>
      <trkpt lat="25.1836895942688" lon="121.50956153869629">
        <ele>660.48</ele>
      </trkpt>
      <trkpt lat="25.183711051940918" lon="121.50966882705688">
        <ele>661.58</ele>
      </trkpt>
      <trkpt lat="25.183818424120545" lon="121.51003360748291">
        <ele>662.71</ele>
      </trkpt>
      <trkpt lat="25.18390417098999" lon="121.51020526885986">
        <ele>663.91</ele>
      </trkpt>
      <trkpt lat="25.18416166305542" lon="121.5104627609253">
        <ele>665.06</ele>
      </trkpt>
      <trkpt lat="25.184290409088135" lon="121.51065587997437">
        <ele>666.1</ele>
      </trkpt>
      <trkpt lat="25.18437623977661" lon="121.51084899902344">
        <ele>667.06</ele>
      </trkpt>
      <trkpt lat="25.18441923893988" lon="121.51110649108887">
        <ele>667.98</ele>
      </trkpt>
      <trkpt lat="25.18444061279297" lon="121.5112566947937">
        <ele>668.88</ele>
      </trkpt>
      <trkpt lat="25.18441923893988" lon="121.51138544082642">
        <ele>669.88</ele>
      </trkpt>
      <trkpt lat="25.184226036071777" lon="121.51190042495728">
        <ele>670.66</ele>
      </trkpt>
      <trkpt lat="25.18418312072754" lon="121.51196479797363">
        <ele>671.68</ele>
      </trkpt>
      <trkpt lat="25.18416166305542" lon="121.51200771331787">
        <ele>672.73</ele>
      </trkpt>
      <trkpt lat="25.18411874771118" lon="121.51202917098999">
        <ele>673.92</ele>
      </trkpt>
      <trkpt lat="25.184011459350586" lon="121.51202917098999">
        <ele>675.38</ele>
      </trkpt>
      <trkpt lat="25.183990001678467" lon="121.51200771331787">
        <ele>676.66</ele>
      </trkpt>
      <trkpt lat="25.183968544006348" lon="121.51196479797363">
        <ele>678.01</ele>
      </trkpt>
      <trkpt lat="25.18394708633423" lon="121.51160001754761">
        <ele>679.5</ele>
      </trkpt>
      <trkpt lat="25.183861255645752" lon="121.51142835617065">
        <ele>680.96</ele>
      </trkpt>
      <trkpt lat="25.183088779449463" lon="121.51063442230225">
        <ele>683.03</ele>
      </trkpt>
      <trkpt lat="25.182981491088867" lon="121.5104627609253">
        <ele>684.43</ele>
      </trkpt>
      <trkpt lat="25.18291711807251" lon="121.51026964187622">
        <ele>685.79</ele>
      </trkpt>
      <trkpt lat="25.18287420272827" lon="121.51007652282715">
        <ele>687.18</ele>
      </trkpt>
      <trkpt lat="25.18287420272827" lon="121.50988340377808">
        <ele>688.53</ele>
      </trkpt>
      <trkpt lat="25.18289566040039" lon="121.50964736938477">
        <ele>689.92</ele>
      </trkpt>
      <trkpt lat="25.18287420272827" lon="121.50956153869629">
        <ele>691.63</ele>
      </trkpt>
      <trkpt lat="25.182852745056152" lon="121.50951862335205">
        <ele>693.4</ele>
      </trkpt>
      <trkpt lat="25.182788372039795" lon="121.50951862335205">
        <ele>695.37</ele>
      </trkpt>
      <trkpt lat="25.182745456695557" lon="121.50954008102417">
        <ele>697.34</ele>
      </trkpt>
      <trkpt lat="25.182723999023438" lon="121.50960445404053">
        <ele>699.34</ele>
      </trkpt>
      <trkpt lat="25.18270254135132" lon="121.50975465774536">
        <ele>701.44</ele>
      </trkpt>
      <trkpt lat="25.18272408284247" lon="121.51020526885986">
        <ele>703.75</ele>
      </trkpt>
      <trkpt lat="25.18274554051459" lon="121.51044130325317">
        <ele>705.97</ele>
      </trkpt>
      <trkpt lat="25.182766914367676" lon="121.51123523712158">
        <ele>708.21</ele>
      </trkpt>
      <trkpt lat="25.18265962600708" lon="121.5119218826294">
        <ele>710.77</ele>
      </trkpt>
      <trkpt lat="25.182616794481874" lon="121.51239395141602">
        <ele>713.13</ele>
      </trkpt>
      <trkpt lat="25.182595336809754" lon="121.51273727416992">
        <ele>715.21</ele>
      </trkpt>
      <trkpt lat="25.182552337646484" lon="121.51299476623535">
        <ele>717.33</ele>
      </trkpt>
      <trkpt lat="25.182487964630127" lon="121.51318788528442">
        <ele>719.56</ele>
      </trkpt>
      <trkpt lat="25.18242359161377" lon="121.5132737159729">
        <ele>721.94</ele>
      </trkpt>
      <trkpt lat="25.182080268859863" lon="121.51359558105469">
        <ele>724.92</ele>
      </trkpt>
      <trkpt lat="25.182037353515625" lon="121.51365995407104">
        <ele>727.23</ele>
      </trkpt>
      <trkpt lat="25.182015895843506" lon="121.5137243270874">
        <ele>729.42</ele>
      </trkpt>
      <trkpt lat="25.182015895843506" lon="121.51378870010376">
        <ele>731.44</ele>
      </trkpt>
      <trkpt lat="25.182101726531982" lon="121.51402473449707">
        <ele>733.14</ele>
      </trkpt>
      <trkpt lat="25.182080268859863" lon="121.5141749382019">
        <ele>735.26</ele>
      </trkpt>
      <trkpt lat="25.182015895843506" lon="121.51432514190674">
        <ele>737.45</ele>
      </trkpt>
      <trkpt lat="25.181758487597108" lon="121.51464700698853">
        <ele>740.03</ele>
      </trkpt>
      <trkpt lat="25.181736946105957" lon="121.51471138000488">
        <ele>741.73</ele>
      </trkpt>
      <trkpt lat="25.181736946105957" lon="121.5148401260376">
        <ele>743.37</ele>
      </trkpt>
      <trkpt lat="25.181758403778076" lon="121.51486158370972">
        <ele>744.6</ele>
      </trkpt>
      <trkpt lat="25.181844234466553" lon="121.51490449905396">
        <ele>745.61</ele>
      </trkpt>
      <trkpt lat="25.182294845581055" lon="121.51486158370972">
        <ele>746.93</ele>
      </trkpt>
      <trkpt lat="25.18265962600708" lon="121.51488304138184">
        <ele>748.22</ele>
      </trkpt>
      <trkpt lat="25.183217525482178" lon="121.51479721069336">
        <ele>748.36</ele>
      </trkpt>
      <trkpt lat="25.18338918685913" lon="121.51481866836548">
        <ele>748.97</ele>
      </trkpt>
      <trkpt lat="25.183475017547607" lon="121.51486158370972">
        <ele>749.99</ele>
      </trkpt>
      <trkpt lat="25.183539390563965" lon="121.5149474143982">
        <ele>751.29</ele>
      </trkpt>
      <trkpt lat="25.183775508776307" lon="121.51535511016846">
        <ele>753.05</ele>
      </trkpt>
      <trkpt lat="25.18394717015326" lon="121.515634059906">
        <ele>754.08</ele>
      </trkpt>
      <trkpt lat="25.184011459350586" lon="121.51578426361084">
        <ele>755.45</ele>
      </trkpt>
      <trkpt lat="25.184097290039062" lon="121.51610612869263">
        <ele>757.11</ele>
      </trkpt>
      <trkpt lat="25.184097373858094" lon="121.51610612869263">
        <ele>758.48</ele>
      </trkpt>
      <trkpt lat="25.184226036071777" lon="121.51657819747925">
        <ele>760.26</ele>
      </trkpt>
      <trkpt lat="25.184504985809326" lon="121.51705026626587">
        <ele>761.45</ele>
      </trkpt>
      <trkpt lat="25.184569358825684" lon="121.51724338531494">
        <ele>763.27</ele>
      </trkpt>
      <trkpt lat="25.18465518951416" lon="121.51760816574097">
        <ele>765.03</ele>
      </trkpt>
      <trkpt lat="25.1846981048584" lon="121.51805877685547">
        <ele>767.26</ele>
      </trkpt>
      <trkpt lat="25.184848308563232" lon="121.51853084564209">
        <ele>768.89</ele>
      </trkpt>
      <trkpt lat="25.18491268157959" lon="121.51902437210083">
        <ele>770.6</ele>
      </trkpt>
      <trkpt lat="25.184955596923828" lon="121.51919603347778">
        <ele>772.23</ele>
      </trkpt>
      <trkpt lat="25.185298919677734" lon="121.51975393295288">
        <ele>773.92</ele>
      </trkpt>
      <trkpt lat="25.18549212254584" lon="121.52014017105103">
        <ele>775.54</ele>
      </trkpt>
      <trkpt lat="25.185513496398926" lon="121.52020454406738">
        <ele>776.95</ele>
      </trkpt>
      <trkpt lat="25.185513496398926" lon="121.52035474777222">
        <ele>778.33</ele>
      </trkpt>
      <trkpt lat="25.185492038726807" lon="121.52080535888672">
        <ele>779.84</ele>
      </trkpt>
      <trkpt lat="25.185535037890077" lon="121.52101993560791">
        <ele>781.24</ele>
      </trkpt>
      <trkpt lat="25.185771072283387" lon="121.52170658111572">
        <ele>782.71</ele>
      </trkpt>
      <trkpt lat="25.185835445299745" lon="121.52192115783691">
        <ele>783.72</ele>
      </trkpt>
      <trkpt lat="25.186007022857666" lon="121.52241468429565">
        <ele>784.49</ele>
      </trkpt>
      <trkpt lat="25.186028480529785" lon="121.52247905731201">
        <ele>785.73</ele>
      </trkpt>
      <trkpt lat="25.186071395874023" lon="121.52252197265625">
        <ele>787.12</ele>
      </trkpt>
      <trkpt lat="25.18613576889038" lon="121.52254343032837">
        <ele>788.67</ele>
      </trkpt>
      <trkpt lat="25.18620014190674" lon="121.52252197265625">
        <ele>790.39</ele>
      </trkpt>
      <trkpt lat="25.186543548479676" lon="121.5223503112793">
        <ele>792.56</ele>
      </trkpt>
      <trkpt lat="25.18671520985663" lon="121.5222430229187">
        <ele>794.68</ele>
      </trkpt>
      <trkpt lat="25.18686532974243" lon="121.5221357345581">
        <ele>796.92</ele>
      </trkpt>
      <trkpt lat="25.186972618103027" lon="121.52200698852539">
        <ele>799.24</ele>
      </trkpt>
      <trkpt lat="25.187230110168457" lon="121.52140617370605">
        <ele>801.92</ele>
      </trkpt>
      <trkpt lat="25.187294483184814" lon="121.52132034301758">
        <ele>804.41</ele>
      </trkpt>
      <trkpt lat="25.187852382659912" lon="121.5211272239685">
        <ele>807.53</ele>
      </trkpt>
      <trkpt lat="25.18793821334839" lon="121.52110576629639">
        <ele>809.68</ele>
      </trkpt>
      <trkpt lat="25.187981128692627" lon="121.5211272239685">
        <ele>811.75</ele>
      </trkpt>
      <trkpt lat="25.188067043200135" lon="121.52121305465698">
        <ele>814.05</ele>
      </trkpt>
      <trkpt lat="25.188066959381104" lon="121.5213418006897">
        <ele>815.78</ele>
      </trkpt>
      <trkpt lat="25.188045501708984" lon="121.52192115783691">
        <ele>817.24</ele>
      </trkpt>
      <trkpt lat="25.188066959381104" lon="121.52239322662354">
        <ele>819.26</ele>
      </trkpt>
      <trkpt lat="25.188324451446533" lon="121.5238094329834">
        <ele>820.91</ele>
      </trkpt>
      <trkpt lat="25.188345992937684" lon="121.52398109436035">
        <ele>822.5</ele>
      </trkpt>
      <trkpt lat="25.188324451446533" lon="121.52404546737671">
        <ele>824.48</ele>
      </trkpt>
      <trkpt lat="25.188281536102295" lon="121.52413129806519">
        <ele>826.73</ele>
      </trkpt>
      <trkpt lat="25.18815279006958" lon="121.52421712875366">
        <ele>829.23</ele>
      </trkpt>
      <trkpt lat="25.18639326095581" lon="121.52511835098267">
        <ele>832.74</ele>
      </trkpt>
      <trkpt lat="25.186328887939453" lon="121.5251612663269">
        <ele>834.17</ele>
      </trkpt>
      <trkpt lat="25.186285972595215" lon="121.52522563934326">
        <ele>835.51</ele>
      </trkpt>
      <trkpt lat="25.186281530186534" lon="121.5252389665693">
        <ele>838.37</ele>
      </trkpt>
      <trkpt lat="25.186264514923096" lon="121.52529001235962">
        <ele>839.61</ele>
      </trkpt>
      <trkpt lat="25.186071395874023" lon="121.52529001235962">
        <ele>841.14</ele>
      </trkpt>
      <trkpt lat="25.18594264984131" lon="121.52529001235962">
        <ele>842.94</ele>
      </trkpt>
      <trkpt lat="25.18589973449707" lon="121.52531147003174">
        <ele>844.75</ele>
      </trkpt>
      <trkpt lat="25.185856819152832" lon="121.52563333511353">
        <ele>846.69</ele>
      </trkpt>
      <trkpt lat="25.185835361480713" lon="121.525719165802">
        <ele>848.66</ele>
      </trkpt>
      <trkpt lat="25.185792446136475" lon="121.52578353881836">
        <ele>850.7</ele>
      </trkpt>
      <trkpt lat="25.184977054595947" lon="121.52677059173584">
        <ele>854.77</ele>
      </trkpt>
      <trkpt lat="25.184955596923828" lon="121.52681350708008">
        <ele>857.53</ele>
      </trkpt>
      <trkpt lat="25.18491268157959" lon="121.52681350708008">
        <ele>860.11</ele>
      </trkpt>
      <trkpt lat="25.18486976623535" lon="121.52681350708008">
        <ele>862.48</ele>
      </trkpt>
      <trkpt lat="25.18486976623535" lon="121.52679204940796">
        <ele>864.53</ele>
      </trkpt>
      <trkpt lat="25.184848308563232" lon="121.52670621871948">
        <ele>866.53</ele>
      </trkpt>
      <trkpt lat="25.18489122390747" lon="121.52657747268677">
        <ele>868.29</ele>
      </trkpt>
      <trkpt lat="25.18486976623535" lon="121.52653455734253">
        <ele>870.0</ele>
      </trkpt>
      <trkpt lat="25.184848308563232" lon="121.52649164199829">
        <ele>871.65</ele>
      </trkpt>
      <trkpt lat="25.184826850891113" lon="121.52649164199829">
        <ele>873.19</ele>
      </trkpt>
      <trkpt lat="25.184783935546875" lon="121.52649164199829">
        <ele>874.77</ele>
      </trkpt>
      <trkpt lat="25.184762477874756" lon="121.52653455734253">
        <ele>876.2</ele>
      </trkpt>
      <trkpt lat="25.18463373184204" lon="121.52668476104736">
        <ele>877.68</ele>
      </trkpt>
      <trkpt lat="25.184569358825684" lon="121.52677059173584">
        <ele>879.11</ele>
      </trkpt>
      <trkpt lat="25.184483528137207" lon="121.52681350708008">
        <ele>880.64</ele>
      </trkpt>
      <trkpt lat="25.1841402053833" lon="121.52700662612915">
        <ele>882.55</ele>
      </trkpt>
      <trkpt lat="25.184054374694824" lon="121.52704954147339">
        <ele>884.3</ele>
      </trkpt>
      <trkpt lat="25.183861255645752" lon="121.52709245681763">
        <ele>886.2</ele>
      </trkpt>
      <trkpt lat="25.18343210220337" lon="121.52715682983398">
        <ele>888.06</ele>
      </trkpt>
      <trkpt lat="25.183324813842773" lon="121.52713537216187">
        <ele>889.78</ele>
      </trkpt>
      <trkpt lat="25.183217525482178" lon="121.52704954147339">
        <ele>891.57</ele>
      </trkpt>
      <trkpt lat="25.18317461013794" lon="121.5269422531128">
        <ele>893.32</ele>
      </trkpt>
      <trkpt lat="25.18317461013794" lon="121.52681350708008">
        <ele>895.03</ele>
      </trkpt>
      <trkpt lat="25.183238983154297" lon="121.526620388031">
        <ele>896.77</ele>
      </trkpt>
      <trkpt lat="25.183260440826416" lon="121.52655601501465">
        <ele>898.25</ele>
      </trkpt>
      <trkpt lat="25.183303356170654" lon="121.52651309967041">
        <ele>899.59</ele>
      </trkpt>
      <trkpt lat="25.18341064453125" lon="121.52647018432617">
        <ele>900.8</ele>
      </trkpt>
      <trkpt lat="25.18362522125244" lon="121.52647018432617">
        <ele>901.71</ele>
      </trkpt>
      <trkpt lat="25.183732509613037" lon="121.52644872665405">
        <ele>902.62</ele>
      </trkpt>
      <trkpt lat="25.183775424957275" lon="121.52642726898193">
        <ele>903.58</ele>
      </trkpt>
      <trkpt lat="25.183796882629395" lon="121.5263843536377">
        <ele>904.61</ele>
      </trkpt>
      <trkpt lat="25.183818340301514" lon="121.52629852294922">
        <ele>905.72</ele>
      </trkpt>
      <trkpt lat="25.183796882629395" lon="121.52625560760498">
        <ele>906.87</ele>
      </trkpt>
      <trkpt lat="25.183775424957275" lon="121.52621269226074">
        <ele>908.07</ele>
      </trkpt>
      <trkpt lat="25.183560848236084" lon="121.52614831924438">
        <ele>909.51</ele>
      </trkpt>
      <trkpt lat="25.183517932891846" lon="121.52610540390015">
        <ele>910.87</ele>
      </trkpt>
      <trkpt lat="25.18336772918701" lon="121.52586936950684">
        <ele>912.71</ele>
      </trkpt>
      <trkpt lat="25.183303356170654" lon="121.52578353881836">
        <ele>914.24</ele>
      </trkpt>
      <trkpt lat="25.18319606781006" lon="121.52574062347412">
        <ele>915.72</ele>
      </trkpt>
      <trkpt lat="25.183002948760986" lon="121.52576208114624">
        <ele>917.1</ele>
      </trkpt>
      <trkpt lat="25.18293857574463" lon="121.52574062347412">
        <ele>918.57</ele>
      </trkpt>
      <trkpt lat="25.18291711807251" lon="121.525719165802">
        <ele>920.06</ele>
      </trkpt>
      <trkpt lat="25.18291711807251" lon="121.52567625045776">
        <ele>921.57</ele>
      </trkpt>
      <trkpt lat="25.183002948760986" lon="121.52541875839233">
        <ele>923.33</ele>
      </trkpt>
      <trkpt lat="25.183002948760986" lon="121.52533292770386">
        <ele>924.97</ele>
      </trkpt>
      <trkpt lat="25.182960033416748" lon="121.52531147003174">
        <ele>926.54</ele>
      </trkpt>
      <trkpt lat="25.18289566040039" lon="121.52529001235962">
        <ele>928.2</ele>
      </trkpt>
      <trkpt lat="25.182766914367676" lon="121.52535438537598">
        <ele>929.82</ele>
      </trkpt>
      <trkpt lat="25.1826810836792" lon="121.52535438537598">
        <ele>931.51</ele>
      </trkpt>
      <trkpt lat="25.18265962600708" lon="121.52533292770386">
        <ele>933.22</ele>
      </trkpt>
      <trkpt lat="25.182616710662842" lon="121.52511835098267">
        <ele>935.16</ele>
      </trkpt>
      <trkpt lat="25.18240213394165" lon="121.52477502822876">
        <ele>937.42</ele>
      </trkpt>
      <trkpt lat="25.182359218597412" lon="121.52464628219604">
        <ele>939.3</ele>
      </trkpt>
      <trkpt lat="25.182359218597412" lon="121.52451753616333">
        <ele>941.08</ele>
      </trkpt>
      <trkpt lat="25.18238067626953" lon="121.52445316314697">
        <ele>942.76</ele>
      </trkpt>
      <trkpt lat="25.182487964630127" lon="121.52430295944214">
        <ele>944.39</ele>
      </trkpt>
      <trkpt lat="25.182530879974365" lon="121.52421712875366">
        <ele>946.13</ele>
      </trkpt>
      <trkpt lat="25.182530879974365" lon="121.52400255203247">
        <ele>948.09</ele>
      </trkpt>
      <trkpt lat="25.18263816833496" lon="121.52331590652466">
        <ele>949.94</ele>
      </trkpt>
      <trkpt lat="25.18263816833496" lon="121.52316570281982">
        <ele>951.62</ele>
      </trkpt>
      <trkpt lat="25.182573795318604" lon="121.52301549911499">
        <ele>953.42</ele>
      </trkpt>
      <trkpt lat="25.182487964630127" lon="121.5229082107544">
        <ele>955.25</ele>
      </trkpt>
      <trkpt lat="25.182316303253174" lon="121.52275800704956">
        <ele>957.2</ele>
      </trkpt>
      <trkpt lat="25.182251930236816" lon="121.52273654937744">
        <ele>958.9</ele>
      </trkpt>
      <trkpt lat="25.182230472564697" lon="121.52275800704956">
        <ele>960.51</ele>
      </trkpt>
      <trkpt lat="25.18218755722046" lon="121.52282238006592">
        <ele>962.15</ele>
      </trkpt>
      <trkpt lat="25.182230472564697" lon="121.52303695678711">
        <ele>963.63</ele>
      </trkpt>
      <trkpt lat="25.182209014892578" lon="121.52318716049194">
        <ele>965.2</ele>
      </trkpt>
      <trkpt lat="25.18214464187622" lon="121.5232515335083">
        <ele>966.97</ele>
      </trkpt>
      <trkpt lat="25.182080268859863" lon="121.52327299118042">
        <ele>968.67</ele>
      </trkpt>
      <trkpt lat="25.182037353515625" lon="121.5232515335083">
        <ele>970.3</ele>
      </trkpt>
      <trkpt lat="25.182015895843506" lon="121.52323007583618">
        <ele>971.9</ele>
      </trkpt>
      <trkpt lat="25.18190860748291" lon="121.52297258377075">
        <ele>973.59</ele>
      </trkpt>
      <trkpt lat="25.18188714981079" lon="121.52292966842651">
        <ele>975.24</ele>
      </trkpt>
      <trkpt lat="25.181801319122314" lon="121.5229082107544">
        <ele>977.09</ele>
      </trkpt>
      <trkpt lat="25.181758403778076" lon="121.52292966842651">
        <ele>978.92</ele>
      </trkpt>
      <trkpt lat="25.181758403778076" lon="121.52297258377075">
        <ele>980.74</ele>
      </trkpt>
      <trkpt lat="25.181779861450195" lon="121.52318716049194">
        <ele>982.77</ele>
      </trkpt>
      <trkpt lat="25.181779861450195" lon="121.5233588218689">
        <ele>984.83</ele>
      </trkpt>
      <trkpt lat="25.181586742401123" lon="121.52389526367188">
        <ele>987.52</ele>
      </trkpt>
      <trkpt lat="25.181543827056885" lon="121.523916721344">
        <ele>989.5</ele>
      </trkpt>
      <trkpt lat="25.181522453203797" lon="121.52393817901611">
        <ele>991.48</ele>
      </trkpt>
      <trkpt lat="25.181522369384766" lon="121.52393817901611">
        <ele>993.54</ele>
      </trkpt>
      <trkpt lat="25.181479454040527" lon="121.523916721344">
        <ele>995.81</ele>
      </trkpt>
      <trkpt lat="25.181457996368408" lon="121.52385234832764">
        <ele>998.17</ele>
      </trkpt>
      <trkpt lat="25.18143653869629" lon="121.52344465255737">
        <ele>1000.63</ele>
      </trkpt>
      <trkpt lat="25.18141508102417" lon="121.52329444885254">
        <ele>1003.25</ele>
      </trkpt>
      <trkpt lat="25.18137216567993" lon="121.52323007583618">
        <ele>1006.14</ele>
      </trkpt>
      <trkpt lat="25.181071758270264" lon="121.52256488800049">
        <ele>1009.55</ele>
      </trkpt>
      <trkpt lat="25.180749893188477" lon="121.5221357345581">
        <ele>1013.0</ele>
      </trkpt>
      <trkpt lat="25.180513858795166" lon="121.52174949645996">
        <ele>1016.2</ele>
      </trkpt>
      <trkpt lat="25.180234909057617" lon="121.52138471603394">
        <ele>1019.51</ele>
      </trkpt>
      <trkpt lat="25.17989158630371" lon="121.52106285095215">
        <ele>1023.11</ele>
      </trkpt>
      <trkpt lat="25.179784297943115" lon="121.52099847793579">
        <ele>1026.63</ele>
      </trkpt>
      <trkpt lat="25.179312229156494" lon="121.52074098587036">
        <ele>1030.6</ele>
      </trkpt>
      <trkpt lat="25.179226398468018" lon="121.52069807052612">
        <ele>1034.31</ele>
      </trkpt>
      <trkpt lat="25.179119110107422" lon="121.52069807052612">
        <ele>1038.32</ele>
      </trkpt>
      <trkpt lat="25.178496837615967" lon="121.52099847793579">
        <ele>1043.24</ele>
      </trkpt>
      <trkpt lat="25.178325176239014" lon="121.52110576629639">
        <ele>1046.82</ele>
      </trkpt>
      <trkpt lat="25.178282260894775" lon="121.52114868164062">
        <ele>1050.11</ele>
      </trkpt>
      <trkpt lat="25.1781964302063" lon="121.52132034301758">
        <ele>1053.54</ele>
      </trkpt>
      <trkpt lat="25.178110599517822" lon="121.52136325836182">
        <ele>1056.45</ele>
      </trkpt>
      <trkpt lat="25.178003311157227" lon="121.52138471603394">
        <ele>1059.24</ele>
      </trkpt>
      <trkpt lat="25.177767276763916" lon="121.52138471603394">
        <ele>1062.0</ele>
      </trkpt>
      <trkpt lat="25.177273750305176" lon="121.5213418006897">
        <ele>1064.98</ele>
      </trkpt>
      <trkpt lat="25.176758766174316" lon="121.52119159698486">
        <ele>1068.15</ele>
      </trkpt>
      <trkpt lat="25.1766300201416" lon="121.52119159698486">
        <ele>1070.87</ele>
      </trkpt>
      <trkpt lat="25.176544189453125" lon="121.52119159698486">
        <ele>1073.28</ele>
      </trkpt>
      <trkpt lat="25.176372528076172" lon="121.5212345123291">
        <ele>1075.68</ele>
      </trkpt>
      <trkpt lat="25.176308155059814" lon="121.52125597000122">
        <ele>1077.77</ele>
      </trkpt>
      <trkpt lat="25.17622240819037" lon="121.52136325836182">
        <ele>1079.86</ele>
      </trkpt>
      <trkpt lat="25.176222324371338" lon="121.52136325836182">
        <ele>1081.44</ele>
      </trkpt>
      <trkpt lat="25.17615795135498" lon="121.52153491973877">
        <ele>1083.04</ele>
      </trkpt>
      <trkpt lat="25.176072120666504" lon="121.52196407318115">
        <ele>1084.29</ele>
      </trkpt>
      <trkpt lat="25.17592191696167" lon="121.5222430229187">
        <ele>1085.15</ele>
      </trkpt>
      <trkpt lat="25.17587900161743" lon="121.52226448059082">
        <ele>1085.55</ele>
      </trkpt>
      <trkpt lat="25.175750255584717" lon="121.52226448059082">
        <ele>1085.77</ele>
      </trkpt>
      <trkpt lat="25.175235271453857" lon="121.52220010757446">
        <ele>1085.84</ele>
      </trkpt>
      <trkpt lat="25.17512798309326" lon="121.5222430229187">
        <ele>1085.83</ele>
      </trkpt>
      <trkpt lat="25.174870491027832" lon="121.52247905731201">
        <ele>1085.62</ele>
      </trkpt>
    </trkseg>
  </trk>
</gpx>
