<?xml version="1.0" encoding="UTF-8"?>
<gpx creator="Garmin Connect" version="1.1"
  xsi:schemaLocation="http://www.topografix.com/GPX/1/1 http://www.topografix.com/GPX/11.xsd"
  xmlns:ns3="http://www.garmin.com/xmlschemas/TrackPointExtension/v1"
  xmlns="http://www.topografix.com/GPX/1/1"
  xmlns:xsi="http://www.w3.org/2001/XMLSchema-instance" xmlns:ns2="http://www.garmin.com/xmlschemas/GpxExtensions/v3">
  <metadata>
    <name>中社-聖人瀑布</name>
    <link href="connect.garmin.com">
      <text>Garmin Connect</text>
    </link>
    <time>2024-10-11T09:42:55.000Z</time>
  </metadata>
  <trk>
    <name>中社-聖人瀑布</name>
    <trkseg>
      <trkpt lat="25.100478837266564" lon="121.55097853392363">
        <ele>23.47</ele>
      </trkpt>
      <trkpt lat="25.10051974095404" lon="121.55093193054199">
        <ele>23.57</ele>
      </trkpt>
      <trkpt lat="25.100675225257874" lon="121.55120006762445">
        <ele>23.45</ele>
      </trkpt>
      <trkpt lat="25.100830793380737" lon="121.55146820470691">
        <ele>23.61</ele>
      </trkpt>
      <trkpt lat="25.1009863615036" lon="121.5517364256084">
        <ele>23.92</ele>
      </trkpt>
      <trkpt lat="25.101142013445497" lon="121.55200481414795">
        <ele>24.48</ele>
      </trkpt>
      <trkpt lat="25.101291965693235" lon="121.55217622406781">
        <ele>25.21</ele>
      </trkpt>
      <trkpt lat="25.101442337036133" lon="121.55234813690186">
        <ele>25.95</ele>
      </trkpt>
      <trkpt lat="25.101614082232118" lon="121.55251979827881">
        <ele>26.67</ele>
      </trkpt>
      <trkpt lat="25.101753138005733" lon="121.55260537751019">
        <ele>27.46</ele>
      </trkpt>
      <trkpt lat="25.101893031969666" lon="121.55269145965576">
        <ele>28.32</ele>
      </trkpt>
      <trkpt lat="25.101892948150635" lon="121.55269145965576">
        <ele>29.19</ele>
      </trkpt>
      <trkpt lat="25.10204273276031" lon="121.55278768390417">
        <ele>30.18</ele>
      </trkpt>
      <trkpt lat="25.102193439379334" lon="121.55288457870483">
        <ele>31.26</ele>
      </trkpt>
      <trkpt lat="25.102400304749608" lon="121.55302723869681">
        <ele>32.51</ele>
      </trkpt>
      <trkpt lat="25.10260717011988" lon="121.5531698986888">
        <ele>33.87</ele>
      </trkpt>
      <trkpt lat="25.102815628051758" lon="121.55331373214722">
        <ele>35.47</ele>
      </trkpt>
      <trkpt lat="25.102965831756592" lon="121.55346393585205">
        <ele>37.06</ele>
      </trkpt>
      <trkpt lat="25.103094577789307" lon="121.55367851257324">
        <ele>38.55</ele>
      </trkpt>
      <trkpt lat="25.103180492296815" lon="121.5539469011128">
        <ele>39.71</ele>
      </trkpt>
      <trkpt lat="25.10326632298529" lon="121.55421495437622">
        <ele>40.61</ele>
      </trkpt>
      <trkpt lat="25.10333069600165" lon="121.55442953109741">
        <ele>41.47</ele>
      </trkpt>
      <trkpt lat="25.103427255526185" lon="121.55467101372778">
        <ele>42.37</ele>
      </trkpt>
      <trkpt lat="25.103523898869753" lon="121.55491258017719">
        <ele>43.12</ele>
      </trkpt>
      <trkpt lat="25.10362045839429" lon="121.55515406280756">
        <ele>43.79</ele>
      </trkpt>
      <trkpt lat="25.103716934099793" lon="121.55539512634277">
        <ele>44.31</ele>
      </trkpt>
      <trkpt lat="25.103856325149536" lon="121.55569561757147">
        <ele>44.78</ele>
      </trkpt>
      <trkpt lat="25.10399580001831" lon="121.55599594116211">
        <ele>45.52</ele>
      </trkpt>
      <trkpt lat="25.104117337614298" lon="121.55620330944657">
        <ele>46.17</ele>
      </trkpt>
      <trkpt lat="25.104238875210285" lon="121.55641067773104">
        <ele>46.66</ele>
      </trkpt>
      <trkpt lat="25.104360580444336" lon="121.55661821365356">
        <ele>47.08</ele>
      </trkpt>
      <trkpt lat="25.104446411132812" lon="121.5567684173584">
        <ele>47.53</ele>
      </trkpt>
      <trkpt lat="25.104553699493408" lon="121.556875705719">
        <ele>48.05</ele>
      </trkpt>
      <trkpt lat="25.10472536087036" lon="121.55702590942383">
        <ele>48.56</ele>
      </trkpt>
      <trkpt lat="25.10498285293579" lon="121.55715465545654">
        <ele>49.1</ele>
      </trkpt>
      <trkpt lat="25.105154598131776" lon="121.55724048614502">
        <ele>49.61</ele>
      </trkpt>
      <trkpt lat="25.105336233973503" lon="121.55730460770428">
        <ele>50.2</ele>
      </trkpt>
      <trkpt lat="25.10551929473877" lon="121.55736923217773">
        <ele>50.77</ele>
      </trkpt>
      <trkpt lat="25.105669582262635" lon="121.55739068984985">
        <ele>51.38</ele>
      </trkpt>
      <trkpt lat="25.105840489268303" lon="121.55741197988391">
        <ele>52.07</ele>
      </trkpt>
      <trkpt lat="25.10601282119751" lon="121.55743360519409">
        <ele>52.84</ele>
      </trkpt>
      <trkpt lat="25.10629420168698" lon="121.55744777061045">
        <ele>53.86</ele>
      </trkpt>
      <trkpt lat="25.106575582176447" lon="121.55746201984584">
        <ele>54.7</ele>
      </trkpt>
      <trkpt lat="25.106856962665915" lon="121.55747626908123">
        <ele>55.22</ele>
      </trkpt>
      <trkpt lat="25.107138343155384" lon="121.55749051831663">
        <ele>55.65</ele>
      </trkpt>
      <trkpt lat="25.107419723644853" lon="121.55750476755202">
        <ele>56.12</ele>
      </trkpt>
      <trkpt lat="25.107708061113954" lon="121.55751943588257">
        <ele>56.63</ele>
      </trkpt>
      <trkpt lat="25.10798692703247" lon="121.55751943588257">
        <ele>57.16</ele>
      </trkpt>
      <trkpt lat="25.108201503753662" lon="121.55749797821045">
        <ele>57.79</ele>
      </trkpt>
      <trkpt lat="25.108436616137624" lon="121.55744089744985">
        <ele>58.31</ele>
      </trkpt>
      <trkpt lat="25.108671812340617" lon="121.55738390050828">
        <ele>58.84</ele>
      </trkpt>
      <trkpt lat="25.108909690752625" lon="121.5573263168335">
        <ele>59.45</ele>
      </trkpt>
      <trkpt lat="25.109144719317555" lon="121.5572692360729">
        <ele>60.04</ele>
      </trkpt>
      <trkpt lat="25.109379831701517" lon="121.55721223913133">
        <ele>60.71</ele>
      </trkpt>
      <trkpt lat="25.109617710113525" lon="121.55715465545654">
        <ele>61.42</ele>
      </trkpt>
      <trkpt lat="25.109896743670106" lon="121.55715465545654">
        <ele>62.18</ele>
      </trkpt>
      <trkpt lat="25.110111236572266" lon="121.5572190284729">
        <ele>62.86</ele>
      </trkpt>
      <trkpt lat="25.110304355621338" lon="121.55730485916138">
        <ele>63.58</ele>
      </trkpt>
      <trkpt lat="25.110550448298454" lon="121.5574796218425">
        <ele>64.26</ele>
      </trkpt>
      <trkpt lat="25.110796624794602" lon="121.55765446834266">
        <ele>64.98</ele>
      </trkpt>
      <trkpt lat="25.11104280129075" lon="121.55782923102379">
        <ele>65.71</ele>
      </trkpt>
      <trkpt lat="25.1112889777869" lon="121.55800407752395">
        <ele>66.61</ele>
      </trkpt>
      <trkpt lat="25.111535070464015" lon="121.55817884020507">
        <ele>67.56</ele>
      </trkpt>
      <trkpt lat="25.11178493499756" lon="121.55835628509521">
        <ele>68.62</ele>
      </trkpt>
      <trkpt lat="25.11195659637451" lon="121.55848503112793">
        <ele>69.63</ele>
      </trkpt>
      <trkpt lat="25.112106800079346" lon="121.558678150177">
        <ele>70.56</ele>
      </trkpt>
      <trkpt lat="25.11197805404663" lon="121.55886397697031">
        <ele>71.09</ele>
      </trkpt>
      <trkpt lat="25.111849391832948" lon="121.55904980376363">
        <ele>71.83</ele>
      </trkpt>
      <trkpt lat="25.1117205619812" lon="121.5592360496521">
        <ele>72.88</ele>
      </trkpt>
      <trkpt lat="25.111677646636963" lon="121.55932188034058">
        <ele>73.89</ele>
      </trkpt>
      <trkpt lat="25.111656188964844" lon="121.55949354171753">
        <ele>75.0</ele>
      </trkpt>
      <trkpt lat="25.111656188964844" lon="121.559579372406">
        <ele>76.0</ele>
      </trkpt>
      <trkpt lat="25.11173129081726" lon="121.55980484560132">
        <ele>77.05</ele>
      </trkpt>
      <trkpt lat="25.111806392669678" lon="121.56002998352051">
        <ele>78.02</ele>
      </trkpt>
      <trkpt lat="25.111806392669678" lon="121.5601372718811">
        <ele>79.07</ele>
      </trkpt>
      <trkpt lat="25.111806392669678" lon="121.56033039093018">
        <ele>80.17</ele>
      </trkpt>
      <trkpt lat="25.11176347732544" lon="121.56041622161865">
        <ele>81.33</ele>
      </trkpt>
      <trkpt lat="25.111699104309082" lon="121.56050205230713">
        <ele>82.44</ele>
      </trkpt>
      <trkpt lat="25.111538339406252" lon="121.5606949198991">
        <ele>83.43</ele>
      </trkpt>
      <trkpt lat="25.111377239227295" lon="121.56088829040527">
        <ele>84.86</ele>
      </trkpt>
      <trkpt lat="25.11129140853882" lon="121.56108140945435">
        <ele>85.91</ele>
      </trkpt>
      <trkpt lat="25.11122703552246" lon="121.56127452850342">
        <ele>87.01</ele>
      </trkpt>
      <trkpt lat="25.111162662506104" lon="121.56155347824097">
        <ele>87.93</ele>
      </trkpt>
      <trkpt lat="25.111141204833984" lon="121.56172513961792">
        <ele>88.79</ele>
      </trkpt>
      <trkpt lat="25.111162662506104" lon="121.56189680099487">
        <ele>89.59</ele>
      </trkpt>
      <trkpt lat="25.111184120178223" lon="121.56202554702759">
        <ele>90.31</ele>
      </trkpt>
      <trkpt lat="25.11127003468573" lon="121.56219720840454">
        <ele>90.91</ele>
      </trkpt>
      <trkpt lat="25.1112699508667" lon="121.56219720840454">
        <ele>91.64</ele>
      </trkpt>
      <trkpt lat="25.111409341916442" lon="121.56243315897882">
        <ele>92.37</ele>
      </trkpt>
      <trkpt lat="25.111548900604248" lon="121.56266927719116">
        <ele>93.14</ele>
      </trkpt>
      <trkpt lat="25.111570358276367" lon="121.56273365020752">
        <ele>93.89</ele>
      </trkpt>
      <trkpt lat="25.111591899767518" lon="121.56284093856812">
        <ele>94.65</ele>
      </trkpt>
      <trkpt lat="25.111591815948486" lon="121.56284093856812">
        <ele>95.4</ele>
      </trkpt>
      <trkpt lat="25.11152744293213" lon="121.56296968460083">
        <ele>96.4</ele>
      </trkpt>
      <trkpt lat="25.111441612243652" lon="121.56301259994507">
        <ele>97.39</ele>
      </trkpt>
      <trkpt lat="25.111377239227295" lon="121.56301259994507">
        <ele>98.33</ele>
      </trkpt>
      <trkpt lat="25.11124849319458" lon="121.56299114227295">
        <ele>99.38</ele>
      </trkpt>
      <trkpt lat="25.111141204833984" lon="121.56288385391235">
        <ele>100.21</ele>
      </trkpt>
      <trkpt lat="25.11103391647339" lon="121.56264781951904">
        <ele>100.81</ele>
      </trkpt>
      <trkpt lat="25.11093727312982" lon="121.56233634799719">
        <ele>101.44</ele>
      </trkpt>
      <trkpt lat="25.110840797424316" lon="121.56202554702759">
        <ele>102.25</ele>
      </trkpt>
      <trkpt lat="25.110797882080078" lon="121.56185388565063">
        <ele>103.06</ele>
      </trkpt>
      <trkpt lat="25.11077642440796" lon="121.56157493591309">
        <ele>103.93</ele>
      </trkpt>
      <trkpt lat="25.11077642440796" lon="121.56144618988037">
        <ele>104.78</ele>
      </trkpt>
      <trkpt lat="25.110840797424316" lon="121.5612530708313">
        <ele>105.65</ele>
      </trkpt>
      <trkpt lat="25.110883712768555" lon="121.56108140945435">
        <ele>106.7</ele>
      </trkpt>
      <trkpt lat="25.11098027229309" lon="121.56088820658624">
        <ele>107.56</ele>
      </trkpt>
      <trkpt lat="25.111076831817627" lon="121.5606951713562">
        <ele>108.06</ele>
      </trkpt>
      <trkpt lat="25.111119747161865" lon="121.56054496765137">
        <ele>108.71</ele>
      </trkpt>
      <trkpt lat="25.111141204833984" lon="121.56041622161865">
        <ele>109.34</ele>
      </trkpt>
      <trkpt lat="25.111141204833984" lon="121.56030893325806">
        <ele>110.16</ele>
      </trkpt>
      <trkpt lat="25.111119747161865" lon="121.56022310256958">
        <ele>110.96</ele>
      </trkpt>
      <trkpt lat="25.11101245880127" lon="121.56005144119263">
        <ele>111.99</ele>
      </trkpt>
      <trkpt lat="25.110948169603944" lon="121.55996561050415">
        <ele>112.98</ele>
      </trkpt>
      <trkpt lat="25.110948085784912" lon="121.55996561050415">
        <ele>113.97</ele>
      </trkpt>
      <trkpt lat="25.110840797424316" lon="121.5599012374878">
        <ele>115.22</ele>
      </trkpt>
      <trkpt lat="25.11073350906372" lon="121.55983686447144">
        <ele>116.52</ele>
      </trkpt>
      <trkpt lat="25.110626220703125" lon="121.5597939491272">
        <ele>117.72</ele>
      </trkpt>
      <trkpt lat="25.110390186309814" lon="121.55977249145508">
        <ele>119.06</ele>
      </trkpt>
      <trkpt lat="25.11023998260498" lon="121.55977249145508">
        <ele>120.39</ele>
      </trkpt>
      <trkpt lat="25.110132694244385" lon="121.55981540679932">
        <ele>121.86</ele>
      </trkpt>
      <trkpt lat="25.109886769205332" lon="121.55990090221167">
        <ele>123.51</ele>
      </trkpt>
      <trkpt lat="25.109639251604676" lon="121.55998706817627">
        <ele>125.0</ele>
      </trkpt>
      <trkpt lat="25.109446048736572" lon="121.56002998352051">
        <ele>126.42</ele>
      </trkpt>
      <trkpt lat="25.109317302703857" lon="121.56002998352051">
        <ele>127.83</ele>
      </trkpt>
      <trkpt lat="25.10908135212958" lon="121.55996561050415">
        <ele>129.4</ele>
      </trkpt>
      <trkpt lat="25.108910277485847" lon="121.55992277897894">
        <ele>130.76</ele>
      </trkpt>
      <trkpt lat="25.10873794555664" lon="121.55987977981567">
        <ele>132.11</ele>
      </trkpt>
      <trkpt lat="25.108695030212402" lon="121.55987977981567">
        <ele>133.52</ele>
      </trkpt>
      <trkpt lat="25.108566284179688" lon="121.55996561050415">
        <ele>135.09</ele>
      </trkpt>
      <trkpt lat="25.108416164293885" lon="121.5601372718811">
        <ele>136.91</ele>
      </trkpt>
      <trkpt lat="25.10826596058905" lon="121.56030893325806">
        <ele>138.68</ele>
      </trkpt>
      <trkpt lat="25.108180129900575" lon="121.56037330627441">
        <ele>140.34</ele>
      </trkpt>
      <trkpt lat="25.108115673065186" lon="121.56043767929077">
        <ele>142.02</ele>
      </trkpt>
      <trkpt lat="25.107922554016113" lon="121.56050205230713">
        <ele>143.6</ele>
      </trkpt>
      <trkpt lat="25.10772943496704" lon="121.56050205230713">
        <ele>144.94</ele>
      </trkpt>
      <trkpt lat="25.107493484392762" lon="121.56050205230713">
        <ele>146.34</ele>
      </trkpt>
      <trkpt lat="25.1072359085083" lon="121.56050205230713">
        <ele>147.74</ele>
      </trkpt>
      <trkpt lat="25.107171535491943" lon="121.56052350997925">
        <ele>149.31</ele>
      </trkpt>
      <trkpt lat="25.107085704803467" lon="121.56060934066772">
        <ele>151.01</ele>
      </trkpt>
      <trkpt lat="25.106999957934022" lon="121.5606951713562">
        <ele>152.78</ele>
      </trkpt>
      <trkpt lat="25.10699987411499" lon="121.5606951713562">
        <ele>154.5</ele>
      </trkpt>
      <trkpt lat="25.106828212738037" lon="121.56093120574951">
        <ele>156.72</ele>
      </trkpt>
      <trkpt lat="25.10674238204956" lon="121.56099557876587">
        <ele>158.61</ele>
      </trkpt>
      <trkpt lat="25.106496205553412" lon="121.56116673722863">
        <ele>160.39</ele>
      </trkpt>
      <trkpt lat="25.106248939409852" lon="121.56133890151978">
        <ele>162.6</ele>
      </trkpt>
      <trkpt lat="25.10599136352539" lon="121.56151056289673">
        <ele>164.74</ele>
      </trkpt>
      <trkpt lat="25.105830933898687" lon="121.56156395561993">
        <ele>166.44</ele>
      </trkpt>
      <trkpt lat="25.105669498443604" lon="121.56161785125732">
        <ele>168.01</ele>
      </trkpt>
      <trkpt lat="25.105626583099365" lon="121.56168222427368">
        <ele>169.61</ele>
      </trkpt>
      <trkpt lat="25.105605125427246" lon="121.56174659729004">
        <ele>171.16</ele>
      </trkpt>
      <trkpt lat="25.105605125427246" lon="121.56183242797852">
        <ele>172.66</ele>
      </trkpt>
      <trkpt lat="25.105626583099365" lon="121.56189680099487">
        <ele>174.0</ele>
      </trkpt>
      <trkpt lat="25.105690956115723" lon="121.56193971633911">
        <ele>175.16</ele>
      </trkpt>
      <trkpt lat="25.10575532913208" lon="121.56196117401123">
        <ele>176.14</ele>
      </trkpt>
      <trkpt lat="25.10579824447632" lon="121.56196117401123">
        <ele>176.93</ele>
      </trkpt>
      <trkpt lat="25.105884075164795" lon="121.56193971633911">
        <ele>177.62</ele>
      </trkpt>
      <trkpt lat="25.10607685893774" lon="121.56176830641925">
        <ele>177.73</ele>
      </trkpt>
      <trkpt lat="25.10627039708197" lon="121.5615963935852">
        <ele>177.62</ele>
      </trkpt>
      <trkpt lat="25.10627031326294" lon="121.5615963935852">
        <ele>177.83</ele>
      </trkpt>
      <trkpt lat="25.106356227770448" lon="121.56155347824097">
        <ele>177.92</ele>
      </trkpt>
      <trkpt lat="25.106356143951416" lon="121.56155347824097">
        <ele>177.98</ele>
      </trkpt>
      <trkpt lat="25.106634087860584" lon="121.5614465251565">
        <ele>177.84</ele>
      </trkpt>
      <trkpt lat="25.106914043426514" lon="121.56133890151978">
        <ele>177.83</ele>
      </trkpt>
      <trkpt lat="25.10702133178711" lon="121.56131744384766">
        <ele>177.83</ele>
      </trkpt>
      <trkpt lat="25.107107162475586" lon="121.56131744384766">
        <ele>177.85</ele>
      </trkpt>
      <trkpt lat="25.10721445083618" lon="121.5613603591919">
        <ele>177.9</ele>
      </trkpt>
      <trkpt lat="25.107300281524658" lon="121.56140327453613">
        <ele>177.91</ele>
      </trkpt>
      <trkpt lat="25.107450149953365" lon="121.56152095645666">
        <ele>178.02</ele>
      </trkpt>
      <trkpt lat="25.107600688934326" lon="121.56163930892944">
        <ele>178.08</ele>
      </trkpt>
      <trkpt lat="25.10777235031128" lon="121.56174659729004">
        <ele>178.01</ele>
      </trkpt>
      <trkpt lat="25.107836723327637" lon="121.56176805496216">
        <ele>177.8</ele>
      </trkpt>
      <trkpt lat="25.107901096343994" lon="121.56174659729004">
        <ele>177.54</ele>
      </trkpt>
      <trkpt lat="25.10805138386786" lon="121.56166076660156">
        <ele>177.2</ele>
      </trkpt>
      <trkpt lat="25.108051300048828" lon="121.56166076660156">
        <ele>176.94</ele>
      </trkpt>
      <trkpt lat="25.10816914960742" lon="121.56151064671576">
        <ele>176.51</ele>
      </trkpt>
      <trkpt lat="25.10828733444214" lon="121.5613603591919">
        <ele>176.07</ele>
      </trkpt>
      <trkpt lat="25.108351707458496" lon="121.56131744384766">
        <ele>175.79</ele>
      </trkpt>
      <trkpt lat="25.108416080474854" lon="121.56129598617554">
        <ele>175.63</ele>
      </trkpt>
      <trkpt lat="25.10848045349121" lon="121.56131744384766">
        <ele>175.64</ele>
      </trkpt>
      <trkpt lat="25.10852336883545" lon="121.5613603591919">
        <ele>175.8</ele>
      </trkpt>
      <trkpt lat="25.108566284179688" lon="121.56140327453613">
        <ele>176.05</ele>
      </trkpt>
      <trkpt lat="25.108587741851807" lon="121.56144618988037">
        <ele>176.41</ele>
      </trkpt>
      <trkpt lat="25.108566284179688" lon="121.56153202056885">
        <ele>176.98</ele>
      </trkpt>
      <trkpt lat="25.10854482650757" lon="121.5615963935852">
        <ele>177.7</ele>
      </trkpt>
      <trkpt lat="25.10843745432794" lon="121.5618109703064">
        <ele>178.66</ele>
      </trkpt>
      <trkpt lat="25.108330249786377" lon="121.56202554702759">
        <ele>179.74</ele>
      </trkpt>
      <trkpt lat="25.10826587677002" lon="121.56211137771606">
        <ele>180.88</ele>
      </trkpt>
      <trkpt lat="25.108201503753662" lon="121.5621542930603">
        <ele>182.12</ele>
      </trkpt>
      <trkpt lat="25.10802992619574" lon="121.5622615814209">
        <ele>183.58</ele>
      </trkpt>
      <trkpt lat="25.10802984237671" lon="121.5622615814209">
        <ele>184.98</ele>
      </trkpt>
      <trkpt lat="25.107794646173716" lon="121.56234707683325">
        <ele>186.52</ele>
      </trkpt>
      <trkpt lat="25.10755785740912" lon="121.56243324279785">
        <ele>188.18</ele>
      </trkpt>
      <trkpt lat="25.107375970110297" lon="121.56250800937414">
        <ele>190.02</ele>
      </trkpt>
      <trkpt lat="25.107192993164062" lon="121.56258344650269">
        <ele>191.88</ele>
      </trkpt>
      <trkpt lat="25.107053937390447" lon="121.56266902573407">
        <ele>193.66</ele>
      </trkpt>
      <trkpt lat="25.106914127245545" lon="121.56275510787964">
        <ele>195.5</ele>
      </trkpt>
      <trkpt lat="25.106914043426514" lon="121.56275510787964">
        <ele>197.08</ele>
      </trkpt>
      <trkpt lat="25.10674280114472" lon="121.56288351863623">
        <ele>198.88</ele>
      </trkpt>
      <trkpt lat="25.10657080449164" lon="121.56301259994507">
        <ele>200.48</ele>
      </trkpt>
      <trkpt lat="25.106570720672607" lon="121.56301259994507">
        <ele>201.88</ele>
      </trkpt>
      <trkpt lat="25.106442058458924" lon="121.56309843063354">
        <ele>203.27</ele>
      </trkpt>
      <trkpt lat="25.106334686279297" lon="121.56322717666626">
        <ele>204.5</ele>
      </trkpt>
      <trkpt lat="25.10627031326294" lon="121.56333446502686">
        <ele>205.63</ele>
      </trkpt>
      <trkpt lat="25.106227481737733" lon="121.56346321105957">
        <ele>206.79</ele>
      </trkpt>
      <trkpt lat="25.106184482574463" lon="121.56363487243652">
        <ele>207.85</ele>
      </trkpt>
      <trkpt lat="25.106163108721375" lon="121.56378507614136">
        <ele>208.89</ele>
      </trkpt>
      <trkpt lat="25.106184482574463" lon="121.56384944915771">
        <ele>209.8</ele>
      </trkpt>
      <trkpt lat="25.10627031326294" lon="121.56399965286255">
        <ele>210.68</ele>
      </trkpt>
      <trkpt lat="25.10650643147528" lon="121.56421422958374">
        <ele>211.47</ele>
      </trkpt>
      <trkpt lat="25.106635093688965" lon="121.56434297561646">
        <ele>212.37</ele>
      </trkpt>
      <trkpt lat="25.106806755065918" lon="121.56442880630493">
        <ele>213.21</ele>
      </trkpt>
      <trkpt lat="25.106914043426514" lon="121.56447172164917">
        <ele>214.01</ele>
      </trkpt>
      <trkpt lat="25.10708495043218" lon="121.56450374051929">
        <ele>214.83</ele>
      </trkpt>
      <trkpt lat="25.10725736618042" lon="121.56453609466553">
        <ele>215.55</ele>
      </trkpt>
      <trkpt lat="25.107343196868896" lon="121.56455755233765">
        <ele>216.32</ele>
      </trkpt>
      <trkpt lat="25.107386112213135" lon="121.56457901000977">
        <ele>217.16</ele>
      </trkpt>
      <trkpt lat="25.107450569048524" lon="121.56464338302612">
        <ele>218.08</ele>
      </trkpt>
      <trkpt lat="25.10751494206488" lon="121.56484739854932">
        <ele>219.25</ele>
      </trkpt>
      <trkpt lat="25.107579231262207" lon="121.56505107879639">
        <ele>220.38</ele>
      </trkpt>
      <trkpt lat="25.107675790786743" lon="121.56527646817267">
        <ele>221.42</ele>
      </trkpt>
      <trkpt lat="25.10777235031128" lon="121.56550168991089">
        <ele>222.55</ele>
      </trkpt>
      <trkpt lat="25.1077938079834" lon="121.5656304359436">
        <ele>223.93</ele>
      </trkpt>
      <trkpt lat="25.10779389180243" lon="121.56571626663208">
        <ele>225.46</ele>
      </trkpt>
      <trkpt lat="25.10777235031128" lon="121.56582355499268">
        <ele>227.12</ele>
      </trkpt>
      <trkpt lat="25.107708061113954" lon="121.5660810470581">
        <ele>229.03</ele>
      </trkpt>
      <trkpt lat="25.107579231262207" lon="121.56637080945075">
        <ele>230.93</ele>
      </trkpt>
      <trkpt lat="25.107450569048524" lon="121.56666040420532">
        <ele>232.76</ele>
      </trkpt>
      <trkpt lat="25.107396757230163" lon="121.56688587740064">
        <ele>234.67</ele>
      </trkpt>
      <trkpt lat="25.107343196868896" lon="121.56711101531982">
        <ele>236.74</ele>
      </trkpt>
      <trkpt lat="25.10725744999945" lon="121.56734704971313">
        <ele>238.86</ele>
      </trkpt>
      <trkpt lat="25.107192993164062" lon="121.5675401687622">
        <ele>240.89</ele>
      </trkpt>
      <trkpt lat="25.107150077819824" lon="121.56777620315552">
        <ele>242.67</ele>
      </trkpt>
      <trkpt lat="25.107150077819824" lon="121.56796932220459">
        <ele>244.78</ele>
      </trkpt>
      <trkpt lat="25.107171535491943" lon="121.5680980682373">
        <ele>246.81</ele>
      </trkpt>
      <trkpt lat="25.10721445083618" lon="121.5682053565979">
        <ele>248.7</ele>
      </trkpt>
      <trkpt lat="25.107343196868896" lon="121.56846284866333">
        <ele>250.51</ele>
      </trkpt>
      <trkpt lat="25.10748258791864" lon="121.56868807040155">
        <ele>252.36</ele>
      </trkpt>
      <trkpt lat="25.107622146606445" lon="121.56891345977783">
        <ele>254.42</ele>
      </trkpt>
      <trkpt lat="25.107643688097596" lon="121.56899929046631">
        <ele>256.21</ele>
      </trkpt>
      <trkpt lat="25.107643604278564" lon="121.56906366348267">
        <ele>257.87</ele>
      </trkpt>
      <trkpt lat="25.107622146606445" lon="121.56912803649902">
        <ele>259.45</ele>
      </trkpt>
      <trkpt lat="25.107579231262207" lon="121.56917095184326">
        <ele>260.85</ele>
      </trkpt>
      <trkpt lat="25.10751485824585" lon="121.5692138671875">
        <ele>262.16</ele>
      </trkpt>
      <trkpt lat="25.107429027557373" lon="121.5692138671875">
        <ele>263.19</ele>
      </trkpt>
      <trkpt lat="25.107343196868896" lon="121.56919240951538">
        <ele>264.0</ele>
      </trkpt>
      <trkpt lat="25.10727882385254" lon="121.56914949417114">
        <ele>264.6</ele>
      </trkpt>
      <trkpt lat="25.107171535491943" lon="121.56899929046631">
        <ele>264.88</ele>
      </trkpt>
      <trkpt lat="25.107049914076924" lon="121.56874883919954">
        <ele>265.02</ele>
      </trkpt>
      <trkpt lat="25.106928292661905" lon="121.56849847175181">
        <ele>265.33</ele>
      </trkpt>
      <trkpt lat="25.10680683888495" lon="121.56824827194214">
        <ele>265.48</ele>
      </trkpt>
      <trkpt lat="25.106699466705322" lon="121.56801223754883">
        <ele>265.33</ele>
      </trkpt>
      <trkpt lat="25.106656551361084" lon="121.56792640686035">
        <ele>265.2</ele>
      </trkpt>
      <trkpt lat="25.106656551361084" lon="121.56781911849976">
        <ele>264.98</ele>
      </trkpt>
      <trkpt lat="25.106656551361084" lon="121.56755047850311">
        <ele>265.02</ele>
      </trkpt>
      <trkpt lat="25.106656635180116" lon="121.56728267669678">
        <ele>265.07</ele>
      </trkpt>
      <trkpt lat="25.106635093688965" lon="121.56693935394287">
        <ele>265.04</ele>
      </trkpt>
      <trkpt lat="25.106570720672607" lon="121.56672477722168">
        <ele>265.04</ele>
      </trkpt>
      <trkpt lat="25.10650634765625" lon="121.56659603118896">
        <ele>265.33</ele>
      </trkpt>
      <trkpt lat="25.106345415115356" lon="121.56632781028748">
        <ele>265.84</ele>
      </trkpt>
      <trkpt lat="25.106184482574463" lon="121.56605958938599">
        <ele>266.43</ele>
      </trkpt>
      <trkpt lat="25.106098651885986" lon="121.56597375869751">
        <ele>267.21</ele>
      </trkpt>
      <trkpt lat="25.10603427886963" lon="121.56593084335327">
        <ele>268.22</ele>
      </trkpt>
      <trkpt lat="25.105948448181152" lon="121.56590938568115">
        <ele>269.5</ele>
      </trkpt>
      <trkpt lat="25.105884075164795" lon="121.56590938568115">
        <ele>270.94</ele>
      </trkpt>
      <trkpt lat="25.10584124363959" lon="121.56593084335327">
        <ele>272.52</ele>
      </trkpt>
      <trkpt lat="25.1057767868042" lon="121.56597375869751">
        <ele>274.33</ele>
      </trkpt>
      <trkpt lat="25.10575532913208" lon="121.56601667404175">
        <ele>276.16</ele>
      </trkpt>
      <trkpt lat="25.10573387145996" lon="121.56612396240234">
        <ele>278.2</ele>
      </trkpt>
      <trkpt lat="25.10576605796814" lon="121.56630652025342">
        <ele>280.25</ele>
      </trkpt>
      <trkpt lat="25.10579832829535" lon="121.56648874282837">
        <ele>282.33</ele>
      </trkpt>
      <trkpt lat="25.105851972475648" lon="121.56672502867877">
        <ele>284.21</ele>
      </trkpt>
      <trkpt lat="25.105905616655946" lon="121.56696081161499">
        <ele>286.29</ele>
      </trkpt>
      <trkpt lat="25.105991447344422" lon="121.56728267669678">
        <ele>288.85</ele>
      </trkpt>
      <trkpt lat="25.10601282119751" lon="121.56751871109009">
        <ele>291.45</ele>
      </trkpt>
      <trkpt lat="25.10601290501654" lon="121.56779766082764">
        <ele>294.11</ele>
      </trkpt>
      <trkpt lat="25.10601282119751" lon="121.5680980682373">
        <ele>295.91</ele>
      </trkpt>
      <trkpt lat="25.10601282119751" lon="121.5682053565979">
        <ele>297.48</ele>
      </trkpt>
      <trkpt lat="25.10606654919684" lon="121.56848464161158">
        <ele>298.94</ele>
      </trkpt>
      <trkpt lat="25.106120193377137" lon="121.568763256073">
        <ele>300.74</ele>
      </trkpt>
      <trkpt lat="25.106184482574463" lon="121.56902074813843">
        <ele>302.9</ele>
      </trkpt>
      <trkpt lat="25.10627031326294" lon="121.5692138671875">
        <ele>304.66</ele>
      </trkpt>
      <trkpt lat="25.106366788968444" lon="121.5693639870733">
        <ele>306.3</ele>
      </trkpt>
      <trkpt lat="25.10646343231201" lon="121.56951427459717">
        <ele>307.87</ele>
      </trkpt>
      <trkpt lat="25.106678092852235" lon="121.56975030899048">
        <ele>309.43</ele>
      </trkpt>
      <trkpt lat="25.106871128082275" lon="121.56998634338379">
        <ele>311.11</ele>
      </trkpt>
      <trkpt lat="25.10701060295105" lon="121.57024375163019">
        <ele>312.66</ele>
      </trkpt>
      <trkpt lat="25.107150161638856" lon="121.57050132751465">
        <ele>314.18</ele>
      </trkpt>
      <trkpt lat="25.107300197705626" lon="121.57072646543384">
        <ele>316.02</ele>
      </trkpt>
      <trkpt lat="25.107450485229492" lon="121.57095193862915">
        <ele>317.64</ele>
      </trkpt>
      <trkpt lat="25.107664559036493" lon="121.571133909747">
        <ele>317.66</ele>
      </trkpt>
      <trkpt lat="25.107879638671875" lon="121.57131671905518">
        <ele>317.62</ele>
      </trkpt>
      <trkpt lat="25.107665481045842" lon="121.57113466411829">
        <ele>317.56</ele>
      </trkpt>
      <trkpt lat="25.107450485229492" lon="121.57095193862915">
        <ele>317.53</ele>
      </trkpt>
      <trkpt lat="25.10730036534369" lon="121.57072671689093">
        <ele>315.93</ele>
      </trkpt>
      <trkpt lat="25.107150161638856" lon="121.57050132751465">
        <ele>314.1</ele>
      </trkpt>
      <trkpt lat="25.10701060295105" lon="121.57024383544922">
        <ele>312.57</ele>
      </trkpt>
      <trkpt lat="25.106871128082275" lon="121.56998634338379">
        <ele>311.01</ele>
      </trkpt>
      <trkpt lat="25.106678092852235" lon="121.56975030899048">
        <ele>309.31</ele>
      </trkpt>
      <trkpt lat="25.10646343231201" lon="121.56951427459717">
        <ele>307.73</ele>
      </trkpt>
      <trkpt lat="25.106366872787476" lon="121.56936407089233">
        <ele>306.14</ele>
      </trkpt>
      <trkpt lat="25.10627031326294" lon="121.5692138671875">
        <ele>304.49</ele>
      </trkpt>
      <trkpt lat="25.106184482574463" lon="121.56902074813843">
        <ele>302.72</ele>
      </trkpt>
      <trkpt lat="25.106120193377137" lon="121.568763256073">
        <ele>300.56</ele>
      </trkpt>
      <trkpt lat="25.106066381558776" lon="121.56848388724029">
        <ele>298.75</ele>
      </trkpt>
      <trkpt lat="25.10601282119751" lon="121.5682053565979">
        <ele>297.29</ele>
      </trkpt>
      <trkpt lat="25.10601282119751" lon="121.5680980682373">
        <ele>295.73</ele>
      </trkpt>
      <trkpt lat="25.10601290501654" lon="121.56779766082764">
        <ele>293.96</ele>
      </trkpt>
      <trkpt lat="25.10601282119751" lon="121.56751871109009">
        <ele>291.33</ele>
      </trkpt>
      <trkpt lat="25.105991447344422" lon="121.56728267669678">
        <ele>288.77</ele>
      </trkpt>
      <trkpt lat="25.105905616655946" lon="121.56696081161499">
        <ele>286.23</ele>
      </trkpt>
      <trkpt lat="25.105851888656616" lon="121.56672444194555">
        <ele>284.18</ele>
      </trkpt>
      <trkpt lat="25.10579832829535" lon="121.56648874282837">
        <ele>282.33</ele>
      </trkpt>
      <trkpt lat="25.10576605796814" lon="121.56630610115826">
        <ele>280.29</ele>
      </trkpt>
      <trkpt lat="25.10573387145996" lon="121.56612396240234">
        <ele>278.27</ele>
      </trkpt>
      <trkpt lat="25.10575532913208" lon="121.56601667404175">
        <ele>276.27</ele>
      </trkpt>
      <trkpt lat="25.1057767868042" lon="121.56597375869751">
        <ele>274.47</ele>
      </trkpt>
      <trkpt lat="25.10584124363959" lon="121.56593084335327">
        <ele>272.69</ele>
      </trkpt>
      <trkpt lat="25.105884075164795" lon="121.56590938568115">
        <ele>271.13</ele>
      </trkpt>
      <trkpt lat="25.105948448181152" lon="121.56590938568115">
        <ele>269.7</ele>
      </trkpt>
      <trkpt lat="25.10603427886963" lon="121.56593084335327">
        <ele>268.43</ele>
      </trkpt>
      <trkpt lat="25.106098651885986" lon="121.56597375869751">
        <ele>267.42</ele>
      </trkpt>
      <trkpt lat="25.106184482574463" lon="121.56605958938599">
        <ele>266.64</ele>
      </trkpt>
      <trkpt lat="25.106345331296325" lon="121.56632772646844">
        <ele>266.04</ele>
      </trkpt>
      <trkpt lat="25.10650634765625" lon="121.56659603118896">
        <ele>265.51</ele>
      </trkpt>
      <trkpt lat="25.106570720672607" lon="121.56672477722168">
        <ele>265.19</ele>
      </trkpt>
      <trkpt lat="25.106635093688965" lon="121.56693935394287">
        <ele>265.16</ele>
      </trkpt>
      <trkpt lat="25.106656635180116" lon="121.56728267669678">
        <ele>265.16</ele>
      </trkpt>
      <trkpt lat="25.106656551361084" lon="121.5675512328744">
        <ele>265.08</ele>
      </trkpt>
      <trkpt lat="25.106656551361084" lon="121.56781911849976">
        <ele>265.01</ele>
      </trkpt>
      <trkpt lat="25.106656551361084" lon="121.56792640686035">
        <ele>265.19</ele>
      </trkpt>
      <trkpt lat="25.106699466705322" lon="121.56801223754883">
        <ele>265.28</ele>
      </trkpt>
      <trkpt lat="25.10680683888495" lon="121.56824827194214">
        <ele>265.4</ele>
      </trkpt>
      <trkpt lat="25.106928376480937" lon="121.56849863938987">
        <ele>265.22</ele>
      </trkpt>
      <trkpt lat="25.107049997895956" lon="121.5687490068376">
        <ele>264.89</ele>
      </trkpt>
      <trkpt lat="25.107171535491943" lon="121.56899929046631">
        <ele>264.72</ele>
      </trkpt>
      <trkpt lat="25.10727882385254" lon="121.56914949417114">
        <ele>264.43</ele>
      </trkpt>
      <trkpt lat="25.107343196868896" lon="121.56919240951538">
        <ele>263.83</ele>
      </trkpt>
      <trkpt lat="25.107429027557373" lon="121.5692138671875">
        <ele>263.02</ele>
      </trkpt>
      <trkpt lat="25.10751485824585" lon="121.5692138671875">
        <ele>261.99</ele>
      </trkpt>
      <trkpt lat="25.107579231262207" lon="121.56917095184326">
        <ele>260.69</ele>
      </trkpt>
      <trkpt lat="25.107622146606445" lon="121.56912803649902">
        <ele>259.3</ele>
      </trkpt>
      <trkpt lat="25.107643604278564" lon="121.56906366348267">
        <ele>257.74</ele>
      </trkpt>
      <trkpt lat="25.107643688097596" lon="121.56899929046631">
        <ele>256.1</ele>
      </trkpt>
      <trkpt lat="25.107622146606445" lon="121.56891345977783">
        <ele>254.33</ele>
      </trkpt>
      <trkpt lat="25.10748267173767" lon="121.56868815422058">
        <ele>252.3</ele>
      </trkpt>
      <trkpt lat="25.107343196868896" lon="121.56846284866333">
        <ele>250.47</ele>
      </trkpt>
      <trkpt lat="25.10721445083618" lon="121.5682053565979">
        <ele>248.67</ele>
      </trkpt>
      <trkpt lat="25.107171535491943" lon="121.5680980682373">
        <ele>246.8</ele>
      </trkpt>
      <trkpt lat="25.107150077819824" lon="121.56796932220459">
        <ele>244.8</ele>
      </trkpt>
      <trkpt lat="25.107150077819824" lon="121.56777620315552">
        <ele>242.72</ele>
      </trkpt>
      <trkpt lat="25.107192993164062" lon="121.5675401687622">
        <ele>240.96</ele>
      </trkpt>
      <trkpt lat="25.10725744999945" lon="121.56734704971313">
        <ele>238.95</ele>
      </trkpt>
      <trkpt lat="25.107343196868896" lon="121.56711101531982">
        <ele>236.86</ele>
      </trkpt>
      <trkpt lat="25.107396924868226" lon="121.56688545830548">
        <ele>234.82</ele>
      </trkpt>
      <trkpt lat="25.107450569048524" lon="121.56666040420532">
        <ele>232.92</ele>
      </trkpt>
      <trkpt lat="25.10757931508124" lon="121.56637055799365">
        <ele>231.12</ele>
      </trkpt>
      <trkpt lat="25.107708061113954" lon="121.5660810470581">
        <ele>229.23</ele>
      </trkpt>
      <trkpt lat="25.10777235031128" lon="121.56582355499268">
        <ele>227.33</ele>
      </trkpt>
      <trkpt lat="25.10779389180243" lon="121.56571626663208">
        <ele>225.67</ele>
      </trkpt>
      <trkpt lat="25.1077938079834" lon="121.5656304359436">
        <ele>224.14</ele>
      </trkpt>
      <trkpt lat="25.10777235031128" lon="121.56550168991089">
        <ele>222.75</ele>
      </trkpt>
      <trkpt lat="25.10767570696771" lon="121.56527621671557">
        <ele>221.6</ele>
      </trkpt>
      <trkpt lat="25.107579231262207" lon="121.56505107879639">
        <ele>220.54</ele>
      </trkpt>
      <trkpt lat="25.107514774426818" lon="121.56484697945416">
        <ele>219.39</ele>
      </trkpt>
      <trkpt lat="25.107450569048524" lon="121.56464338302612">
        <ele>218.19</ele>
      </trkpt>
      <trkpt lat="25.107386112213135" lon="121.56457901000977">
        <ele>217.24</ele>
      </trkpt>
      <trkpt lat="25.107343196868896" lon="121.56455755233765">
        <ele>216.38</ele>
      </trkpt>
      <trkpt lat="25.10725736618042" lon="121.56453609466553">
        <ele>215.57</ele>
      </trkpt>
      <trkpt lat="25.10708637535572" lon="121.56450399197638">
        <ele>214.81</ele>
      </trkpt>
      <trkpt lat="25.106914043426514" lon="121.56447172164917">
        <ele>213.95</ele>
      </trkpt>
      <trkpt lat="25.106806755065918" lon="121.56442880630493">
        <ele>213.12</ele>
      </trkpt>
      <trkpt lat="25.106635093688965" lon="121.56434297561646">
        <ele>212.24</ele>
      </trkpt>
      <trkpt lat="25.10650643147528" lon="121.56421422958374">
        <ele>211.31</ele>
      </trkpt>
      <trkpt lat="25.10627031326294" lon="121.56399965286255">
        <ele>210.49</ele>
      </trkpt>
      <trkpt lat="25.106184482574463" lon="121.56384944915771">
        <ele>209.57</ele>
      </trkpt>
      <trkpt lat="25.106163108721375" lon="121.56378507614136">
        <ele>208.63</ele>
      </trkpt>
      <trkpt lat="25.106184482574463" lon="121.56363487243652">
        <ele>207.58</ele>
      </trkpt>
      <trkpt lat="25.106227481737733" lon="121.56346321105957">
        <ele>206.5</ele>
      </trkpt>
      <trkpt lat="25.10627031326294" lon="121.56333446502686">
        <ele>205.32</ele>
      </trkpt>
      <trkpt lat="25.106334686279297" lon="121.56322717666626">
        <ele>204.18</ele>
      </trkpt>
      <trkpt lat="25.106442058458924" lon="121.56309843063354">
        <ele>202.95</ele>
      </trkpt>
      <trkpt lat="25.106570720672607" lon="121.56301259994507">
        <ele>201.56</ele>
      </trkpt>
      <trkpt lat="25.10657080449164" lon="121.56301259994507">
        <ele>200.18</ele>
      </trkpt>
      <trkpt lat="25.106741962954402" lon="121.56288410536945">
        <ele>198.6</ele>
      </trkpt>
      <trkpt lat="25.106914043426514" lon="121.56275510787964">
        <ele>196.84</ele>
      </trkpt>
      <trkpt lat="25.106914127245545" lon="121.56275510787964">
        <ele>195.29</ele>
      </trkpt>
      <trkpt lat="25.10705309920013" lon="121.56266944482923">
        <ele>193.49</ele>
      </trkpt>
      <trkpt lat="25.107192993164062" lon="121.56258344650269">
        <ele>191.75</ele>
      </trkpt>
      <trkpt lat="25.107374796643853" lon="121.56250859610736">
        <ele>189.93</ele>
      </trkpt>
      <trkpt lat="25.10755785740912" lon="121.56243324279785">
        <ele>188.13</ele>
      </trkpt>
      <trkpt lat="25.10779296979308" lon="121.56234766356647">
        <ele>186.51</ele>
      </trkpt>
      <trkpt lat="25.10802984237671" lon="121.5622615814209">
        <ele>185.01</ele>
      </trkpt>
      <trkpt lat="25.10802992619574" lon="121.5622615814209">
        <ele>183.64</ele>
      </trkpt>
      <trkpt lat="25.108201503753662" lon="121.5621542930603">
        <ele>182.22</ele>
      </trkpt>
      <trkpt lat="25.10826587677002" lon="121.56211137771606">
        <ele>181.0</ele>
      </trkpt>
      <trkpt lat="25.108330249786377" lon="121.56202554702759">
        <ele>179.89</ele>
      </trkpt>
      <trkpt lat="25.108437538146973" lon="121.56181088648736">
        <ele>178.83</ele>
      </trkpt>
      <trkpt lat="25.10854482650757" lon="121.5615963935852">
        <ele>177.88</ele>
      </trkpt>
      <trkpt lat="25.108566284179688" lon="121.56153202056885">
        <ele>177.17</ele>
      </trkpt>
      <trkpt lat="25.108587741851807" lon="121.56144618988037">
        <ele>176.6</ele>
      </trkpt>
      <trkpt lat="25.108566284179688" lon="121.56140327453613">
        <ele>176.23</ele>
      </trkpt>
      <trkpt lat="25.10852336883545" lon="121.5613603591919">
        <ele>175.97</ele>
      </trkpt>
      <trkpt lat="25.10848045349121" lon="121.56131744384766">
        <ele>175.79</ele>
      </trkpt>
      <trkpt lat="25.108416080474854" lon="121.56129598617554">
        <ele>175.77</ele>
      </trkpt>
      <trkpt lat="25.108351707458496" lon="121.56131744384766">
        <ele>175.9</ele>
      </trkpt>
      <trkpt lat="25.10828733444214" lon="121.5613603591919">
        <ele>176.16</ele>
      </trkpt>
      <trkpt lat="25.108169401064515" lon="121.56151039525867">
        <ele>176.57</ele>
      </trkpt>
      <trkpt lat="25.108051300048828" lon="121.56166076660156">
        <ele>176.97</ele>
      </trkpt>
      <trkpt lat="25.10805138386786" lon="121.56166076660156">
        <ele>177.23</ele>
      </trkpt>
      <trkpt lat="25.107901096343994" lon="121.56174659729004">
        <ele>177.55</ele>
      </trkpt>
      <trkpt lat="25.107836723327637" lon="121.56176805496216">
        <ele>177.8</ele>
      </trkpt>
      <trkpt lat="25.10777235031128" lon="121.56174659729004">
        <ele>178.01</ele>
      </trkpt>
      <trkpt lat="25.107600688934326" lon="121.56163930892944">
        <ele>178.09</ele>
      </trkpt>
      <trkpt lat="25.107450736686587" lon="121.56152154318988">
        <ele>178.03</ele>
      </trkpt>
      <trkpt lat="25.107300281524658" lon="121.56140327453613">
        <ele>177.93</ele>
      </trkpt>
      <trkpt lat="25.10721445083618" lon="121.5613603591919">
        <ele>177.93</ele>
      </trkpt>
      <trkpt lat="25.107107162475586" lon="121.56131744384766">
        <ele>177.88</ele>
      </trkpt>
      <trkpt lat="25.10702133178711" lon="121.56131744384766">
        <ele>177.86</ele>
      </trkpt>
      <trkpt lat="25.106914043426514" lon="121.56133890151978">
        <ele>177.86</ele>
      </trkpt>
      <trkpt lat="25.106636015698314" lon="121.56144577078521">
        <ele>177.85</ele>
      </trkpt>
      <trkpt lat="25.106356143951416" lon="121.56155347824097">
        <ele>177.98</ele>
      </trkpt>
      <trkpt lat="25.106356227770448" lon="121.56155347824097">
        <ele>177.9</ele>
      </trkpt>
      <trkpt lat="25.10627031326294" lon="121.5615963935852">
        <ele>177.79</ele>
      </trkpt>
      <trkpt lat="25.10627039708197" lon="121.5615963935852">
        <ele>177.56</ele>
      </trkpt>
      <trkpt lat="25.106077529489994" lon="121.56176771968603">
        <ele>177.64</ele>
      </trkpt>
      <trkpt lat="25.105884075164795" lon="121.56193971633911">
        <ele>177.51</ele>
      </trkpt>
      <trkpt lat="25.10579824447632" lon="121.56196117401123">
        <ele>176.82</ele>
      </trkpt>
      <trkpt lat="25.10575532913208" lon="121.56196117401123">
        <ele>176.03</ele>
      </trkpt>
      <trkpt lat="25.105690956115723" lon="121.56193971633911">
        <ele>175.06</ele>
      </trkpt>
      <trkpt lat="25.105626583099365" lon="121.56189680099487">
        <ele>173.92</ele>
      </trkpt>
      <trkpt lat="25.105605125427246" lon="121.56183242797852">
        <ele>172.6</ele>
      </trkpt>
      <trkpt lat="25.105605125427246" lon="121.56174659729004">
        <ele>171.12</ele>
      </trkpt>
      <trkpt lat="25.105626583099365" lon="121.56168222427368">
        <ele>169.6</ele>
      </trkpt>
      <trkpt lat="25.105669498443604" lon="121.56161785125732">
        <ele>168.03</ele>
      </trkpt>
      <trkpt lat="25.105829844251275" lon="121.56156437471509">
        <ele>166.48</ele>
      </trkpt>
      <trkpt lat="25.10599136352539" lon="121.56151056289673">
        <ele>164.81</ele>
      </trkpt>
      <trkpt lat="25.106248939409852" lon="121.56133890151978">
        <ele>162.71</ele>
      </trkpt>
      <trkpt lat="25.10649503208697" lon="121.56116765923798">
        <ele>160.53</ele>
      </trkpt>
      <trkpt lat="25.10674238204956" lon="121.56099557876587">
        <ele>158.77</ele>
      </trkpt>
      <trkpt lat="25.106828212738037" lon="121.56093120574951">
        <ele>156.89</ele>
      </trkpt>
      <trkpt lat="25.10699987411499" lon="121.5606951713562">
        <ele>154.7</ele>
      </trkpt>
      <trkpt lat="25.106999957934022" lon="121.5606951713562">
        <ele>152.97</ele>
      </trkpt>
      <trkpt lat="25.107085704803467" lon="121.56060934066772">
        <ele>151.19</ele>
      </trkpt>
      <trkpt lat="25.107171535491943" lon="121.56052350997925">
        <ele>149.47</ele>
      </trkpt>
      <trkpt lat="25.1072359085083" lon="121.56050205230713">
        <ele>147.87</ele>
      </trkpt>
      <trkpt lat="25.107493484392762" lon="121.56050205230713">
        <ele>146.44</ele>
      </trkpt>
      <trkpt lat="25.10772943496704" lon="121.56050205230713">
        <ele>145.01</ele>
      </trkpt>
      <trkpt lat="25.107922554016113" lon="121.56050205230713">
        <ele>143.63</ele>
      </trkpt>
      <trkpt lat="25.108115673065186" lon="121.56043767929077">
        <ele>142.03</ele>
      </trkpt>
      <trkpt lat="25.108180129900575" lon="121.56037330627441">
        <ele>140.32</ele>
      </trkpt>
      <trkpt lat="25.10826596058905" lon="121.56030893325806">
        <ele>138.65</ele>
      </trkpt>
      <trkpt lat="25.108416164293885" lon="121.5601372718811">
        <ele>136.86</ele>
      </trkpt>
      <trkpt lat="25.108566284179688" lon="121.55996561050415">
        <ele>135.04</ele>
      </trkpt>
      <trkpt lat="25.108695030212402" lon="121.55987977981567">
        <ele>133.45</ele>
      </trkpt>
      <trkpt lat="25.10873794555664" lon="121.55987977981567">
        <ele>132.02</ele>
      </trkpt>
      <trkpt lat="25.10890893638134" lon="121.55992252752185">
        <ele>130.66</ele>
      </trkpt>
      <trkpt lat="25.10908135212958" lon="121.55996561050415">
        <ele>129.29</ele>
      </trkpt>
      <trkpt lat="25.109317302703857" lon="121.56002998352051">
        <ele>127.73</ele>
      </trkpt>
      <trkpt lat="25.109446048736572" lon="121.56002998352051">
        <ele>126.33</ele>
      </trkpt>
      <trkpt lat="25.109639251604676" lon="121.55998706817627">
        <ele>124.92</ele>
      </trkpt>
      <trkpt lat="25.109885092824697" lon="121.55990148894489">
        <ele>123.45</ele>
      </trkpt>
      <trkpt lat="25.110132694244385" lon="121.55981540679932">
        <ele>121.83</ele>
      </trkpt>
      <trkpt lat="25.11023998260498" lon="121.55977249145508">
        <ele>120.38</ele>
      </trkpt>
      <trkpt lat="25.110390186309814" lon="121.55977249145508">
        <ele>119.07</ele>
      </trkpt>
      <trkpt lat="25.110626220703125" lon="121.5597939491272">
        <ele>117.76</ele>
      </trkpt>
      <trkpt lat="25.11073350906372" lon="121.55983686447144">
        <ele>116.59</ele>
      </trkpt>
      <trkpt lat="25.110840797424316" lon="121.5599012374878">
        <ele>115.31</ele>
      </trkpt>
      <trkpt lat="25.110948085784912" lon="121.55996561050415">
        <ele>114.1</ele>
      </trkpt>
      <trkpt lat="25.110948169603944" lon="121.55996561050415">
        <ele>113.12</ele>
      </trkpt>
      <trkpt lat="25.11101245880127" lon="121.56005144119263">
        <ele>112.15</ele>
      </trkpt>
      <trkpt lat="25.111119747161865" lon="121.56022310256958">
        <ele>111.14</ele>
      </trkpt>
      <trkpt lat="25.111141204833984" lon="121.56030893325806">
        <ele>110.34</ele>
      </trkpt>
      <trkpt lat="25.111141204833984" lon="121.56041622161865">
        <ele>109.53</ele>
      </trkpt>
      <trkpt lat="25.111119747161865" lon="121.56054496765137">
        <ele>108.9</ele>
      </trkpt>
      <trkpt lat="25.111076831817627" lon="121.5606951713562">
        <ele>108.25</ele>
      </trkpt>
      <trkpt lat="25.11098018847406" lon="121.56088829040527">
        <ele>107.76</ele>
      </trkpt>
      <trkpt lat="25.110883712768555" lon="121.56108140945435">
        <ele>106.92</ele>
      </trkpt>
      <trkpt lat="25.110840797424316" lon="121.5612530708313">
        <ele>105.89</ele>
      </trkpt>
      <trkpt lat="25.11077642440796" lon="121.56144618988037">
        <ele>105.03</ele>
      </trkpt>
      <trkpt lat="25.11077642440796" lon="121.56157493591309">
        <ele>104.18</ele>
      </trkpt>
      <trkpt lat="25.110797882080078" lon="121.56185388565063">
        <ele>103.3</ele>
      </trkpt>
      <trkpt lat="25.110840797424316" lon="121.56202554702759">
        <ele>102.49</ele>
      </trkpt>
      <trkpt lat="25.110937356948853" lon="121.56233693473041">
        <ele>101.66</ele>
      </trkpt>
      <trkpt lat="25.11103391647339" lon="121.56264781951904">
        <ele>100.99</ele>
      </trkpt>
      <trkpt lat="25.111141204833984" lon="121.56288385391235">
        <ele>100.35</ele>
      </trkpt>
      <trkpt lat="25.11124849319458" lon="121.56299114227295">
        <ele>99.48</ele>
      </trkpt>
      <trkpt lat="25.111377239227295" lon="121.56301259994507">
        <ele>98.38</ele>
      </trkpt>
      <trkpt lat="25.111441612243652" lon="121.56301259994507">
        <ele>97.37</ele>
      </trkpt>
      <trkpt lat="25.11152744293213" lon="121.56296968460083">
        <ele>96.3</ele>
      </trkpt>
      <trkpt lat="25.111591815948486" lon="121.56284093856812">
        <ele>95.2</ele>
      </trkpt>
      <trkpt lat="25.111591899767518" lon="121.56284093856812">
        <ele>94.32</ele>
      </trkpt>
      <trkpt lat="25.111570358276367" lon="121.56273365020752">
        <ele>93.41</ele>
      </trkpt>
      <trkpt lat="25.111548900604248" lon="121.56266927719116">
        <ele>92.5</ele>
      </trkpt>
      <trkpt lat="25.111409425735474" lon="121.56243324279785">
        <ele>91.57</ele>
      </trkpt>
      <trkpt lat="25.1112699508667" lon="121.56219720840454">
        <ele>90.65</ele>
      </trkpt>
      <trkpt lat="25.11127003468573" lon="121.56219720840454">
        <ele>89.73</ele>
      </trkpt>
      <trkpt lat="25.111184120178223" lon="121.56202554702759">
        <ele>88.94</ele>
      </trkpt>
      <trkpt lat="25.111162662506104" lon="121.56189680099487">
        <ele>88.03</ele>
      </trkpt>
      <trkpt lat="25.111141204833984" lon="121.56172513961792">
        <ele>87.06</ele>
      </trkpt>
      <trkpt lat="25.111162662506104" lon="121.56155347824097">
        <ele>86.03</ele>
      </trkpt>
      <trkpt lat="25.11122703552246" lon="121.56127452850342">
        <ele>84.98</ele>
      </trkpt>
      <trkpt lat="25.11129140853882" lon="121.56108140945435">
        <ele>83.77</ele>
      </trkpt>
      <trkpt lat="25.111377239227295" lon="121.56088829040527">
        <ele>82.62</ele>
      </trkpt>
      <trkpt lat="25.111537920311093" lon="121.56069533899426">
        <ele>81.13</ele>
      </trkpt>
      <trkpt lat="25.111699104309082" lon="121.56050205230713">
        <ele>80.08</ele>
      </trkpt>
      <trkpt lat="25.11176347732544" lon="121.56041622161865">
        <ele>78.96</ele>
      </trkpt>
      <trkpt lat="25.111806392669678" lon="121.56033039093018">
        <ele>77.84</ele>
      </trkpt>
      <trkpt lat="25.111806392669678" lon="121.5601372718811">
        <ele>76.83</ele>
      </trkpt>
      <trkpt lat="25.111806392669678" lon="121.56002998352051">
        <ele>75.91</ele>
      </trkpt>
      <trkpt lat="25.11173120699823" lon="121.55980442650616">
        <ele>75.14</ele>
      </trkpt>
      <trkpt lat="25.111656188964844" lon="121.559579372406">
        <ele>74.37</ele>
      </trkpt>
      <trkpt lat="25.111656188964844" lon="121.55949354171753">
        <ele>73.73</ele>
      </trkpt>
      <trkpt lat="25.111677646636963" lon="121.55932188034058">
        <ele>73.05</ele>
      </trkpt>
      <trkpt lat="25.1117205619812" lon="121.5592360496521">
        <ele>72.57</ele>
      </trkpt>
      <trkpt lat="25.111849224194884" lon="121.55905013903975">
        <ele>72.13</ele>
      </trkpt>
      <trkpt lat="25.111977886408567" lon="121.55886431224644">
        <ele>72.08</ele>
      </trkpt>
      <trkpt lat="25.112106800079346" lon="121.558678150177">
        <ele>72.34</ele>
      </trkpt>
      <trkpt lat="25.112192630767822" lon="121.5587854385376">
        <ele>72.47</ele>
      </trkpt>
      <trkpt lat="25.11226773262024" lon="121.55895709991455">
        <ele>72.62</ele>
      </trkpt>
      <trkpt lat="25.112342834472656" lon="121.5591287612915">
        <ele>72.91</ele>
      </trkpt>
      <trkpt lat="25.112407207489014" lon="121.55932188034058">
        <ele>73.32</ele>
      </trkpt>
      <trkpt lat="25.11247158050537" lon="121.559579372406">
        <ele>73.98</ele>
      </trkpt>
      <trkpt lat="25.11251449584961" lon="121.55982638709247">
        <ele>74.71</ele>
      </trkpt>
      <trkpt lat="25.112557411193848" lon="121.56007289886475">
        <ele>75.36</ele>
      </trkpt>
      <trkpt lat="25.11253595352173" lon="121.56033039093018">
        <ele>75.89</ele>
      </trkpt>
      <trkpt lat="25.112493121996522" lon="121.56060934066772">
        <ele>76.67</ele>
      </trkpt>
      <trkpt lat="25.112428748980165" lon="121.56086683273315">
        <ele>77.44</ele>
      </trkpt>
      <trkpt lat="25.112328501418233" lon="121.56116740778089">
        <ele>78.2</ele>
      </trkpt>
      <trkpt lat="25.1122282538563" lon="121.56146806664765">
        <ele>79.05</ele>
      </trkpt>
      <trkpt lat="25.112128257751465" lon="121.56176805496216">
        <ele>80.12</ele>
      </trkpt>
      <trkpt lat="25.112106800079346" lon="121.56191825866699">
        <ele>81.32</ele>
      </trkpt>
      <trkpt lat="25.112106800079346" lon="121.56219720840454">
        <ele>82.67</ele>
      </trkpt>
      <trkpt lat="25.112149715423584" lon="121.56232595443726">
        <ele>84.02</ele>
      </trkpt>
      <trkpt lat="25.11221408843994" lon="121.5626049041748">
        <ele>85.52</ele>
      </trkpt>
      <trkpt lat="25.112299919128418" lon="121.56273365020752">
        <ele>87.07</ele>
      </trkpt>
      <trkpt lat="25.112391198053956" lon="121.56303430907428">
        <ele>88.93</ele>
      </trkpt>
      <trkpt lat="25.112482476979494" lon="121.56333496794105">
        <ele>90.81</ele>
      </trkpt>
      <trkpt lat="25.112573755905032" lon="121.56363562680781">
        <ele>92.65</ele>
      </trkpt>
      <trkpt lat="25.112664783373475" lon="121.56393527984619">
        <ele>94.79</ele>
      </trkpt>
      <trkpt lat="25.112729156389832" lon="121.56415714882314">
        <ele>96.88</ele>
      </trkpt>
      <trkpt lat="25.11279361322522" lon="121.56437910161912">
        <ele>99.0</ele>
      </trkpt>
      <trkpt lat="25.112857902422547" lon="121.56460046768188">
        <ele>101.24</ele>
      </trkpt>
      <trkpt lat="25.112857818603516" lon="121.56460046768188">
        <ele>103.43</ele>
      </trkpt>
      <trkpt lat="25.112943733111024" lon="121.56490825116634">
        <ele>105.84</ele>
      </trkpt>
      <trkpt lat="25.113029647618532" lon="121.56521611846983">
        <ele>108.18</ele>
      </trkpt>
      <trkpt lat="25.113115394487977" lon="121.56552314758301">
        <ele>110.64</ele>
      </trkpt>
      <trkpt lat="25.113201225176454" lon="121.56581659801304">
        <ele>113.15</ele>
      </trkpt>
      <trkpt lat="25.113287139683962" lon="121.56611013226211">
        <ele>115.7</ele>
      </trkpt>
      <trkpt lat="25.113372886553407" lon="121.56640291213989">
        <ele>118.22</ele>
      </trkpt>
      <trkpt lat="25.113372802734375" lon="121.56640291213989">
        <ele>120.52</ele>
      </trkpt>
      <trkpt lat="25.113447904586792" lon="121.56666593626142">
        <ele>123.0</ele>
      </trkpt>
      <trkpt lat="25.11352309025824" lon="121.56692904420197">
        <ele>125.35</ele>
      </trkpt>
      <trkpt lat="25.11359827592969" lon="121.56719215214252">
        <ele>127.68</ele>
      </trkpt>
      <trkpt lat="25.113673210144043" lon="121.56745433807373">
        <ele>130.05</ele>
      </trkpt>
      <trkpt lat="25.11374831199646" lon="121.5676582697779">
        <ele>132.2</ele>
      </trkpt>
      <trkpt lat="25.113823413848877" lon="121.567862033844">
        <ele>134.19</ele>
      </trkpt>
      <trkpt lat="25.11396288871765" lon="121.56814098358154">
        <ele>136.03</ele>
      </trkpt>
      <trkpt lat="25.114102447405457" lon="121.56841993331909">
        <ele>137.47</ele>
      </trkpt>
      <trkpt lat="25.114102363586426" lon="121.56841993331909">
        <ele>138.82</ele>
      </trkpt>
      <trkpt lat="25.114166820421815" lon="121.56850576400757">
        <ele>140.03</ele>
      </trkpt>
      <trkpt lat="25.114166736602783" lon="121.56850576400757">
        <ele>141.11</ele>
      </trkpt>
      <trkpt lat="25.11425256729126" lon="121.56869888305664">
        <ele>141.93</ele>
      </trkpt>
      <trkpt lat="25.114359855651855" lon="121.56893491744995">
        <ele>142.72</ele>
      </trkpt>
      <trkpt lat="25.114424228668213" lon="121.56912803649902">
        <ele>143.42</ele>
      </trkpt>
      <trkpt lat="25.114488685503602" lon="121.56938552856445">
        <ele>144.2</ele>
      </trkpt>
      <trkpt lat="25.11448860168457" lon="121.56938552856445">
        <ele>144.77</ele>
      </trkpt>
      <trkpt lat="25.11455657891929" lon="121.56971133314073">
        <ele>145.57</ele>
      </trkpt>
      <trkpt lat="25.114624639973044" lon="121.57003713771701">
        <ele>146.11</ele>
      </trkpt>
      <trkpt lat="25.114692701026797" lon="121.57036294229329">
        <ele>146.41</ele>
      </trkpt>
      <trkpt lat="25.11476076208055" lon="121.57068874686956">
        <ele>146.74</ele>
      </trkpt>
      <trkpt lat="25.11482873931527" lon="121.57101455144584">
        <ele>147.05</ele>
      </trkpt>
      <trkpt lat="25.114896381273866" lon="121.5713381767273">
        <ele>147.13</ele>
      </trkpt>
      <trkpt lat="25.114896297454834" lon="121.5713381767273">
        <ele>147.34</ele>
      </trkpt>
      <trkpt lat="25.11496067047119" lon="121.57159566879272">
        <ele>147.53</ele>
      </trkpt>
      <trkpt lat="25.11501431465149" lon="121.57179968431592">
        <ele>147.84</ele>
      </trkpt>
      <trkpt lat="25.115067958831787" lon="121.57200336456299">
        <ele>148.17</ele>
      </trkpt>
      <trkpt lat="25.115196704864502" lon="121.57228231430054">
        <ele>148.53</ele>
      </trkpt>
      <trkpt lat="25.115303993225098" lon="121.57249689102173">
        <ele>148.75</ele>
      </trkpt>
      <trkpt lat="25.115411365404725" lon="121.57271146774292">
        <ele>149.02</ele>
      </trkpt>
      <trkpt lat="25.11551865376532" lon="121.57292604446411">
        <ele>149.32</ele>
      </trkpt>
      <trkpt lat="25.11551856994629" lon="121.57292604446411">
        <ele>149.65</ele>
      </trkpt>
      <trkpt lat="25.11569014750421" lon="121.57320491038263">
        <ele>150.06</ele>
      </trkpt>
      <trkpt lat="25.115861892700195" lon="121.57348394393921">
        <ele>150.45</ele>
      </trkpt>
      <trkpt lat="25.11596918106079" lon="121.57363414764404">
        <ele>150.95</ele>
      </trkpt>
      <trkpt lat="25.11612986214459" lon="121.57379474490881">
        <ele>151.56</ele>
      </trkpt>
      <trkpt lat="25.11629112996161" lon="121.57395601272583">
        <ele>152.26</ele>
      </trkpt>
      <trkpt lat="25.116355419158936" lon="121.57402038574219">
        <ele>153.03</ele>
      </trkpt>
      <trkpt lat="25.116505371406674" lon="121.57415960915387">
        <ele>153.93</ele>
      </trkpt>
      <trkpt lat="25.116655910387635" lon="121.57429933547974">
        <ele>154.84</ele>
      </trkpt>
      <trkpt lat="25.1167631149292" lon="121.57442808151245">
        <ele>155.77</ele>
      </trkpt>
      <trkpt lat="25.116934776306152" lon="121.57453536987305">
        <ele>156.82</ele>
      </trkpt>
      <trkpt lat="25.117106437683105" lon="121.57466411590576">
        <ele>157.91</ele>
      </trkpt>
      <trkpt lat="25.117321014404297" lon="121.57477140426636">
        <ele>159.17</ele>
      </trkpt>
      <trkpt lat="25.117513462901115" lon="121.57484617084265">
        <ele>160.39</ele>
      </trkpt>
      <trkpt lat="25.11770725250244" lon="121.57492160797119">
        <ele>161.7</ele>
      </trkpt>
      <trkpt lat="25.117857456207275" lon="121.57498598098755">
        <ele>163.01</ele>
      </trkpt>
      <trkpt lat="25.11800765991211" lon="121.57511472702026">
        <ele>164.09</ele>
      </trkpt>
      <trkpt lat="25.11820077896118" lon="121.57530784606934">
        <ele>164.98</ele>
      </trkpt>
      <trkpt lat="25.118351066485047" lon="121.57552242279053">
        <ele>166.01</ele>
      </trkpt>
      <trkpt lat="25.118483416736126" lon="121.5758157055825">
        <ele>167.0</ele>
      </trkpt>
      <trkpt lat="25.118615766987205" lon="121.5761090721935">
        <ele>168.17</ele>
      </trkpt>
      <trkpt lat="25.118748117238283" lon="121.57640243880451">
        <ele>169.2</ele>
      </trkpt>
      <trkpt lat="25.11888046748936" lon="121.57669580541551">
        <ele>170.17</ele>
      </trkpt>
      <trkpt lat="25.119012901559472" lon="121.57698917202652">
        <ele>171.27</ele>
      </trkpt>
      <trkpt lat="25.119145000353456" lon="121.5772819519043">
        <ele>172.29</ele>
      </trkpt>
      <trkpt lat="25.11929520405829" lon="121.5775716304779">
        <ele>173.25</ele>
      </trkpt>
      <trkpt lat="25.119445407763124" lon="121.57786130905151">
        <ele>174.13</ele>
      </trkpt>
      <trkpt lat="25.11950969696045" lon="121.57799005508423">
        <ele>174.99</ele>
      </trkpt>
      <trkpt lat="25.1195312384516" lon="121.57816171646118">
        <ele>175.86</ele>
      </trkpt>
      <trkpt lat="25.119552612304688" lon="121.57846212387085">
        <ele>176.8</ele>
      </trkpt>
      <trkpt lat="25.11952042579651" lon="121.5786876808852">
        <ele>177.75</ele>
      </trkpt>
      <trkpt lat="25.119488323107362" lon="121.57891273498535">
        <ele>178.7</ele>
      </trkpt>
      <trkpt lat="25.11945605278015" lon="121.57908456400037">
        <ele>179.58</ele>
      </trkpt>
      <trkpt lat="25.119423866271973" lon="121.57925605773926">
        <ele>180.39</ele>
      </trkpt>
      <trkpt lat="25.119423866271973" lon="121.57938480377197">
        <ele>181.28</ele>
      </trkpt>
      <trkpt lat="25.119445323944092" lon="121.5795350074768">
        <ele>182.21</ele>
      </trkpt>
      <trkpt lat="25.1195312384516" lon="121.57981395721436">
        <ele>183.28</ele>
      </trkpt>
      <trkpt lat="25.119638526812196" lon="121.58011436462402">
        <ele>184.16</ele>
      </trkpt>
      <trkpt lat="25.119724357500672" lon="121.58037185668945">
        <ele>184.88</ele>
      </trkpt>
      <trkpt lat="25.119842374697328" lon="121.58067243173718">
        <ele>185.72</ele>
      </trkpt>
      <trkpt lat="25.11996030807495" lon="121.58097267150879">
        <ele>186.57</ele>
      </trkpt>
      <trkpt lat="25.119981849566102" lon="121.58112287521362">
        <ele>186.97</ele>
      </trkpt>
      <trkpt lat="25.11996030807495" lon="121.58135890960693">
        <ele>187.13</ele>
      </trkpt>
      <trkpt lat="25.119917476549745" lon="121.58148765563965">
        <ele>187.26</ele>
      </trkpt>
      <trkpt lat="25.119874477386475" lon="121.5816593170166">
        <ele>187.44</ele>
      </trkpt>
      <trkpt lat="25.119788646697998" lon="121.58180952072144">
        <ele>187.61</ele>
      </trkpt>
      <trkpt lat="25.119638359174132" lon="121.5821099281311">
        <ele>187.84</ele>
      </trkpt>
      <trkpt lat="25.1194881554693" lon="121.5824104193598">
        <ele>188.12</ele>
      </trkpt>
      <trkpt lat="25.119338035583496" lon="121.58271074295044">
        <ele>188.68</ele>
      </trkpt>
      <trkpt lat="25.119338119402528" lon="121.58271074295044">
        <ele>189.12</ele>
      </trkpt>
      <trkpt lat="25.11924147605896" lon="121.58290386199951">
        <ele>189.77</ele>
      </trkpt>
      <trkpt lat="25.119144916534424" lon="121.58309698104858">
        <ele>190.37</ele>
      </trkpt>
      <trkpt lat="25.119102001190186" lon="121.5832257270813">
        <ele>190.98</ele>
      </trkpt>
      <trkpt lat="25.119080543518066" lon="121.58335447311401">
        <ele>191.68</ele>
      </trkpt>
      <trkpt lat="25.119080543518066" lon="121.58348321914673">
        <ele>192.49</ele>
      </trkpt>
      <trkpt lat="25.119123458862305" lon="121.58374071121216">
        <ele>193.45</ele>
      </trkpt>
      <trkpt lat="25.11922001838684" lon="121.58399828709662">
        <ele>194.51</ele>
      </trkpt>
      <trkpt lat="25.119316577911377" lon="121.58425569534302">
        <ele>195.68</ele>
      </trkpt>
      <trkpt lat="25.119445323944092" lon="121.58447027206421">
        <ele>196.86</ele>
      </trkpt>
      <trkpt lat="25.119552612304688" lon="121.5845775604248">
        <ele>198.02</ele>
      </trkpt>
      <trkpt lat="25.119659900665283" lon="121.58466339111328">
        <ele>199.21</ele>
      </trkpt>
      <trkpt lat="25.119788646697998" lon="121.58472776412964">
        <ele>200.45</ele>
      </trkpt>
      <trkpt lat="25.119917392730713" lon="121.58474922180176">
        <ele>201.76</ele>
      </trkpt>
      <trkpt lat="25.120067596435547" lon="121.58477067947388">
        <ele>203.2</ele>
      </trkpt>
      <trkpt lat="25.12026079930365" lon="121.58474922180176">
        <ele>204.77</ele>
      </trkpt>
      <trkpt lat="25.12051820755005" lon="121.58474922180176">
        <ele>206.47</ele>
      </trkpt>
      <trkpt lat="25.120668411254883" lon="121.58477067947388">
        <ele>207.66</ele>
      </trkpt>
      <trkpt lat="25.120925903320312" lon="121.58487796783447">
        <ele>208.61</ele>
      </trkpt>
      <trkpt lat="25.121140480041504" lon="121.58504962921143">
        <ele>209.26</ele>
      </trkpt>
      <trkpt lat="25.121290683746338" lon="121.58522129058838">
        <ele>210.01</ele>
      </trkpt>
      <trkpt lat="25.121355140581727" lon="121.58532857894897">
        <ele>210.75</ele>
      </trkpt>
      <trkpt lat="25.12146234512329" lon="121.58560752868652">
        <ele>211.45</ele>
      </trkpt>
      <trkpt lat="25.12150534428656" lon="121.5858006477356">
        <ele>212.26</ele>
      </trkpt>
      <trkpt lat="25.121591091156006" lon="121.58605813980103">
        <ele>213.26</ele>
      </trkpt>
      <trkpt lat="25.121655464172363" lon="121.58620834350586">
        <ele>214.19</ele>
      </trkpt>
      <trkpt lat="25.12171983718872" lon="121.58629417419434">
        <ele>215.24</ele>
      </trkpt>
      <trkpt lat="25.121913040056825" lon="121.58648729324341">
        <ele>216.46</ele>
      </trkpt>
      <trkpt lat="25.12206324376166" lon="121.586594581604">
        <ele>217.75</ele>
      </trkpt>
      <trkpt lat="25.122202299535275" lon="121.58669088967144">
        <ele>219.23</ele>
      </trkpt>
      <trkpt lat="25.122342109680176" lon="121.58678770065308">
        <ele>220.89</ele>
      </trkpt>
      <trkpt lat="25.122556686401367" lon="121.58687353134155">
        <ele>222.63</ele>
      </trkpt>
      <trkpt lat="25.12272834777832" lon="121.58693790435791">
        <ele>224.12</ele>
      </trkpt>
      <trkpt lat="25.12288860976696" lon="121.58696992322803">
        <ele>225.32</ele>
      </trkpt>
      <trkpt lat="25.123050212860107" lon="121.58700227737427">
        <ele>226.63</ele>
      </trkpt>
      <trkpt lat="25.12305029667914" lon="121.58700227737427">
        <ele>227.81</ele>
      </trkpt>
      <trkpt lat="25.123350620269775" lon="121.58706665039062">
        <ele>229.23</ele>
      </trkpt>
      <trkpt lat="25.12350082397461" lon="121.58710956573486">
        <ele>230.19</ele>
      </trkpt>
      <trkpt lat="25.123725375160575" lon="121.58722179941833">
        <ele>230.72</ele>
      </trkpt>
      <trkpt lat="25.123950010165572" lon="121.58733411692083">
        <ele>231.2</ele>
      </trkpt>
      <trkpt lat="25.124174561351538" lon="121.58744643442333">
        <ele>231.69</ele>
      </trkpt>
      <trkpt lat="25.124402046203613" lon="121.58756017684937">
        <ele>232.22</ele>
      </trkpt>
      <trkpt lat="25.124641181901097" lon="121.58764558844268">
        <ele>232.81</ele>
      </trkpt>
      <trkpt lat="25.124402046203613" lon="121.58756017684937">
        <ele>232.19</ele>
      </trkpt>
      <trkpt lat="25.124177411198616" lon="121.58744785934687">
        <ele>231.69</ele>
      </trkpt>
      <trkpt lat="25.12395277619362" lon="121.58733554184437">
        <ele>231.23</ele>
      </trkpt>
      <trkpt lat="25.123728225007653" lon="121.58722322434187">
        <ele>230.72</ele>
      </trkpt>
      <trkpt lat="25.12350082397461" lon="121.58710956573486">
        <ele>230.22</ele>
      </trkpt>
      <trkpt lat="25.123350620269775" lon="121.58706665039062">
        <ele>229.23</ele>
      </trkpt>
      <trkpt lat="25.12305029667914" lon="121.58700227737427">
        <ele>227.76</ele>
      </trkpt>
      <trkpt lat="25.123050212860107" lon="121.58700227737427">
        <ele>226.57</ele>
      </trkpt>
      <trkpt lat="25.122889867052436" lon="121.58697017468512">
        <ele>225.24</ele>
      </trkpt>
      <trkpt lat="25.12272834777832" lon="121.58693790435791">
        <ele>224.04</ele>
      </trkpt>
      <trkpt lat="25.122556686401367" lon="121.58687353134155">
        <ele>222.54</ele>
      </trkpt>
      <trkpt lat="25.122342109680176" lon="121.58678770065308">
        <ele>220.79</ele>
      </trkpt>
      <trkpt lat="25.12220297008753" lon="121.5866913087666">
        <ele>219.16</ele>
      </trkpt>
      <trkpt lat="25.12206324376166" lon="121.586594581604">
        <ele>217.72</ele>
      </trkpt>
      <trkpt lat="25.121913040056825" lon="121.58648729324341">
        <ele>216.49</ele>
      </trkpt>
      <trkpt lat="25.12171983718872" lon="121.58629417419434">
        <ele>215.34</ele>
      </trkpt>
      <trkpt lat="25.121655464172363" lon="121.58620834350586">
        <ele>214.37</ele>
      </trkpt>
      <trkpt lat="25.121591091156006" lon="121.58605813980103">
        <ele>213.51</ele>
      </trkpt>
      <trkpt lat="25.12150534428656" lon="121.5858006477356">
        <ele>212.57</ele>
      </trkpt>
      <trkpt lat="25.12146234512329" lon="121.58560752868652">
        <ele>211.82</ele>
      </trkpt>
      <trkpt lat="25.121355140581727" lon="121.58532857894897">
        <ele>211.17</ele>
      </trkpt>
      <trkpt lat="25.121290683746338" lon="121.58522129058838">
        <ele>210.45</ele>
      </trkpt>
      <trkpt lat="25.121140480041504" lon="121.58504962921143">
        <ele>209.7</ele>
      </trkpt>
      <trkpt lat="25.120925903320312" lon="121.58487796783447">
        <ele>209.03</ele>
      </trkpt>
      <trkpt lat="25.120668411254883" lon="121.58477067947388">
        <ele>208.01</ele>
      </trkpt>
      <trkpt lat="25.12051820755005" lon="121.58474922180176">
        <ele>206.74</ele>
      </trkpt>
      <trkpt lat="25.12026079930365" lon="121.58474922180176">
        <ele>204.95</ele>
      </trkpt>
      <trkpt lat="25.120067596435547" lon="121.58477067947388">
        <ele>203.3</ele>
      </trkpt>
      <trkpt lat="25.119917392730713" lon="121.58474922180176">
        <ele>201.79</ele>
      </trkpt>
      <trkpt lat="25.119788646697998" lon="121.58472776412964">
        <ele>200.42</ele>
      </trkpt>
      <trkpt lat="25.119659900665283" lon="121.58466339111328">
        <ele>199.14</ele>
      </trkpt>
      <trkpt lat="25.119552612304688" lon="121.5845775604248">
        <ele>197.88</ele>
      </trkpt>
      <trkpt lat="25.119445323944092" lon="121.58447027206421">
        <ele>196.67</ele>
      </trkpt>
      <trkpt lat="25.119316577911377" lon="121.58425569534302">
        <ele>195.44</ele>
      </trkpt>
      <trkpt lat="25.11921993456781" lon="121.58399803563952">
        <ele>194.23</ele>
      </trkpt>
      <trkpt lat="25.119123458862305" lon="121.58374071121216">
        <ele>193.14</ele>
      </trkpt>
      <trkpt lat="25.119080543518066" lon="121.58348321914673">
        <ele>192.17</ele>
      </trkpt>
      <trkpt lat="25.119080543518066" lon="121.58335447311401">
        <ele>191.36</ele>
      </trkpt>
      <trkpt lat="25.119102001190186" lon="121.5832257270813">
        <ele>190.68</ele>
      </trkpt>
      <trkpt lat="25.119144916534424" lon="121.58309698104858">
        <ele>190.09</ele>
      </trkpt>
      <trkpt lat="25.11924147605896" lon="121.58290377818048">
        <ele>189.52</ele>
      </trkpt>
      <trkpt lat="25.119338119402528" lon="121.58271074295044">
        <ele>188.9</ele>
      </trkpt>
      <trkpt lat="25.119338035583496" lon="121.58271074295044">
        <ele>188.52</ele>
      </trkpt>
      <trkpt lat="25.11948823928833" lon="121.58241025172174">
        <ele>188.01</ele>
      </trkpt>
      <trkpt lat="25.119638442993164" lon="121.58210976049304">
        <ele>187.79</ele>
      </trkpt>
      <trkpt lat="25.119788646697998" lon="121.58180952072144">
        <ele>187.64</ele>
      </trkpt>
      <trkpt lat="25.119874477386475" lon="121.5816593170166">
        <ele>187.53</ele>
      </trkpt>
      <trkpt lat="25.119917476549745" lon="121.58148765563965">
        <ele>187.39</ele>
      </trkpt>
      <trkpt lat="25.11996030807495" lon="121.58135890960693">
        <ele>187.3</ele>
      </trkpt>
      <trkpt lat="25.119981849566102" lon="121.58112287521362">
        <ele>187.15</ele>
      </trkpt>
      <trkpt lat="25.11996030807495" lon="121.58097267150879">
        <ele>186.73</ele>
      </trkpt>
      <trkpt lat="25.119842207059264" lon="121.58067201264203">
        <ele>185.84</ele>
      </trkpt>
      <trkpt lat="25.119724357500672" lon="121.58037185668945">
        <ele>184.96</ele>
      </trkpt>
      <trkpt lat="25.119638526812196" lon="121.58011436462402">
        <ele>184.21</ele>
      </trkpt>
      <trkpt lat="25.1195312384516" lon="121.57981395721436">
        <ele>183.29</ele>
      </trkpt>
      <trkpt lat="25.119445323944092" lon="121.5795350074768">
        <ele>182.18</ele>
      </trkpt>
      <trkpt lat="25.119423866271973" lon="121.57938480377197">
        <ele>181.24</ele>
      </trkpt>
      <trkpt lat="25.119423866271973" lon="121.57925605773926">
        <ele>180.35</ele>
      </trkpt>
      <trkpt lat="25.11945605278015" lon="121.57908414490521">
        <ele>179.54</ele>
      </trkpt>
      <trkpt lat="25.119488323107362" lon="121.57891273498535">
        <ele>178.67</ele>
      </trkpt>
      <trkpt lat="25.11952050961554" lon="121.57868709415197">
        <ele>177.73</ele>
      </trkpt>
      <trkpt lat="25.119552612304688" lon="121.57846212387085">
        <ele>176.81</ele>
      </trkpt>
      <trkpt lat="25.1195312384516" lon="121.57816171646118">
        <ele>175.9</ele>
      </trkpt>
      <trkpt lat="25.11950969696045" lon="121.57799005508423">
        <ele>175.07</ele>
      </trkpt>
      <trkpt lat="25.119445407763124" lon="121.57786130905151">
        <ele>174.26</ele>
      </trkpt>
      <trkpt lat="25.119295120239258" lon="121.57757154665887">
        <ele>173.42</ele>
      </trkpt>
      <trkpt lat="25.119145000353456" lon="121.5772819519043">
        <ele>172.5</ele>
      </trkpt>
      <trkpt lat="25.119012566283345" lon="121.5769885852933">
        <ele>171.51</ele>
      </trkpt>
      <trkpt lat="25.118880216032267" lon="121.57669521868229">
        <ele>170.44</ele>
      </trkpt>
      <trkpt lat="25.118747865781188" lon="121.57640185207129">
        <ele>169.51</ele>
      </trkpt>
      <trkpt lat="25.11861551553011" lon="121.57610848546028">
        <ele>168.5</ele>
      </trkpt>
      <trkpt lat="25.11848308146" lon="121.57581511884928">
        <ele>167.34</ele>
      </trkpt>
      <trkpt lat="25.118351066485047" lon="121.57552242279053">
        <ele>166.35</ele>
      </trkpt>
      <trkpt lat="25.11820077896118" lon="121.57530784606934">
        <ele>165.32</ele>
      </trkpt>
      <trkpt lat="25.11800765991211" lon="121.57511472702026">
        <ele>164.42</ele>
      </trkpt>
      <trkpt lat="25.117857456207275" lon="121.57498598098755">
        <ele>163.29</ele>
      </trkpt>
      <trkpt lat="25.11770725250244" lon="121.57492160797119">
        <ele>161.92</ele>
      </trkpt>
      <trkpt lat="25.11751472018659" lon="121.57484675757587">
        <ele>160.53</ele>
      </trkpt>
      <trkpt lat="25.117321014404297" lon="121.57477140426636">
        <ele>159.23</ele>
      </trkpt>
      <trkpt lat="25.117106437683105" lon="121.57466411590576">
        <ele>157.88</ele>
      </trkpt>
      <trkpt lat="25.116934776306152" lon="121.57453536987305">
        <ele>156.73</ele>
      </trkpt>
      <trkpt lat="25.1167631149292" lon="121.57442808151245">
        <ele>155.6</ele>
      </trkpt>
      <trkpt lat="25.116655910387635" lon="121.57429933547974">
        <ele>154.61</ele>
      </trkpt>
      <trkpt lat="25.116505874320865" lon="121.57416002824903">
        <ele>153.64</ele>
      </trkpt>
      <trkpt lat="25.116355419158936" lon="121.57402038574219">
        <ele>152.68</ele>
      </trkpt>
      <trkpt lat="25.11629112996161" lon="121.57395601272583">
        <ele>151.86</ele>
      </trkpt>
      <trkpt lat="25.11613036505878" lon="121.57379533164203">
        <ele>151.11</ele>
      </trkpt>
      <trkpt lat="25.11596918106079" lon="121.57363414764404">
        <ele>150.49</ele>
      </trkpt>
      <trkpt lat="25.115861892700195" lon="121.57348394393921">
        <ele>149.97</ele>
      </trkpt>
      <trkpt lat="25.115690231323242" lon="121.57320499420166">
        <ele>149.57</ele>
      </trkpt>
      <trkpt lat="25.11551856994629" lon="121.57292604446411">
        <ele>149.16</ele>
      </trkpt>
      <trkpt lat="25.11551865376532" lon="121.57292604446411">
        <ele>148.82</ele>
      </trkpt>
      <trkpt lat="25.115411281585693" lon="121.57271138392389">
        <ele>148.54</ele>
      </trkpt>
      <trkpt lat="25.115303909406066" lon="121.5724968072027">
        <ele>148.26</ele>
      </trkpt>
      <trkpt lat="25.115196704864502" lon="121.57228231430054">
        <ele>148.07</ele>
      </trkpt>
      <trkpt lat="25.115067958831787" lon="121.57200336456299">
        <ele>147.71</ele>
      </trkpt>
      <trkpt lat="25.115014230832458" lon="121.57179926522076">
        <ele>147.39</ele>
      </trkpt>
      <trkpt lat="25.11496067047119" lon="121.57159566879272">
        <ele>147.11</ele>
      </trkpt>
      <trkpt lat="25.114896297454834" lon="121.5713381767273">
        <ele>146.96</ele>
      </trkpt>
      <trkpt lat="25.114896381273866" lon="121.5713381767273">
        <ele>146.8</ele>
      </trkpt>
      <trkpt lat="25.114828320220113" lon="121.57101228833199">
        <ele>146.78</ele>
      </trkpt>
      <trkpt lat="25.11476025916636" lon="121.57068648375571">
        <ele>146.52</ele>
      </trkpt>
      <trkpt lat="25.114692198112607" lon="121.57036067917943">
        <ele>146.26</ele>
      </trkpt>
      <trkpt lat="25.114624137058854" lon="121.57003487460315">
        <ele>146.01</ele>
      </trkpt>
      <trkpt lat="25.114556159824133" lon="121.56970907002687">
        <ele>145.51</ele>
      </trkpt>
      <trkpt lat="25.11448860168457" lon="121.56938552856445">
        <ele>144.76</ele>
      </trkpt>
      <trkpt lat="25.114488685503602" lon="121.56938552856445">
        <ele>144.26</ele>
      </trkpt>
      <trkpt lat="25.114424228668213" lon="121.56912803649902">
        <ele>143.52</ele>
      </trkpt>
      <trkpt lat="25.114359855651855" lon="121.56893491744995">
        <ele>142.89</ele>
      </trkpt>
      <trkpt lat="25.11425256729126" lon="121.56869888305664">
        <ele>142.17</ele>
      </trkpt>
      <trkpt lat="25.114166736602783" lon="121.56850576400757">
        <ele>141.4</ele>
      </trkpt>
      <trkpt lat="25.114166820421815" lon="121.56850576400757">
        <ele>140.35</ele>
      </trkpt>
      <trkpt lat="25.114102363586426" lon="121.56841993331909">
        <ele>139.14</ele>
      </trkpt>
      <trkpt lat="25.114102447405457" lon="121.56841993331909">
        <ele>137.77</ele>
      </trkpt>
      <trkpt lat="25.11396288871765" lon="121.56814089976251">
        <ele>136.29</ele>
      </trkpt>
      <trkpt lat="25.113823413848877" lon="121.567862033844">
        <ele>134.36</ele>
      </trkpt>
      <trkpt lat="25.11374822817743" lon="121.5676580183208">
        <ele>132.24</ele>
      </trkpt>
      <trkpt lat="25.113673210144043" lon="121.56745433807373">
        <ele>129.96</ele>
      </trkpt>
      <trkpt lat="25.113598024472594" lon="121.56719123013318">
        <ele>127.43</ele>
      </trkpt>
      <trkpt lat="25.113522838801146" lon="121.56692812219262">
        <ele>124.94</ele>
      </trkpt>
      <trkpt lat="25.113447653129697" lon="121.56666501425207">
        <ele>122.45</ele>
      </trkpt>
      <trkpt lat="25.113372802734375" lon="121.56640291213989">
        <ele>119.81</ele>
      </trkpt>
      <trkpt lat="25.113372886553407" lon="121.56640291213989">
        <ele>117.39</ele>
      </trkpt>
      <trkpt lat="25.1132869720459" lon="121.56610937789083">
        <ele>114.74</ele>
      </trkpt>
      <trkpt lat="25.11320105753839" lon="121.56581584364176">
        <ele>112.07</ele>
      </trkpt>
      <trkpt lat="25.113115394487977" lon="121.56552314758301">
        <ele>109.48</ele>
      </trkpt>
      <trkpt lat="25.113029396161437" lon="121.56521528027952">
        <ele>106.98</ele>
      </trkpt>
      <trkpt lat="25.11294348165393" lon="121.56490741297603">
        <ele>104.63</ele>
      </trkpt>
      <trkpt lat="25.112857818603516" lon="121.56460046768188">
        <ele>102.24</ele>
      </trkpt>
      <trkpt lat="25.112857902422547" lon="121.56460046768188">
        <ele>100.15</ele>
      </trkpt>
      <trkpt lat="25.112793445587158" lon="121.5643785148859">
        <ele>98.02</ele>
      </trkpt>
      <trkpt lat="25.11272898875177" lon="121.56415656208992">
        <ele>96.06</ele>
      </trkpt>
      <trkpt lat="25.112664783373475" lon="121.56393527984619">
        <ele>94.19</ele>
      </trkpt>
      <trkpt lat="25.112573420628905" lon="121.5636345371604">
        <ele>92.32</ele>
      </trkpt>
      <trkpt lat="25.112482141703367" lon="121.56333387829363">
        <ele>90.81</ele>
      </trkpt>
      <trkpt lat="25.11239086277783" lon="121.56303321942687">
        <ele>89.32</ele>
      </trkpt>
      <trkpt lat="25.112299919128418" lon="121.56273365020752">
        <ele>87.89</ele>
      </trkpt>
      <trkpt lat="25.112299919128418" lon="121.56264781951904">
        <ele>86.85</ele>
      </trkpt>
      <trkpt lat="25.112299919128418" lon="121.56256198883057">
        <ele>85.96</ele>
      </trkpt>
      <trkpt lat="25.11223554611206" lon="121.56230449676514">
        <ele>85.18</ele>
      </trkpt>
      <trkpt lat="25.112192630767822" lon="121.56206846237183">
        <ele>84.53</ele>
      </trkpt>
      <trkpt lat="25.112192630767822" lon="121.56191825866699">
        <ele>84.05</ele>
      </trkpt>
      <trkpt lat="25.11221408843994" lon="121.56176805496216">
        <ele>83.66</ele>
      </trkpt>
      <trkpt lat="25.11227854527533" lon="121.56157493591309">
        <ele>83.43</ele>
      </trkpt>
      <trkpt lat="25.11235725134611" lon="121.5613529831171">
        <ele>83.37</ele>
      </trkpt>
      <trkpt lat="25.112435957416892" lon="121.56113111414015">
        <ele>83.45</ele>
      </trkpt>
      <trkpt lat="25.11251457966864" lon="121.56090974807739">
        <ele>83.46</ele>
      </trkpt>
      <trkpt lat="25.11253603734076" lon="121.56078100204468">
        <ele>83.36</ele>
      </trkpt>
      <trkpt lat="25.112578952685" lon="121.56056609004736">
        <ele>83.18</ele>
      </trkpt>
      <trkpt lat="25.112621784210205" lon="121.5603518486023">
        <ele>82.97</ele>
      </trkpt>
      <trkpt lat="25.112643241882324" lon="121.56007289886475">
        <ele>82.86</ele>
      </trkpt>
      <trkpt lat="25.112600326538086" lon="121.55981540679932">
        <ele>82.42</ele>
      </trkpt>
      <trkpt lat="25.112557327374816" lon="121.55956830829382">
        <ele>81.7</ele>
      </trkpt>
      <trkpt lat="25.11251457966864" lon="121.55932188034058">
        <ele>80.98</ele>
      </trkpt>
      <trkpt lat="25.11243931017816" lon="121.55911786481738">
        <ele>79.94</ele>
      </trkpt>
      <trkpt lat="25.112364292144775" lon="121.55891418457031">
        <ele>79.07</ele>
      </trkpt>
      <trkpt lat="25.11225700378418" lon="121.55875325202942">
        <ele>78.13</ele>
      </trkpt>
      <trkpt lat="25.112149715423584" lon="121.55859231948853">
        <ele>77.13</ele>
      </trkpt>
      <trkpt lat="25.11204242706299" lon="121.55844211578369">
        <ele>76.08</ele>
      </trkpt>
      <trkpt lat="25.111849308013916" lon="121.55829191207886">
        <ele>74.71</ele>
      </trkpt>
      <trkpt lat="25.111599527299404" lon="121.55811346136034">
        <ele>73.24</ele>
      </trkpt>
      <trkpt lat="25.111349830403924" lon="121.55793509446084">
        <ele>71.92</ele>
      </trkpt>
      <trkpt lat="25.111100049689412" lon="121.55775672756135">
        <ele>70.66</ele>
      </trkpt>
      <trkpt lat="25.110850352793932" lon="121.55757836066186">
        <ele>69.48</ele>
      </trkpt>
      <trkpt lat="25.110600655898452" lon="121.55739999376237">
        <ele>68.33</ele>
      </trkpt>
      <trkpt lat="25.110347270965576" lon="121.5572190284729">
        <ele>67.27</ele>
      </trkpt>
      <trkpt lat="25.110132694244385" lon="121.5571117401123">
        <ele>66.19</ele>
      </trkpt>
      <trkpt lat="25.109875285997987" lon="121.55706882476807">
        <ele>65.06</ele>
      </trkpt>
      <trkpt lat="25.10972499847412" lon="121.55706882476807">
        <ele>64.02</ele>
      </trkpt>
      <trkpt lat="25.10946750640869" lon="121.55709028244019">
        <ele>62.97</ele>
      </trkpt>
      <trkpt lat="25.109178917482495" lon="121.55715440399945">
        <ele>61.94</ele>
      </trkpt>
      <trkpt lat="25.108888233080506" lon="121.5572190284729">
        <ele>60.94</ele>
      </trkpt>
      <trkpt lat="25.108631663024426" lon="121.55728315003216">
        <ele>60.09</ele>
      </trkpt>
      <trkpt lat="25.108373165130615" lon="121.55734777450562">
        <ele>59.38</ele>
      </trkpt>
      <trkpt lat="25.108201503753662" lon="121.55739068984985">
        <ele>58.68</ele>
      </trkpt>
      <trkpt lat="25.107944011688232" lon="121.55741214752197">
        <ele>57.88</ele>
      </trkpt>
      <trkpt lat="25.107686603441834" lon="121.55743360519409">
        <ele>57.21</ele>
      </trkpt>
      <trkpt lat="25.107408743351698" lon="121.55741575174034">
        <ele>56.63</ele>
      </trkpt>
      <trkpt lat="25.10713088326156" lon="121.55739798210561">
        <ele>56.12</ele>
      </trkpt>
      <trkpt lat="25.106853023171425" lon="121.55738012865186">
        <ele>55.76</ele>
      </trkpt>
      <trkpt lat="25.10657524690032" lon="121.55736235901713">
        <ele>55.32</ele>
      </trkpt>
      <trkpt lat="25.106297386810184" lon="121.55734450556338">
        <ele>54.56</ele>
      </trkpt>
      <trkpt lat="25.10601282119751" lon="121.5573263168335">
        <ele>53.63</ele>
      </trkpt>
      <trkpt lat="25.105831185355783" lon="121.55730494298041">
        <ele>52.86</ele>
      </trkpt>
      <trkpt lat="25.105648124590516" lon="121.55728340148926">
        <ele>52.19</ele>
      </trkpt>
      <trkpt lat="25.10554075241089" lon="121.55726194381714">
        <ele>51.64</ele>
      </trkpt>
      <trkpt lat="25.105369677767158" lon="121.5572084672749">
        <ele>51.11</ele>
      </trkpt>
      <trkpt lat="25.105197513476014" lon="121.55715465545654">
        <ele>50.63</ele>
      </trkpt>
      <trkpt lat="25.10503700003028" lon="121.55706907622516">
        <ele>50.28</ele>
      </trkpt>
      <trkpt lat="25.104875564575195" lon="121.55698299407959">
        <ele>49.94</ele>
      </trkpt>
      <trkpt lat="25.1047682762146" lon="121.55691862106323">
        <ele>49.58</ele>
      </trkpt>
      <trkpt lat="25.104618072509766" lon="121.55681133270264">
        <ele>49.22</ele>
      </trkpt>
      <trkpt lat="25.104424953460693" lon="121.5565538406372">
        <ele>48.87</ele>
      </trkpt>
      <trkpt lat="25.104317665100098" lon="121.5563714504242">
        <ele>48.58</ele>
      </trkpt>
      <trkpt lat="25.104210460558534" lon="121.55618906021118">
        <ele>48.29</ele>
      </trkpt>
      <trkpt lat="25.104113817214966" lon="121.55599585734308">
        <ele>47.89</ele>
      </trkpt>
      <trkpt lat="25.10401734150946" lon="121.55580282211304">
        <ele>47.45</ele>
      </trkpt>
      <trkpt lat="25.103909969329834" lon="121.55557743273675">
        <ele>47.19</ele>
      </trkpt>
      <trkpt lat="25.10380276478827" lon="121.55535221099854">
        <ele>46.81</ele>
      </trkpt>
      <trkpt lat="25.103700757026672" lon="121.55511600896716">
        <ele>46.33</ele>
      </trkpt>
      <trkpt lat="25.103598749265075" lon="121.55487989075482">
        <ele>45.68</ele>
      </trkpt>
      <trkpt lat="25.10349682532251" lon="121.55464377254248">
        <ele>44.85</ele>
      </trkpt>
      <trkpt lat="25.103395069018006" lon="121.5544080734253">
        <ele>44.01</ele>
      </trkpt>
      <trkpt lat="25.103316279128194" lon="121.55414312146604">
        <ele>43.19</ele>
      </trkpt>
      <trkpt lat="25.10323748923838" lon="121.55387825332582">
        <ele>42.34</ele>
      </trkpt>
      <trkpt lat="25.103158950805664" lon="121.55361413955688">
        <ele>41.16</ele>
      </trkpt>
      <trkpt lat="25.10303020477295" lon="121.5533995628357">
        <ele>39.64</ele>
      </trkpt>
      <trkpt lat="25.102858543395996" lon="121.55324935913086">
        <ele>37.96</ele>
      </trkpt>
      <trkpt lat="25.10277279652655" lon="121.5531849861145">
        <ele>36.46</ele>
      </trkpt>
      <trkpt lat="25.102587305009365" lon="121.55306369997561">
        <ele>34.85</ele>
      </trkpt>
      <trkpt lat="25.10240181349218" lon="121.55294241383672">
        <ele>33.44</ele>
      </trkpt>
      <trkpt lat="25.102214897051454" lon="121.55282020568848">
        <ele>32.1</ele>
      </trkpt>
      <trkpt lat="25.102065028622746" lon="121.55271316878498">
        <ele>30.9</ele>
      </trkpt>
      <trkpt lat="25.101914489641786" lon="121.55260562896729">
        <ele>29.83</ele>
      </trkpt>
      <trkpt lat="25.101914405822754" lon="121.55260562896729">
        <ele>28.9</ele>
      </trkpt>
      <trkpt lat="25.101775350049138" lon="121.55251996591687">
        <ele>27.97</ele>
      </trkpt>
      <trkpt lat="25.101635539904237" lon="121.55243396759033">
        <ele>27.14</ele>
      </trkpt>
      <trkpt lat="25.101517606526613" lon="121.55230538919568">
        <ele>26.35</ele>
      </trkpt>
      <trkpt lat="25.101399421691895" lon="121.5521764755249">
        <ele>25.48</ele>
      </trkpt>
      <trkpt lat="25.101227844133973" lon="121.55194044113159">
        <ele>24.58</ele>
      </trkpt>
      <trkpt lat="25.10107227601111" lon="121.5516722202301">
        <ele>23.81</ele>
      </trkpt>
      <trkpt lat="25.100916707888246" lon="121.55140399932861">
        <ele>23.31</ele>
      </trkpt>
      <trkpt lat="25.100761139765382" lon="121.55113586224616">
        <ele>23.1</ele>
      </trkpt>
      <trkpt lat="25.100605487823486" lon="121.55086755752563">
        <ele>23.25</ele>
      </trkpt>
    </trkseg>
  </trk>
</gpx>
