<?xml version="1.0" encoding="UTF-8"?>
<gpx creator="Garmin Connect" version="1.1"
  xsi:schemaLocation="http://www.topografix.com/GPX/1/1 http://www.topografix.com/GPX/11.xsd"
  xmlns:ns3="http://www.garmin.com/xmlschemas/TrackPointExtension/v1"
  xmlns="http://www.topografix.com/GPX/1/1"
  xmlns:xsi="http://www.w3.org/2001/XMLSchema-instance" xmlns:ns2="http://www.garmin.com/xmlschemas/GpxExtensions/v3">
  <metadata>
    <name>明德宮</name>
    <link href="connect.garmin.com">
      <text>Garmin Connect</text>
    </link>
    <time>2022-08-05T06:43:49.000Z</time>
  </metadata>
  <trk>
    <name>明德宮</name>
    <trkseg>
      <trkpt lat="24.988328805193305" lon="121.54088923707604">
        <ele>19.0</ele>
      </trkpt>
      <trkpt lat="24.988274574279785" lon="121.54093257151544">
        <ele>19.0</ele>
      </trkpt>
      <trkpt lat="24.988253116607666" lon="121.5409969445318">
        <ele>19.0</ele>
      </trkpt>
      <trkpt lat="24.988231658935547" lon="121.54157638549805">
        <ele>19.0</ele>
      </trkpt>
      <trkpt lat="24.988210117444396" lon="121.54157638549805">
        <ele>19.0</ele>
      </trkpt>
      <trkpt lat="24.988188659772277" lon="121.54157638549805">
        <ele>19.0</ele>
      </trkpt>
      <trkpt lat="24.98816728591919" lon="121.5411901473999">
        <ele>19.0</ele>
      </trkpt>
      <trkpt lat="24.98812437057495" lon="121.54114723205566">
        <ele>19.0</ele>
      </trkpt>
      <trkpt lat="24.98816728591919" lon="121.54217720031738">
        <ele>19.0</ele>
      </trkpt>
      <trkpt lat="24.988295948132873" lon="121.54290676116943">
        <ele>19.0</ele>
      </trkpt>
      <trkpt lat="24.98840323649347" lon="121.5433572884649">
        <ele>19.0</ele>
      </trkpt>
      <trkpt lat="24.98840323649347" lon="121.54344311915338">
        <ele>19.0</ele>
      </trkpt>
      <trkpt lat="24.988338947296143" lon="121.54378652572632">
        <ele>18.0</ele>
      </trkpt>
      <trkpt lat="24.988274574279785" lon="121.54417268000543">
        <ele>18.0</ele>
      </trkpt>
      <trkpt lat="24.988274658098817" lon="121.54417268000543">
        <ele>18.0</ele>
      </trkpt>
      <trkpt lat="24.988188659772277" lon="121.54438734054565">
        <ele>18.0</ele>
      </trkpt>
      <trkpt lat="24.98812428675592" lon="121.54445162974298">
        <ele>18.0</ele>
      </trkpt>
      <trkpt lat="24.988059997558594" lon="121.54451608657837">
        <ele>18.0</ele>
      </trkpt>
      <trkpt lat="24.987952709197998" lon="121.54455891810358">
        <ele>18.0</ele>
      </trkpt>
      <trkpt lat="24.98758784495294" lon="121.54473066329956">
        <ele>18.0</ele>
      </trkpt>
      <trkpt lat="24.987244606018066" lon="121.54485932551324">
        <ele>18.0</ele>
      </trkpt>
      <trkpt lat="24.98692282475531" lon="121.54505244456232">
        <ele>18.0</ele>
      </trkpt>
      <trkpt lat="24.986815452575684" lon="121.54509544372559">
        <ele>18.0</ele>
      </trkpt>
      <trkpt lat="24.986751079559326" lon="121.5451169013977">
        <ele>18.0</ele>
      </trkpt>
      <trkpt lat="24.986665165051818" lon="121.54509544372559">
        <ele>18.0</ele>
      </trkpt>
      <trkpt lat="24.986557876691222" lon="121.54505244456232">
        <ele>19.0</ele>
      </trkpt>
      <trkpt lat="24.986472046002746" lon="121.54503107070923">
        <ele>19.0</ele>
      </trkpt>
      <trkpt lat="24.986193096265197" lon="121.54505244456232">
        <ele>20.0</ele>
      </trkpt>
      <trkpt lat="24.985763942822814" lon="121.54503107070923">
        <ele>20.0</ele>
      </trkpt>
      <trkpt lat="24.98559228144586" lon="121.54505244456232">
        <ele>20.0</ele>
      </trkpt>
      <trkpt lat="24.985463619232178" lon="121.54509544372559">
        <ele>20.0</ele>
      </trkpt>
      <trkpt lat="24.985313499346375" lon="121.54509544372559">
        <ele>20.0</ele>
      </trkpt>
      <trkpt lat="24.984755432233214" lon="121.54507390223444">
        <ele>20.0</ele>
      </trkpt>
      <trkpt lat="24.984605312347412" lon="121.54509544372559">
        <ele>19.0</ele>
      </trkpt>
      <trkpt lat="24.984455024823546" lon="121.54513835906982">
        <ele>19.0</ele>
      </trkpt>
      <trkpt lat="24.984304988756776" lon="121.54520273208618">
        <ele>19.0</ele>
      </trkpt>
      <trkpt lat="24.984090328216553" lon="121.5453314781189">
        <ele>18.0</ele>
      </trkpt>
      <trkpt lat="24.98387575149536" lon="121.54554597102106">
        <ele>18.0</ele>
      </trkpt>
      <trkpt lat="24.983811378479004" lon="121.54563188552856">
        <ele>18.0</ele>
      </trkpt>
      <trkpt lat="24.983725463971496" lon="121.54588929377496">
        <ele>18.0</ele>
      </trkpt>
      <trkpt lat="24.98366117477417" lon="121.54606095515192">
        <ele>17.0</ele>
      </trkpt>
      <trkpt lat="24.98363963328302" lon="121.5462327003479">
        <ele>17.0</ele>
      </trkpt>
      <trkpt lat="24.983661090955138" lon="121.5465973969549">
        <ele>17.0</ele>
      </trkpt>
      <trkpt lat="24.983790004625916" lon="121.54790631495416">
        <ele>17.0</ele>
      </trkpt>
      <trkpt lat="24.98383275233209" lon="121.54822818003595">
        <ele>17.0</ele>
      </trkpt>
      <trkpt lat="24.98387575149536" lon="121.5483998414129">
        <ele>17.0</ele>
      </trkpt>
      <trkpt lat="24.984004497528076" lon="121.54876470565796">
        <ele>17.0</ele>
      </trkpt>
      <trkpt lat="24.984090328216553" lon="121.54900065623224">
        <ele>17.0</ele>
      </trkpt>
      <trkpt lat="24.984304904937744" lon="121.54938697814941">
        <ele>17.0</ele>
      </trkpt>
      <trkpt lat="24.984562397003174" lon="121.54975175857544">
        <ele>17.0</ele>
      </trkpt>
      <trkpt lat="24.984798431396484" lon="121.55003062449396">
        <ele>17.0</ele>
      </trkpt>
      <trkpt lat="24.985055839642882" lon="121.55024520121515">
        <ele>17.0</ele>
      </trkpt>
      <trkpt lat="24.985291957855225" lon="121.55043832026422">
        <ele>17.0</ele>
      </trkpt>
      <trkpt lat="24.985549366101623" lon="121.55056715011597">
        <ele>17.0</ele>
      </trkpt>
      <trkpt lat="24.985828399658203" lon="121.55065289698541">
        <ele>17.0</ele>
      </trkpt>
      <trkpt lat="24.986042976379395" lon="121.55065289698541">
        <ele>18.0</ele>
      </trkpt>
      <trkpt lat="24.986278926953673" lon="121.55071727000177">
        <ele>18.0</ele>
      </trkpt>
      <trkpt lat="24.98642921447754" lon="121.55076026916504">
        <ele>18.0</ele>
      </trkpt>
      <trkpt lat="24.986493503674865" lon="121.55073872767389">
        <ele>19.0</ele>
      </trkpt>
      <trkpt lat="24.986515045166016" lon="121.55065289698541">
        <ele>19.0</ele>
      </trkpt>
      <trkpt lat="24.986515128985047" lon="121.55065289698541">
        <ele>19.0</ele>
      </trkpt>
      <trkpt lat="24.98657933436334" lon="121.55060998164117">
        <ele>20.0</ele>
      </trkpt>
      <trkpt lat="24.986729621887207" lon="121.55050277709961">
        <ele>20.0</ele>
      </trkpt>
      <trkpt lat="24.98687974177301" lon="121.55048131942749">
        <ele>20.0</ele>
      </trkpt>
      <trkpt lat="24.986965572461486" lon="121.55050277709961">
        <ele>21.0</ele>
      </trkpt>
      <trkpt lat="24.98711585998535" lon="121.55056715011597">
        <ele>21.0</ele>
      </trkpt>
      <trkpt lat="24.987223148345947" lon="121.55069589614868">
        <ele>22.0</ele>
      </trkpt>
      <trkpt lat="24.987265979871154" lon="121.55076026916504">
        <ele>22.0</ele>
      </trkpt>
      <trkpt lat="24.98741626739502" lon="121.5513180848211">
        <ele>22.0</ele>
      </trkpt>
      <trkpt lat="24.98743772506714" lon="121.55151128768921">
        <ele>22.0</ele>
      </trkpt>
      <trkpt lat="24.98741626739502" lon="121.55168294906616">
        <ele>22.0</ele>
      </trkpt>
      <trkpt lat="24.987287437543273" lon="121.55202618800104">
        <ele>22.0</ele>
      </trkpt>
      <trkpt lat="24.987180149182677" lon="121.55226222239435">
        <ele>22.0</ele>
      </trkpt>
      <trkpt lat="24.986772453412414" lon="121.552734375">
        <ele>22.0</ele>
      </trkpt>
      <trkpt lat="24.98662233352661" lon="121.55290603637695">
        <ele>22.0</ele>
      </trkpt>
      <trkpt lat="24.986171638593078" lon="121.55316344462335">
        <ele>21.0</ele>
      </trkpt>
      <trkpt lat="24.98584977351129" lon="121.55333518981934">
        <ele>21.0</ele>
      </trkpt>
      <trkpt lat="24.985763942822814" lon="121.55337802134454">
        <ele>21.0</ele>
      </trkpt>
      <trkpt lat="24.985313415527344" lon="121.5537857171148">
        <ele>21.0</ele>
      </trkpt>
      <trkpt lat="24.985163128003478" lon="121.5538930054754">
        <ele>21.0</ele>
      </trkpt>
      <trkpt lat="24.985013008117676" lon="121.55397883616388">
        <ele>20.0</ele>
      </trkpt>
      <trkpt lat="24.984583854675293" lon="121.55415058135986">
        <ele>20.0</ele>
      </trkpt>
      <trkpt lat="24.984476482495666" lon="121.55415058135986">
        <ele>20.0</ele>
      </trkpt>
      <trkpt lat="24.984304904937744" lon="121.55415058135986">
        <ele>20.0</ele>
      </trkpt>
      <trkpt lat="24.98385421000421" lon="121.55404329299927">
        <ele>20.0</ele>
      </trkpt>
      <trkpt lat="24.983532344922423" lon="121.55393600463867">
        <ele>20.0</ele>
      </trkpt>
      <trkpt lat="24.983317768201232" lon="121.55387154780328">
        <ele>20.0</ele>
      </trkpt>
      <trkpt lat="24.983103275299072" lon="121.55385009013116">
        <ele>20.0</ele>
      </trkpt>
      <trkpt lat="24.981729900464416" lon="121.55352830886841">
        <ele>20.0</ele>
      </trkpt>
      <trkpt lat="24.981322204694152" lon="121.55348530970514">
        <ele>20.0</ele>
      </trkpt>
      <trkpt lat="24.980785762891173" lon="121.55348530970514">
        <ele>20.0</ele>
      </trkpt>
      <trkpt lat="24.98061410151422" lon="121.55348530970514">
        <ele>20.0</ele>
      </trkpt>
      <trkpt lat="24.980206405743957" lon="121.5535496827215">
        <ele>20.0</ele>
      </trkpt>
      <trkpt lat="24.97990599833429" lon="121.55361413955688">
        <ele>20.0</ele>
      </trkpt>
      <trkpt lat="24.978017807006836" lon="121.55419341288507">
        <ele>19.0</ele>
      </trkpt>
      <trkpt lat="24.977524280548096" lon="121.55436507426202">
        <ele>19.0</ele>
      </trkpt>
      <trkpt lat="24.977309703826904" lon="121.55449382029474">
        <ele>19.0</ele>
      </trkpt>
      <trkpt lat="24.97720241546631" lon="121.55460110865533">
        <ele>19.0</ele>
      </trkpt>
      <trkpt lat="24.977009296417236" lon="121.5547942277044">
        <ele>19.0</ele>
      </trkpt>
      <trkpt lat="24.976944839581847" lon="121.554901516065">
        <ele>19.0</ele>
      </trkpt>
      <trkpt lat="24.97694500721991" lon="121.554901516065">
        <ele>19.0</ele>
      </trkpt>
      <trkpt lat="24.976816177368164" lon="121.55513763427734">
        <ele>19.0</ele>
      </trkpt>
      <trkpt lat="24.976751720532775" lon="121.55539504252374">
        <ele>19.0</ele>
      </trkpt>
      <trkpt lat="24.976730346679688" lon="121.55550233088434">
        <ele>19.0</ele>
      </trkpt>
      <trkpt lat="24.976730346679688" lon="121.555802738294">
        <ele>19.0</ele>
      </trkpt>
      <trkpt lat="24.976773262023926" lon="121.55612460337579">
        <ele>19.0</ele>
      </trkpt>
      <trkpt lat="24.97685900889337" lon="121.55659667216241">
        <ele>18.0</ele>
      </trkpt>
      <trkpt lat="24.97694500721991" lon="121.5567684173584">
        <ele>18.0</ele>
      </trkpt>
      <trkpt lat="24.977095127105713" lon="121.55696153640747">
        <ele>18.0</ele>
      </trkpt>
      <trkpt lat="24.977180873975158" lon="121.5570258256048">
        <ele>18.0</ele>
      </trkpt>
      <trkpt lat="24.97735253535211" lon="121.55713311396539">
        <ele>18.0</ele>
      </trkpt>
      <trkpt lat="24.97750290669501" lon="121.55717611312866">
        <ele>18.0</ele>
      </trkpt>
      <trkpt lat="24.97838250361383" lon="121.55728340148926">
        <ele>18.0</ele>
      </trkpt>
      <trkpt lat="24.97838258743286" lon="121.55728340148926">
        <ele>18.0</ele>
      </trkpt>
      <trkpt lat="24.978704368695617" lon="121.55732623301446">
        <ele>18.0</ele>
      </trkpt>
      <trkpt lat="24.978854656219482" lon="121.55736923217773">
        <ele>18.0</ele>
      </trkpt>
      <trkpt lat="24.979047775268555" lon="121.55745506286621">
        <ele>18.0</ele>
      </trkpt>
      <trkpt lat="24.97936955653131" lon="121.5576696395874">
        <ele>18.0</ele>
      </trkpt>
      <trkpt lat="24.979369724169374" lon="121.5576696395874">
        <ele>18.0</ele>
      </trkpt>
      <trkpt lat="24.979476844891906" lon="121.55773392878473">
        <ele>18.0</ele>
      </trkpt>
      <trkpt lat="24.97988454066217" lon="121.55807733535767">
        <ele>18.0</ele>
      </trkpt>
      <trkpt lat="24.97994908131659" lon="121.55816316604614">
        <ele>18.0</ele>
      </trkpt>
      <trkpt lat="24.980013286694884" lon="121.55822745524347">
        <ele>19.0</ele>
      </trkpt>
      <trkpt lat="24.98012057505548" lon="121.55839920043945">
        <ele>19.0</ele>
      </trkpt>
      <trkpt lat="24.980184948071837" lon="121.55859231948853">
        <ele>19.0</ele>
      </trkpt>
      <trkpt lat="24.980270862579346" lon="121.55895701609552">
        <ele>19.0</ele>
      </trkpt>
      <trkpt lat="24.980270862579346" lon="121.559042846784">
        <ele>19.0</ele>
      </trkpt>
      <trkpt lat="24.980270946398377" lon="121.55917167663574">
        <ele>19.0</ele>
      </trkpt>
      <trkpt lat="24.98023582622409" lon="121.55932875350118">
        <ele>18.0</ele>
      </trkpt>
      <trkpt lat="24.980227947235107" lon="121.55936471186578">
        <ele>18.0</ele>
      </trkpt>
      <trkpt lat="24.979991912841797" lon="121.56026593409479">
        <ele>18.0</ele>
      </trkpt>
      <trkpt lat="24.979863166809082" lon="121.56071662902832">
        <ele>18.0</ele>
      </trkpt>
      <trkpt lat="24.979841709136963" lon="121.56088829040527">
        <ele>17.0</ele>
      </trkpt>
      <trkpt lat="24.979841709136963" lon="121.56123161315918">
        <ele>17.0</ele>
      </trkpt>
      <trkpt lat="24.979863250628114" lon="121.56144610606134">
        <ele>17.0</ele>
      </trkpt>
      <trkpt lat="24.979970455169678" lon="121.56187525950372">
        <ele>16.0</ele>
      </trkpt>
      <trkpt lat="24.980034828186035" lon="121.56202554702759">
        <ele>16.0</ele>
      </trkpt>
      <trkpt lat="24.98020648956299" lon="121.56236878596246">
        <ele>16.0</ele>
      </trkpt>
      <trkpt lat="24.9805926438421" lon="121.56314134597778">
        <ele>16.0</ele>
      </trkpt>
      <trkpt lat="24.980592727661133" lon="121.56314134597778">
        <ele>16.0</ele>
      </trkpt>
      <trkpt lat="24.98088961467147" lon="121.56375129707158">
        <ele>15.0</ele>
      </trkpt>
      <trkpt lat="24.98088961467147" lon="121.56375121325254">
        <ele>15.0</ele>
      </trkpt>
      <trkpt lat="24.981386745348573" lon="121.56477212905884">
        <ele>15.0</ele>
      </trkpt>
      <trkpt lat="24.98138666152954" lon="121.56457901000977">
        <ele>15.0</ele>
      </trkpt>
      <trkpt lat="24.981214916333556" lon="121.5640640258789">
        <ele>15.0</ele>
      </trkpt>
      <trkpt lat="24.98117216862738" lon="121.56391373835504">
        <ele>15.0</ele>
      </trkpt>
      <trkpt lat="24.98115062713623" lon="121.56378499232233">
        <ele>15.0</ele>
      </trkpt>
      <trkpt lat="24.980978965759277" lon="121.56337729655206">
        <ele>15.0</ele>
      </trkpt>
      <trkpt lat="24.98093605041504" lon="121.56320563517511">
        <ele>16.0</ele>
      </trkpt>
      <trkpt lat="24.981579780578613" lon="121.56447172164917">
        <ele>16.0</ele>
      </trkpt>
      <trkpt lat="24.981794357299805" lon="121.56440726481378">
        <ele>16.0</ele>
      </trkpt>
      <trkpt lat="24.982051849365234" lon="121.56558752059937">
        <ele>17.0</ele>
      </trkpt>
      <trkpt lat="24.98215913772583" lon="121.56603804789484">
        <ele>18.0</ele>
      </trkpt>
      <trkpt lat="24.982502460479736" lon="121.56704655848444">
        <ele>18.0</ele>
      </trkpt>
      <trkpt lat="24.981515407562256" lon="121.5673041343689">
        <ele>19.0</ele>
      </trkpt>
      <trkpt lat="24.981515323743224" lon="121.5673041343689">
        <ele>19.0</ele>
      </trkpt>
      <trkpt lat="24.980571353808045" lon="121.56751862727106">
        <ele>19.0</ele>
      </trkpt>
      <trkpt lat="24.980571269989014" lon="121.56751862727106">
        <ele>20.0</ele>
      </trkpt>
      <trkpt lat="24.97990599833429" lon="121.56771183013916">
        <ele>22.0</ele>
      </trkpt>
      <trkpt lat="24.97962713241577" lon="121.56779766082764">
        <ele>23.0</ele>
      </trkpt>
      <trkpt lat="24.979305183514953" lon="121.5673041343689">
        <ele>25.0</ele>
      </trkpt>
      <trkpt lat="24.978811740875244" lon="121.56751862727106">
        <ele>26.0</ele>
      </trkpt>
      <trkpt lat="24.97864007949829" lon="121.56764737330377">
        <ele>28.0</ele>
      </trkpt>
      <trkpt lat="24.97840396128595" lon="121.56786195002496">
        <ele>30.0</ele>
      </trkpt>
      <trkpt lat="24.978275215253234" lon="121.56803361140192">
        <ele>32.0</ele>
      </trkpt>
      <trkpt lat="24.97814655303955" lon="121.56833401881158">
        <ele>34.0</ele>
      </trkpt>
      <trkpt lat="24.978060638532043" lon="121.56844130717218">
        <ele>36.0</ele>
      </trkpt>
      <trkpt lat="24.97791051864624" lon="121.56854859553277">
        <ele>39.0</ele>
      </trkpt>
      <trkpt lat="24.97773894108832" lon="121.56887046061456">
        <ele>41.0</ele>
      </trkpt>
      <trkpt lat="24.977481281384826" lon="121.56929969787598">
        <ele>44.0</ele>
      </trkpt>
      <trkpt lat="24.97737399302423" lon="121.56960010528564">
        <ele>47.0</ele>
      </trkpt>
      <trkpt lat="24.97715950012207" lon="121.57131671905518">
        <ele>50.0</ele>
      </trkpt>
      <trkpt lat="24.977116584777832" lon="121.57140246592462">
        <ele>53.0</ele>
      </trkpt>
      <trkpt lat="24.977009296417236" lon="121.57153129577637">
        <ele>55.0</ele>
      </trkpt>
      <trkpt lat="24.976944839581847" lon="121.57157412730157">
        <ele>58.0</ele>
      </trkpt>
      <trkpt lat="24.976794719696045" lon="121.57159558497369">
        <ele>61.0</ele>
      </trkpt>
      <trkpt lat="24.97589349746704" lon="121.57155275344849">
        <ele>64.0</ele>
      </trkpt>
      <trkpt lat="24.975786209106445" lon="121.57150975428522">
        <ele>66.0</ele>
      </trkpt>
      <trkpt lat="24.97563600540161" lon="121.57140246592462">
        <ele>68.0</ele>
      </trkpt>
      <trkpt lat="24.975528717041016" lon="121.5712737198919">
        <ele>71.0</ele>
      </trkpt>
      <trkpt lat="24.975421344861388" lon="121.57116643153131">
        <ele>73.0</ele>
      </trkpt>
      <trkpt lat="24.975357055664062" lon="121.5711236000061">
        <ele>75.0</ele>
      </trkpt>
      <trkpt lat="24.975228225812316" lon="121.57114505767822">
        <ele>77.0</ele>
      </trkpt>
      <trkpt lat="24.97514239512384" lon="121.57120934687555">
        <ele>79.0</ele>
      </trkpt>
      <trkpt lat="24.97512093745172" lon="121.5712737198919">
        <ele>81.0</ele>
      </trkpt>
      <trkpt lat="24.975099563598633" lon="121.57150975428522">
        <ele>83.0</ele>
      </trkpt>
      <trkpt lat="24.975035106763244" lon="121.57187453471124">
        <ele>85.0</ele>
      </trkpt>
      <trkpt lat="24.975056564435363" lon="121.57200328074396">
        <ele>87.0</ele>
      </trkpt>
      <trkpt lat="24.975314224138856" lon="121.57241097651422">
        <ele>89.0</ele>
      </trkpt>
      <trkpt lat="24.9753999710083" lon="121.57262555323541">
        <ele>90.0</ele>
      </trkpt>
      <trkpt lat="24.97537851333618" lon="121.57275438308716">
        <ele>92.0</ele>
      </trkpt>
      <trkpt lat="24.97535697184503" lon="121.57279721461236">
        <ele>93.0</ele>
      </trkpt>
      <trkpt lat="24.97533551417291" lon="121.57281867228448">
        <ele>95.0</ele>
      </trkpt>
      <trkpt lat="24.975228225812316" lon="121.57284021377563">
        <ele>96.0</ele>
      </trkpt>
      <trkpt lat="24.97514239512384" lon="121.57279721461236">
        <ele>98.0</ele>
      </trkpt>
      <trkpt lat="24.974970817565918" lon="121.57247543334961">
        <ele>98.0</ele>
      </trkpt>
      <trkpt lat="24.974863529205322" lon="121.5723466873169">
        <ele>99.0</ele>
      </trkpt>
      <trkpt lat="24.974799156188965" lon="121.57226085662842">
        <ele>100.0</ele>
      </trkpt>
      <trkpt lat="24.97462741099298" lon="121.5721321105957">
        <ele>101.0</ele>
      </trkpt>
      <trkpt lat="24.974584579467773" lon="121.57208911143243">
        <ele>102.0</ele>
      </trkpt>
      <trkpt lat="24.974563121795654" lon="121.57198182307184">
        <ele>102.0</ele>
      </trkpt>
      <trkpt lat="24.974563121795654" lon="121.57159558497369">
        <ele>103.0</ele>
      </trkpt>
      <trkpt lat="24.974541580304503" lon="121.57150975428522">
        <ele>103.0</ele>
      </trkpt>
      <trkpt lat="24.974498748779297" lon="121.57142400741577">
        <ele>104.0</ele>
      </trkpt>
      <trkpt lat="24.97445583343506" lon="121.5713381767273">
        <ele>104.0</ele>
      </trkpt>
      <trkpt lat="24.974241172894835" lon="121.57114505767822">
        <ele>105.0</ele>
      </trkpt>
      <trkpt lat="24.97419834136963" lon="121.57110205851495">
        <ele>106.0</ele>
      </trkpt>
      <trkpt lat="24.97413388453424" lon="121.57095193862915">
        <ele>106.0</ele>
      </trkpt>
      <trkpt lat="24.97411242686212" lon="121.57088748179376">
        <ele>107.0</ele>
      </trkpt>
      <trkpt lat="24.97413388453424" lon="121.57056561671197">
        <ele>107.0</ele>
      </trkpt>
      <trkpt lat="24.97413388453424" lon="121.57052278518677">
        <ele>108.0</ele>
      </trkpt>
      <trkpt lat="24.974069595336914" lon="121.57045832835138">
        <ele>109.0</ele>
      </trkpt>
      <trkpt lat="24.973876476287842" lon="121.57043695449829">
        <ele>110.0</ele>
      </trkpt>
      <trkpt lat="24.973812019452453" lon="121.57039395533502">
        <ele>111.0</ele>
      </trkpt>
      <trkpt lat="24.973704731091857" lon="121.57030820846558">
        <ele>112.0</ele>
      </trkpt>
      <trkpt lat="24.97368335723877" lon="121.5702223777771">
        <ele>113.0</ele>
      </trkpt>
      <trkpt lat="24.97366189956665" lon="121.57007209025323">
        <ele>114.0</ele>
      </trkpt>
      <trkpt lat="24.97368335723877" lon="121.56940698623657">
        <ele>115.0</ele>
      </trkpt>
      <trkpt lat="24.9736403580755" lon="121.56899929046631">
        <ele>116.0</ele>
      </trkpt>
      <trkpt lat="24.97359744273126" lon="121.56897774897516">
        <ele>118.0</ele>
      </trkpt>
      <trkpt lat="24.973511612042785" lon="121.56895629130304">
        <ele>119.0</ele>
      </trkpt>
      <trkpt lat="24.97312537394464" lon="121.5691065788269">
        <ele>121.0</ele>
      </trkpt>
      <trkpt lat="24.97297533787787" lon="121.5691065788269">
        <ele>122.0</ele>
      </trkpt>
      <trkpt lat="24.972975254058838" lon="121.5691065788269">
        <ele>123.0</ele>
      </trkpt>
      <trkpt lat="24.97291079722345" lon="121.56906357966363">
        <ele>124.0</ele>
      </trkpt>
      <trkpt lat="24.97288933955133" lon="121.56899929046631">
        <ele>126.0</ele>
      </trkpt>
      <trkpt lat="24.97288933955133" lon="121.56895629130304">
        <ele>127.0</ele>
      </trkpt>
      <trkpt lat="24.972932254895568" lon="121.56884900294244">
        <ele>127.0</ele>
      </trkpt>
      <trkpt lat="24.973039627075195" lon="121.56867734156549">
        <ele>128.0</ele>
      </trkpt>
      <trkpt lat="24.973039627075195" lon="121.56859159469604">
        <ele>129.0</ele>
      </trkpt>
      <trkpt lat="24.9729323387146" lon="121.5683554764837">
        <ele>131.0</ele>
      </trkpt>
      <trkpt lat="24.972803508862853" lon="121.56814089976251">
        <ele>132.0</ele>
      </trkpt>
      <trkpt lat="24.972739219665527" lon="121.56807661056519">
        <ele>133.0</ele>
      </trkpt>
      <trkpt lat="24.97267484664917" lon="121.56805506907403">
        <ele>134.0</ele>
      </trkpt>
      <trkpt lat="24.972589099779725" lon="121.56805506907403">
        <ele>135.0</ele>
      </trkpt>
      <trkpt lat="24.97246026992798" lon="121.56826964579523">
        <ele>137.0</ele>
      </trkpt>
      <trkpt lat="24.972374439239502" lon="121.56863442622125">
        <ele>139.0</ele>
      </trkpt>
      <trkpt lat="24.972352981567383" lon="121.56867734156549">
        <ele>141.0</ele>
      </trkpt>
      <trkpt lat="24.97213840484619" lon="121.56887046061456">
        <ele>143.0</ele>
      </trkpt>
      <trkpt lat="24.97211686335504" lon="121.56893491744995">
        <ele>144.0</ele>
      </trkpt>
      <trkpt lat="24.97209540568292" lon="121.56906357966363">
        <ele>146.0</ele>
      </trkpt>
      <trkpt lat="24.972116947174072" lon="121.56912803649902">
        <ele>148.0</ele>
      </trkpt>
      <trkpt lat="24.972224151715636" lon="121.56934252940118">
        <ele>149.0</ele>
      </trkpt>
      <trkpt lat="24.972245693206787" lon="121.56940698623657">
        <ele>151.0</ele>
      </trkpt>
      <trkpt lat="24.972224151715636" lon="121.56962156295776">
        <ele>153.0</ele>
      </trkpt>
      <trkpt lat="24.972267234697938" lon="121.56972885131836">
        <ele>155.0</ele>
      </trkpt>
      <trkpt lat="24.972267150878906" lon="121.56972885131836">
        <ele>157.0</ele>
      </trkpt>
      <trkpt lat="24.972374439239502" lon="121.56996480189264">
        <ele>159.0</ele>
      </trkpt>
      <trkpt lat="24.972374439239502" lon="121.57002925872803">
        <ele>161.0</ele>
      </trkpt>
      <trkpt lat="24.972352981567383" lon="121.5703724976629">
        <ele>162.0</ele>
      </trkpt>
      <trkpt lat="24.972352981567383" lon="121.57045832835138">
        <ele>164.0</ele>
      </trkpt>
      <trkpt lat="24.97246026992798" lon="121.57078019343317">
        <ele>166.0</ele>
      </trkpt>
      <trkpt lat="24.972481643781066" lon="121.57090893946588">
        <ele>167.0</ele>
      </trkpt>
      <trkpt lat="24.97246026992798" lon="121.57120934687555">
        <ele>169.0</ele>
      </trkpt>
      <trkpt lat="24.97239581309259" lon="121.5713810082525">
        <ele>170.0</ele>
      </trkpt>
      <trkpt lat="24.972202694043517" lon="121.57166004180908">
        <ele>172.0</ele>
      </trkpt>
      <trkpt lat="24.972202694043517" lon="121.57176733016968">
        <ele>173.0</ele>
      </trkpt>
      <trkpt lat="24.972202694043517" lon="121.57181016169488">
        <ele>174.0</ele>
      </trkpt>
      <trkpt lat="24.972245693206787" lon="121.57187453471124">
        <ele>175.0</ele>
      </trkpt>
      <trkpt lat="24.972352981567383" lon="121.57191745005548">
        <ele>176.0</ele>
      </trkpt>
      <trkpt lat="24.972739219665527" lon="121.57198182307184">
        <ele>175.0</ele>
      </trkpt>
      <trkpt lat="24.972824966534972" lon="121.57202482223511">
        <ele>176.0</ele>
      </trkpt>
      <trkpt lat="24.972846508026123" lon="121.57206773757935">
        <ele>177.0</ele>
      </trkpt>
      <trkpt lat="24.972867965698242" lon="121.57211056910455">
        <ele>178.0</ele>
      </trkpt>
      <trkpt lat="24.972867965698242" lon="121.57232514582574">
        <ele>179.0</ele>
      </trkpt>
      <trkpt lat="24.97288933955133" lon="121.57241097651422">
        <ele>180.0</ele>
      </trkpt>
      <trkpt lat="24.972996627911925" lon="121.5724968072027">
        <ele>180.0</ele>
      </trkpt>
      <trkpt lat="24.973383033648133" lon="121.57268992625177">
        <ele>181.0</ele>
      </trkpt>
      <trkpt lat="24.973425781354308" lon="121.57273292541504">
        <ele>182.0</ele>
      </trkpt>
      <trkpt lat="24.973468780517578" lon="121.57281867228448">
        <ele>183.0</ele>
      </trkpt>
      <trkpt lat="24.97368335723877" lon="121.57333365641534">
        <ele>184.0</ele>
      </trkpt>
      <trkpt lat="24.973726188763976" lon="121.5735053177923">
        <ele>185.0</ele>
      </trkpt>
      <trkpt lat="24.973747730255127" lon="121.57371989451349">
        <ele>186.0</ele>
      </trkpt>
      <trkpt lat="24.973726272583008" lon="121.57380572520196">
        <ele>187.0</ele>
      </trkpt>
      <trkpt lat="24.97366189956665" lon="121.57395601272583">
        <ele>189.0</ele>
      </trkpt>
      <trkpt lat="24.973490238189697" lon="121.57417058944702">
        <ele>190.0</ele>
      </trkpt>
      <trkpt lat="24.973361575976014" lon="121.57444945536554">
        <ele>191.0</ele>
      </trkpt>
      <trkpt lat="24.973297035321593" lon="121.57457828521729">
        <ele>192.0</ele>
      </trkpt>
      <trkpt lat="24.973211204633117" lon="121.57468557357788">
        <ele>194.0</ele>
      </trkpt>
      <trkpt lat="24.973018085584044" lon="121.57490015029907">
        <ele>195.0</ele>
      </trkpt>
      <trkpt lat="24.97295379638672" lon="121.57502881251276">
        <ele>197.0</ele>
      </trkpt>
      <trkpt lat="24.972889507189393" lon="121.57558679580688">
        <ele>198.0</ele>
      </trkpt>
      <trkpt lat="24.97288933955133" lon="121.57558679580688">
        <ele>200.0</ele>
      </trkpt>
      <trkpt lat="24.972824966534972" lon="121.57580137252808">
        <ele>201.0</ele>
      </trkpt>
      <trkpt lat="24.972717678174376" lon="121.57603732310236">
        <ele>203.0</ele>
      </trkpt>
      <trkpt lat="24.972481643781066" lon="121.57640218734741">
        <ele>205.0</ele>
      </trkpt>
      <trkpt lat="24.972202694043517" lon="121.57665959559381">
        <ele>207.0</ele>
      </trkpt>
      <trkpt lat="24.97215986251831" lon="121.5767240524292">
        <ele>209.0</ele>
      </trkpt>
      <trkpt lat="24.972031116485596" lon="121.57691717147827">
        <ele>211.0</ele>
      </trkpt>
      <trkpt lat="24.97194528579712" lon="121.57721757888794">
        <ele>212.0</ele>
      </trkpt>
      <trkpt lat="24.971773540601134" lon="121.57745352946222">
        <ele>214.0</ele>
      </trkpt>
      <trkpt lat="24.971730709075928" lon="121.57747498713434">
        <ele>216.0</ele>
      </trkpt>
      <trkpt lat="24.971687709912658" lon="121.57749652862549">
        <ele>218.0</ele>
      </trkpt>
      <trkpt lat="24.97164487838745" lon="121.57747498713434">
        <ele>219.0</ele>
      </trkpt>
      <trkpt lat="24.971623420715332" lon="121.57745352946222">
        <ele>221.0</ele>
      </trkpt>
      <trkpt lat="24.971623420715332" lon="121.57736769877374">
        <ele>223.0</ele>
      </trkpt>
      <trkpt lat="24.97194528579712" lon="121.5766167640686">
        <ele>224.0</ele>
      </trkpt>
      <trkpt lat="24.97196674346924" lon="121.57648801803589">
        <ele>226.0</ele>
      </trkpt>
      <trkpt lat="24.971837997436523" lon="121.5758656617254">
        <ele>228.0</ele>
      </trkpt>
      <trkpt lat="24.971794998273253" lon="121.57567262649536">
        <ele>230.0</ele>
      </trkpt>
      <trkpt lat="24.971816455945373" lon="121.57515755854547">
        <ele>231.0</ele>
      </trkpt>
      <trkpt lat="24.971837997436523" lon="121.57500743865967">
        <ele>233.0</ele>
      </trkpt>
      <trkpt lat="24.97192374430597" lon="121.57468557357788">
        <ele>235.0</ele>
      </trkpt>
      <trkpt lat="24.97194528579712" lon="121.57455682754517">
        <ele>237.0</ele>
      </trkpt>
      <trkpt lat="24.97188082896173" lon="121.57417058944702">
        <ele>239.0</ele>
      </trkpt>
      <trkpt lat="24.97192374430597" lon="121.57395601272583">
        <ele>241.0</ele>
      </trkpt>
      <trkpt lat="24.97192374430597" lon="121.57391301356256">
        <ele>243.0</ele>
      </trkpt>
      <trkpt lat="24.97190228663385" lon="121.57387018203735">
        <ele>245.0</ele>
      </trkpt>
      <trkpt lat="24.971859455108643" lon="121.57384872436523">
        <ele>247.0</ele>
      </trkpt>
      <trkpt lat="24.971816455945373" lon="121.57382718287408">
        <ele>249.0</ele>
      </trkpt>
      <trkpt lat="24.971773540601134" lon="121.57384872436523">
        <ele>251.0</ele>
      </trkpt>
      <trkpt lat="24.971752166748047" lon="121.57389163970947">
        <ele>254.0</ele>
      </trkpt>
      <trkpt lat="24.971537590026855" lon="121.5744065400213">
        <ele>256.0</ele>
      </trkpt>
      <trkpt lat="24.971365928649902" lon="121.57500743865967">
        <ele>259.0</ele>
      </trkpt>
      <trkpt lat="24.971323013305664" lon="121.57509326934814">
        <ele>261.0</ele>
      </trkpt>
      <trkpt lat="24.971129894256592" lon="121.5753722190857">
        <ele>264.0</ele>
      </trkpt>
      <trkpt lat="24.97110835276544" lon="121.57541513442993">
        <ele>266.0</ele>
      </trkpt>
      <trkpt lat="24.971065437421203" lon="121.57625189982355">
        <ele>268.0</ele>
      </trkpt>
      <trkpt lat="24.971065437421203" lon="121.57631635665894">
        <ele>271.0</ele>
      </trkpt>
      <trkpt lat="24.971022605895996" lon="121.57635918818414">
        <ele>273.0</ele>
      </trkpt>
      <trkpt lat="24.970979606732726" lon="121.5763807296753">
        <ele>275.0</ele>
      </trkpt>
      <trkpt lat="24.9709153175354" lon="121.5763807296753">
        <ele>278.0</ele>
      </trkpt>
      <trkpt lat="24.970679199323058" lon="121.57640218734741">
        <ele>280.0</ele>
      </trkpt>
      <trkpt lat="24.970550537109375" lon="121.57640218734741">
        <ele>282.0</ele>
      </trkpt>
      <trkpt lat="24.970035552978516" lon="121.57631635665894">
        <ele>285.0</ele>
      </trkpt>
      <trkpt lat="24.96986380778253" lon="121.57633773051202">
        <ele>287.0</ele>
      </trkpt>
      <trkpt lat="24.969756519421935" lon="121.57635918818414">
        <ele>289.0</ele>
      </trkpt>
      <trkpt lat="24.969627857208252" lon="121.57644501887262">
        <ele>291.0</ele>
      </trkpt>
      <trkpt lat="24.96934882365167" lon="121.5767240524292">
        <ele>292.0</ele>
      </trkpt>
      <trkpt lat="24.969305992126465" lon="121.57674542628229">
        <ele>294.0</ele>
      </trkpt>
      <trkpt lat="24.96919870376587" lon="121.5767668839544">
        <ele>295.0</ele>
      </trkpt>
      <trkpt lat="24.96894129551947" lon="121.5767668839544">
        <ele>296.0</ele>
      </trkpt>
      <trkpt lat="24.968941127881408" lon="121.5767668839544">
        <ele>297.0</ele>
      </trkpt>
      <trkpt lat="24.968512058258057" lon="121.57668105326593">
        <ele>299.0</ele>
      </trkpt>
      <trkpt lat="24.968340313062072" lon="121.576874172315">
        <ele>299.0</ele>
      </trkpt>
      <trkpt lat="24.968061363324523" lon="121.57721757888794">
        <ele>300.0</ele>
      </trkpt>
      <trkpt lat="24.968018531799316" lon="121.57726041041315">
        <ele>300.0</ele>
      </trkpt>
      <trkpt lat="24.967997074127197" lon="121.57732486724854">
        <ele>300.0</ele>
      </trkpt>
      <trkpt lat="24.967997074127197" lon="121.57741069793701">
        <ele>300.0</ele>
      </trkpt>
      <trkpt lat="24.968018531799316" lon="121.57747498713434">
        <ele>300.0</ele>
      </trkpt>
      <trkpt lat="24.968061363324523" lon="121.57753944396973">
        <ele>299.0</ele>
      </trkpt>
      <trkpt lat="24.968318939208984" lon="121.5778826829046">
        <ele>299.0</ele>
      </trkpt>
      <trkpt lat="24.96840476989746" lon="121.57794713973999">
        <ele>298.0</ele>
      </trkpt>
      <trkpt lat="24.968469059094787" lon="121.57796851359308">
        <ele>298.0</ele>
      </trkpt>
      <trkpt lat="24.968576347455382" lon="121.57792568206787">
        <ele>297.0</ele>
      </trkpt>
      <trkpt lat="24.968962585553527" lon="121.57775393687189">
        <ele>296.0</ele>
      </trkpt>
      <trkpt lat="24.969091415405273" lon="121.57775393687189">
        <ele>295.0</ele>
      </trkpt>
      <trkpt lat="24.96919870376587" lon="121.57779693603516">
        <ele>294.0</ele>
      </trkpt>
      <trkpt lat="24.96937028132379" lon="121.5779899712652">
        <ele>294.0</ele>
      </trkpt>
      <trkpt lat="24.96941328048706" lon="121.57809725962579">
        <ele>293.0</ele>
      </trkpt>
      <trkpt lat="24.969477569684386" lon="121.57829037867486">
        <ele>293.0</ele>
      </trkpt>
      <trkpt lat="24.969542026519775" lon="121.57837620936334">
        <ele>292.0</ele>
      </trkpt>
      <trkpt lat="24.969777977094054" lon="121.5785264968872">
        <ele>291.0</ele>
      </trkpt>
      <trkpt lat="24.969971096143126" lon="121.57856932841241">
        <ele>291.0</ele>
      </trkpt>
      <trkpt lat="24.970035552978516" lon="121.57859078608453">
        <ele>290.0</ele>
      </trkpt>
      <trkpt lat="24.97009984217584" lon="121.578848361969">
        <ele>290.0</ele>
      </trkpt>
      <trkpt lat="24.97009984217584" lon="121.57885909080505">
        <ele>290.0</ele>
      </trkpt>
      <trkpt lat="24.97009984217584" lon="121.578848361969">
        <ele>290.0</ele>
      </trkpt>
      <trkpt lat="24.970035552978516" lon="121.57859078608453">
        <ele>290.0</ele>
      </trkpt>
      <trkpt lat="24.969971096143126" lon="121.57856932841241">
        <ele>291.0</ele>
      </trkpt>
      <trkpt lat="24.969777977094054" lon="121.5785264968872">
        <ele>291.0</ele>
      </trkpt>
      <trkpt lat="24.969542026519775" lon="121.57837620936334">
        <ele>292.0</ele>
      </trkpt>
      <trkpt lat="24.969477569684386" lon="121.57829037867486">
        <ele>293.0</ele>
      </trkpt>
      <trkpt lat="24.96941328048706" lon="121.57809725962579">
        <ele>293.0</ele>
      </trkpt>
      <trkpt lat="24.96937028132379" lon="121.5779899712652">
        <ele>294.0</ele>
      </trkpt>
      <trkpt lat="24.96919870376587" lon="121.57779693603516">
        <ele>294.0</ele>
      </trkpt>
      <trkpt lat="24.969091415405273" lon="121.57775393687189">
        <ele>295.0</ele>
      </trkpt>
      <trkpt lat="24.968962585553527" lon="121.57775393687189">
        <ele>296.0</ele>
      </trkpt>
      <trkpt lat="24.968576347455382" lon="121.57792568206787">
        <ele>297.0</ele>
      </trkpt>
      <trkpt lat="24.968469059094787" lon="121.57796851359308">
        <ele>298.0</ele>
      </trkpt>
      <trkpt lat="24.96840476989746" lon="121.57794713973999">
        <ele>298.0</ele>
      </trkpt>
      <trkpt lat="24.968318939208984" lon="121.5778826829046">
        <ele>299.0</ele>
      </trkpt>
      <trkpt lat="24.968061363324523" lon="121.57753944396973">
        <ele>299.0</ele>
      </trkpt>
      <trkpt lat="24.968018531799316" lon="121.57747498713434">
        <ele>300.0</ele>
      </trkpt>
      <trkpt lat="24.967997074127197" lon="121.57741069793701">
        <ele>300.0</ele>
      </trkpt>
      <trkpt lat="24.967997074127197" lon="121.57732486724854">
        <ele>300.0</ele>
      </trkpt>
      <trkpt lat="24.968018531799316" lon="121.57726041041315">
        <ele>300.0</ele>
      </trkpt>
      <trkpt lat="24.968061363324523" lon="121.57721757888794">
        <ele>300.0</ele>
      </trkpt>
      <trkpt lat="24.968340313062072" lon="121.576874172315">
        <ele>299.0</ele>
      </trkpt>
      <trkpt lat="24.96851214207709" lon="121.57668105326593">
        <ele>299.0</ele>
      </trkpt>
      <trkpt lat="24.968941127881408" lon="121.5767668839544">
        <ele>297.0</ele>
      </trkpt>
      <trkpt lat="24.96894129551947" lon="121.5767668839544">
        <ele>296.0</ele>
      </trkpt>
      <trkpt lat="24.96919870376587" lon="121.5767668839544">
        <ele>295.0</ele>
      </trkpt>
      <trkpt lat="24.969305992126465" lon="121.57674542628229">
        <ele>294.0</ele>
      </trkpt>
      <trkpt lat="24.96934882365167" lon="121.5767240524292">
        <ele>292.0</ele>
      </trkpt>
      <trkpt lat="24.969627857208252" lon="121.57644501887262">
        <ele>291.0</ele>
      </trkpt>
      <trkpt lat="24.969756519421935" lon="121.57635918818414">
        <ele>289.0</ele>
      </trkpt>
      <trkpt lat="24.96986380778253" lon="121.57633773051202">
        <ele>287.0</ele>
      </trkpt>
      <trkpt lat="24.970035552978516" lon="121.57631635665894">
        <ele>285.0</ele>
      </trkpt>
      <trkpt lat="24.970550537109375" lon="121.57640218734741">
        <ele>282.0</ele>
      </trkpt>
      <trkpt lat="24.970679199323058" lon="121.57640218734741">
        <ele>280.0</ele>
      </trkpt>
      <trkpt lat="24.9709153175354" lon="121.5763807296753">
        <ele>278.0</ele>
      </trkpt>
      <trkpt lat="24.970979606732726" lon="121.5763807296753">
        <ele>275.0</ele>
      </trkpt>
      <trkpt lat="24.971022605895996" lon="121.57635918818414">
        <ele>273.0</ele>
      </trkpt>
      <trkpt lat="24.971065437421203" lon="121.57631635665894">
        <ele>271.0</ele>
      </trkpt>
      <trkpt lat="24.971065437421203" lon="121.57625189982355">
        <ele>268.0</ele>
      </trkpt>
      <trkpt lat="24.97110835276544" lon="121.57541513442993">
        <ele>266.0</ele>
      </trkpt>
      <trkpt lat="24.971129894256592" lon="121.5753722190857">
        <ele>264.0</ele>
      </trkpt>
      <trkpt lat="24.971323013305664" lon="121.57509326934814">
        <ele>261.0</ele>
      </trkpt>
      <trkpt lat="24.971365928649902" lon="121.57500743865967">
        <ele>259.0</ele>
      </trkpt>
      <trkpt lat="24.971537590026855" lon="121.5744065400213">
        <ele>256.0</ele>
      </trkpt>
      <trkpt lat="24.971752166748047" lon="121.57389163970947">
        <ele>254.0</ele>
      </trkpt>
      <trkpt lat="24.971773540601134" lon="121.57384872436523">
        <ele>251.0</ele>
      </trkpt>
      <trkpt lat="24.971816455945373" lon="121.57382718287408">
        <ele>249.0</ele>
      </trkpt>
      <trkpt lat="24.971859455108643" lon="121.57384872436523">
        <ele>247.0</ele>
      </trkpt>
      <trkpt lat="24.97190228663385" lon="121.57387018203735">
        <ele>245.0</ele>
      </trkpt>
      <trkpt lat="24.97192374430597" lon="121.57391301356256">
        <ele>243.0</ele>
      </trkpt>
      <trkpt lat="24.97192374430597" lon="121.57395601272583">
        <ele>241.0</ele>
      </trkpt>
      <trkpt lat="24.97188082896173" lon="121.57417058944702">
        <ele>239.0</ele>
      </trkpt>
      <trkpt lat="24.97194528579712" lon="121.57455682754517">
        <ele>237.0</ele>
      </trkpt>
      <trkpt lat="24.97192374430597" lon="121.57468557357788">
        <ele>235.0</ele>
      </trkpt>
      <trkpt lat="24.971837997436523" lon="121.57500743865967">
        <ele>233.0</ele>
      </trkpt>
      <trkpt lat="24.971816455945373" lon="121.57515755854547">
        <ele>231.0</ele>
      </trkpt>
      <trkpt lat="24.971794998273253" lon="121.57567262649536">
        <ele>230.0</ele>
      </trkpt>
      <trkpt lat="24.971837997436523" lon="121.5758656617254">
        <ele>228.0</ele>
      </trkpt>
      <trkpt lat="24.97196674346924" lon="121.57648801803589">
        <ele>226.0</ele>
      </trkpt>
      <trkpt lat="24.97194528579712" lon="121.5766167640686">
        <ele>224.0</ele>
      </trkpt>
      <trkpt lat="24.971623420715332" lon="121.57736769877374">
        <ele>223.0</ele>
      </trkpt>
      <trkpt lat="24.971623420715332" lon="121.57745352946222">
        <ele>221.0</ele>
      </trkpt>
      <trkpt lat="24.97164487838745" lon="121.57747498713434">
        <ele>219.0</ele>
      </trkpt>
      <trkpt lat="24.971687709912658" lon="121.57749652862549">
        <ele>218.0</ele>
      </trkpt>
      <trkpt lat="24.971730709075928" lon="121.57747498713434">
        <ele>216.0</ele>
      </trkpt>
      <trkpt lat="24.971773540601134" lon="121.57745352946222">
        <ele>214.0</ele>
      </trkpt>
      <trkpt lat="24.97194528579712" lon="121.57721757888794">
        <ele>212.0</ele>
      </trkpt>
      <trkpt lat="24.972031116485596" lon="121.57691717147827">
        <ele>211.0</ele>
      </trkpt>
      <trkpt lat="24.97215986251831" lon="121.5767240524292">
        <ele>209.0</ele>
      </trkpt>
      <trkpt lat="24.972202694043517" lon="121.57665959559381">
        <ele>207.0</ele>
      </trkpt>
      <trkpt lat="24.972481643781066" lon="121.57640218734741">
        <ele>205.0</ele>
      </trkpt>
      <trkpt lat="24.972717678174376" lon="121.57603732310236">
        <ele>203.0</ele>
      </trkpt>
      <trkpt lat="24.972824966534972" lon="121.57580137252808">
        <ele>201.0</ele>
      </trkpt>
      <trkpt lat="24.97288933955133" lon="121.57558679580688">
        <ele>200.0</ele>
      </trkpt>
      <trkpt lat="24.972889507189393" lon="121.57558679580688">
        <ele>198.0</ele>
      </trkpt>
      <trkpt lat="24.97295379638672" lon="121.57502881251276">
        <ele>197.0</ele>
      </trkpt>
      <trkpt lat="24.973018085584044" lon="121.57490015029907">
        <ele>195.0</ele>
      </trkpt>
      <trkpt lat="24.973211204633117" lon="121.57468557357788">
        <ele>194.0</ele>
      </trkpt>
      <trkpt lat="24.973297035321593" lon="121.57457828521729">
        <ele>192.0</ele>
      </trkpt>
      <trkpt lat="24.973361575976014" lon="121.57444945536554">
        <ele>191.0</ele>
      </trkpt>
      <trkpt lat="24.973490238189697" lon="121.57417058944702">
        <ele>190.0</ele>
      </trkpt>
      <trkpt lat="24.97366189956665" lon="121.57395601272583">
        <ele>189.0</ele>
      </trkpt>
      <trkpt lat="24.973726272583008" lon="121.57380572520196">
        <ele>187.0</ele>
      </trkpt>
      <trkpt lat="24.973747730255127" lon="121.57371989451349">
        <ele>186.0</ele>
      </trkpt>
      <trkpt lat="24.973726188763976" lon="121.5735053177923">
        <ele>185.0</ele>
      </trkpt>
      <trkpt lat="24.97368335723877" lon="121.57333365641534">
        <ele>184.0</ele>
      </trkpt>
      <trkpt lat="24.973468780517578" lon="121.57281867228448">
        <ele>183.0</ele>
      </trkpt>
      <trkpt lat="24.973425781354308" lon="121.57273292541504">
        <ele>182.0</ele>
      </trkpt>
      <trkpt lat="24.973383033648133" lon="121.57268992625177">
        <ele>181.0</ele>
      </trkpt>
      <trkpt lat="24.972996627911925" lon="121.5724968072027">
        <ele>180.0</ele>
      </trkpt>
      <trkpt lat="24.97288933955133" lon="121.57241097651422">
        <ele>180.0</ele>
      </trkpt>
      <trkpt lat="24.972867965698242" lon="121.57232514582574">
        <ele>179.0</ele>
      </trkpt>
      <trkpt lat="24.972867965698242" lon="121.57211056910455">
        <ele>178.0</ele>
      </trkpt>
      <trkpt lat="24.972846508026123" lon="121.57206773757935">
        <ele>177.0</ele>
      </trkpt>
      <trkpt lat="24.972824966534972" lon="121.57202482223511">
        <ele>176.0</ele>
      </trkpt>
      <trkpt lat="24.972739219665527" lon="121.57198182307184">
        <ele>175.0</ele>
      </trkpt>
      <trkpt lat="24.972352981567383" lon="121.57191745005548">
        <ele>176.0</ele>
      </trkpt>
      <trkpt lat="24.972245693206787" lon="121.57187453471124">
        <ele>175.0</ele>
      </trkpt>
      <trkpt lat="24.972202694043517" lon="121.57181016169488">
        <ele>174.0</ele>
      </trkpt>
      <trkpt lat="24.972202694043517" lon="121.57176733016968">
        <ele>173.0</ele>
      </trkpt>
      <trkpt lat="24.972202694043517" lon="121.57166004180908">
        <ele>172.0</ele>
      </trkpt>
      <trkpt lat="24.97239581309259" lon="121.5713810082525">
        <ele>170.0</ele>
      </trkpt>
      <trkpt lat="24.97246026992798" lon="121.57120934687555">
        <ele>169.0</ele>
      </trkpt>
      <trkpt lat="24.972481643781066" lon="121.57090893946588">
        <ele>167.0</ele>
      </trkpt>
      <trkpt lat="24.97246026992798" lon="121.57078019343317">
        <ele>166.0</ele>
      </trkpt>
      <trkpt lat="24.972352981567383" lon="121.57045832835138">
        <ele>164.0</ele>
      </trkpt>
      <trkpt lat="24.972352981567383" lon="121.5703724976629">
        <ele>162.0</ele>
      </trkpt>
      <trkpt lat="24.972374439239502" lon="121.57002925872803">
        <ele>161.0</ele>
      </trkpt>
      <trkpt lat="24.972374439239502" lon="121.56996480189264">
        <ele>159.0</ele>
      </trkpt>
      <trkpt lat="24.972267150878906" lon="121.56972885131836">
        <ele>157.0</ele>
      </trkpt>
      <trkpt lat="24.972267234697938" lon="121.56972885131836">
        <ele>155.0</ele>
      </trkpt>
      <trkpt lat="24.972224151715636" lon="121.56962156295776">
        <ele>153.0</ele>
      </trkpt>
      <trkpt lat="24.972245693206787" lon="121.56940698623657">
        <ele>151.0</ele>
      </trkpt>
      <trkpt lat="24.972224151715636" lon="121.56934252940118">
        <ele>149.0</ele>
      </trkpt>
      <trkpt lat="24.972116947174072" lon="121.56912803649902">
        <ele>148.0</ele>
      </trkpt>
      <trkpt lat="24.97209540568292" lon="121.56906357966363">
        <ele>146.0</ele>
      </trkpt>
      <trkpt lat="24.97211686335504" lon="121.56893491744995">
        <ele>144.0</ele>
      </trkpt>
      <trkpt lat="24.97213840484619" lon="121.56887046061456">
        <ele>143.0</ele>
      </trkpt>
      <trkpt lat="24.972352981567383" lon="121.56867734156549">
        <ele>141.0</ele>
      </trkpt>
      <trkpt lat="24.972374439239502" lon="121.56863442622125">
        <ele>139.0</ele>
      </trkpt>
      <trkpt lat="24.97246026992798" lon="121.56826964579523">
        <ele>137.0</ele>
      </trkpt>
      <trkpt lat="24.972589099779725" lon="121.56805506907403">
        <ele>135.0</ele>
      </trkpt>
      <trkpt lat="24.97267484664917" lon="121.56805506907403">
        <ele>134.0</ele>
      </trkpt>
      <trkpt lat="24.972739219665527" lon="121.56807661056519">
        <ele>133.0</ele>
      </trkpt>
      <trkpt lat="24.972803508862853" lon="121.56814089976251">
        <ele>132.0</ele>
      </trkpt>
      <trkpt lat="24.9729323387146" lon="121.5683554764837">
        <ele>131.0</ele>
      </trkpt>
      <trkpt lat="24.973039627075195" lon="121.56859159469604">
        <ele>129.0</ele>
      </trkpt>
      <trkpt lat="24.973039627075195" lon="121.56867734156549">
        <ele>128.0</ele>
      </trkpt>
      <trkpt lat="24.972932254895568" lon="121.56884900294244">
        <ele>127.0</ele>
      </trkpt>
      <trkpt lat="24.97288933955133" lon="121.56895629130304">
        <ele>127.0</ele>
      </trkpt>
      <trkpt lat="24.97288933955133" lon="121.56899929046631">
        <ele>126.0</ele>
      </trkpt>
      <trkpt lat="24.97291079722345" lon="121.56906357966363">
        <ele>124.0</ele>
      </trkpt>
      <trkpt lat="24.972975254058838" lon="121.5691065788269">
        <ele>123.0</ele>
      </trkpt>
      <trkpt lat="24.97297533787787" lon="121.5691065788269">
        <ele>122.0</ele>
      </trkpt>
      <trkpt lat="24.97312537394464" lon="121.5691065788269">
        <ele>121.0</ele>
      </trkpt>
      <trkpt lat="24.973511612042785" lon="121.56895629130304">
        <ele>119.0</ele>
      </trkpt>
      <trkpt lat="24.97359744273126" lon="121.56897774897516">
        <ele>118.0</ele>
      </trkpt>
      <trkpt lat="24.9736403580755" lon="121.56899929046631">
        <ele>116.0</ele>
      </trkpt>
      <trkpt lat="24.97368335723877" lon="121.56940698623657">
        <ele>115.0</ele>
      </trkpt>
      <trkpt lat="24.97366189956665" lon="121.57007209025323">
        <ele>114.0</ele>
      </trkpt>
      <trkpt lat="24.97368335723877" lon="121.5702223777771">
        <ele>113.0</ele>
      </trkpt>
      <trkpt lat="24.973704731091857" lon="121.57030820846558">
        <ele>112.0</ele>
      </trkpt>
      <trkpt lat="24.973812019452453" lon="121.57039395533502">
        <ele>111.0</ele>
      </trkpt>
      <trkpt lat="24.973876476287842" lon="121.57043695449829">
        <ele>110.0</ele>
      </trkpt>
      <trkpt lat="24.974069595336914" lon="121.57045832835138">
        <ele>109.0</ele>
      </trkpt>
      <trkpt lat="24.97413388453424" lon="121.57052278518677">
        <ele>108.0</ele>
      </trkpt>
      <trkpt lat="24.97413388453424" lon="121.57056561671197">
        <ele>107.0</ele>
      </trkpt>
      <trkpt lat="24.97411242686212" lon="121.57088748179376">
        <ele>107.0</ele>
      </trkpt>
      <trkpt lat="24.97413388453424" lon="121.57095193862915">
        <ele>106.0</ele>
      </trkpt>
      <trkpt lat="24.97419834136963" lon="121.57110205851495">
        <ele>106.0</ele>
      </trkpt>
      <trkpt lat="24.974241172894835" lon="121.57114505767822">
        <ele>105.0</ele>
      </trkpt>
      <trkpt lat="24.97445583343506" lon="121.5713381767273">
        <ele>104.0</ele>
      </trkpt>
      <trkpt lat="24.974498748779297" lon="121.57142400741577">
        <ele>104.0</ele>
      </trkpt>
      <trkpt lat="24.974541580304503" lon="121.57150975428522">
        <ele>103.0</ele>
      </trkpt>
      <trkpt lat="24.974563121795654" lon="121.57159558497369">
        <ele>103.0</ele>
      </trkpt>
      <trkpt lat="24.974563121795654" lon="121.57198182307184">
        <ele>102.0</ele>
      </trkpt>
      <trkpt lat="24.974584579467773" lon="121.57208911143243">
        <ele>102.0</ele>
      </trkpt>
      <trkpt lat="24.97462741099298" lon="121.5721321105957">
        <ele>101.0</ele>
      </trkpt>
      <trkpt lat="24.974799156188965" lon="121.57226085662842">
        <ele>100.0</ele>
      </trkpt>
      <trkpt lat="24.974863529205322" lon="121.5723466873169">
        <ele>99.0</ele>
      </trkpt>
      <trkpt lat="24.974970817565918" lon="121.57247543334961">
        <ele>98.0</ele>
      </trkpt>
      <trkpt lat="24.97514239512384" lon="121.57279721461236">
        <ele>98.0</ele>
      </trkpt>
      <trkpt lat="24.975228225812316" lon="121.57284021377563">
        <ele>96.0</ele>
      </trkpt>
      <trkpt lat="24.97533551417291" lon="121.57281867228448">
        <ele>95.0</ele>
      </trkpt>
      <trkpt lat="24.97535697184503" lon="121.57279721461236">
        <ele>93.0</ele>
      </trkpt>
      <trkpt lat="24.97537851333618" lon="121.57275438308716">
        <ele>92.0</ele>
      </trkpt>
      <trkpt lat="24.9753999710083" lon="121.57262555323541">
        <ele>90.0</ele>
      </trkpt>
      <trkpt lat="24.975314224138856" lon="121.57241097651422">
        <ele>89.0</ele>
      </trkpt>
      <trkpt lat="24.975056564435363" lon="121.57200328074396">
        <ele>87.0</ele>
      </trkpt>
      <trkpt lat="24.975035106763244" lon="121.57187453471124">
        <ele>85.0</ele>
      </trkpt>
      <trkpt lat="24.975099563598633" lon="121.57150975428522">
        <ele>83.0</ele>
      </trkpt>
      <trkpt lat="24.97512093745172" lon="121.5712737198919">
        <ele>81.0</ele>
      </trkpt>
      <trkpt lat="24.97514239512384" lon="121.57120934687555">
        <ele>79.0</ele>
      </trkpt>
      <trkpt lat="24.975228225812316" lon="121.57114505767822">
        <ele>77.0</ele>
      </trkpt>
      <trkpt lat="24.975357055664062" lon="121.5711236000061">
        <ele>75.0</ele>
      </trkpt>
      <trkpt lat="24.975421344861388" lon="121.57116643153131">
        <ele>73.0</ele>
      </trkpt>
      <trkpt lat="24.975528717041016" lon="121.5712737198919">
        <ele>71.0</ele>
      </trkpt>
      <trkpt lat="24.97563600540161" lon="121.57140246592462">
        <ele>68.0</ele>
      </trkpt>
      <trkpt lat="24.975786209106445" lon="121.57150975428522">
        <ele>66.0</ele>
      </trkpt>
      <trkpt lat="24.97589349746704" lon="121.57155275344849">
        <ele>64.0</ele>
      </trkpt>
      <trkpt lat="24.976794719696045" lon="121.57159558497369">
        <ele>61.0</ele>
      </trkpt>
      <trkpt lat="24.976944839581847" lon="121.57157412730157">
        <ele>58.0</ele>
      </trkpt>
      <trkpt lat="24.977009296417236" lon="121.57153129577637">
        <ele>55.0</ele>
      </trkpt>
      <trkpt lat="24.977116584777832" lon="121.57140246592462">
        <ele>53.0</ele>
      </trkpt>
      <trkpt lat="24.97715950012207" lon="121.57131671905518">
        <ele>50.0</ele>
      </trkpt>
      <trkpt lat="24.97737399302423" lon="121.56960010528564">
        <ele>47.0</ele>
      </trkpt>
      <trkpt lat="24.977481281384826" lon="121.56929969787598">
        <ele>44.0</ele>
      </trkpt>
      <trkpt lat="24.97773894108832" lon="121.56887046061456">
        <ele>41.0</ele>
      </trkpt>
      <trkpt lat="24.97791051864624" lon="121.56854859553277">
        <ele>39.0</ele>
      </trkpt>
      <trkpt lat="24.978060638532043" lon="121.56844130717218">
        <ele>36.0</ele>
      </trkpt>
      <trkpt lat="24.97814655303955" lon="121.56833401881158">
        <ele>34.0</ele>
      </trkpt>
      <trkpt lat="24.978275215253234" lon="121.56803361140192">
        <ele>32.0</ele>
      </trkpt>
      <trkpt lat="24.97840396128595" lon="121.56786195002496">
        <ele>30.0</ele>
      </trkpt>
      <trkpt lat="24.97864007949829" lon="121.56764737330377">
        <ele>28.0</ele>
      </trkpt>
      <trkpt lat="24.978811740875244" lon="121.56751862727106">
        <ele>26.0</ele>
      </trkpt>
      <trkpt lat="24.979305267333984" lon="121.5673041343689">
        <ele>25.0</ele>
      </trkpt>
      <trkpt lat="24.97962713241577" lon="121.56779766082764">
        <ele>23.0</ele>
      </trkpt>
      <trkpt lat="24.97990599833429" lon="121.56771183013916">
        <ele>22.0</ele>
      </trkpt>
      <trkpt lat="24.980571269989014" lon="121.56751862727106">
        <ele>20.0</ele>
      </trkpt>
      <trkpt lat="24.980571353808045" lon="121.56751862727106">
        <ele>19.0</ele>
      </trkpt>
      <trkpt lat="24.981515323743224" lon="121.5673041343689">
        <ele>19.0</ele>
      </trkpt>
      <trkpt lat="24.981515407562256" lon="121.5673041343689">
        <ele>19.0</ele>
      </trkpt>
      <trkpt lat="24.982502460479736" lon="121.56704655848444">
        <ele>18.0</ele>
      </trkpt>
      <trkpt lat="24.98269566334784" lon="121.56698226928711">
        <ele>21.0</ele>
      </trkpt>
      <trkpt lat="24.982824325561523" lon="121.56693927012384">
        <ele>21.0</ele>
      </trkpt>
      <trkpt lat="24.983253479003906" lon="121.56676769256592">
        <ele>21.0</ele>
      </trkpt>
      <trkpt lat="24.983253395184875" lon="121.56676769256592">
        <ele>21.0</ele>
      </trkpt>
      <trkpt lat="24.983253479003906" lon="121.56676769256592">
        <ele>21.0</ele>
      </trkpt>
      <trkpt lat="24.983317768201232" lon="121.56674615107477">
        <ele>22.0</ele>
      </trkpt>
      <trkpt lat="24.98295307159424" lon="121.56569480895996">
        <ele>23.0</ele>
      </trkpt>
      <trkpt lat="24.982952987775207" lon="121.56569480895996">
        <ele>23.0</ele>
      </trkpt>
      <trkpt lat="24.98282424174249" lon="121.56530848704278">
        <ele>23.0</ele>
      </trkpt>
      <trkpt lat="24.98269566334784" lon="121.56487941741943">
        <ele>24.0</ele>
      </trkpt>
      <trkpt lat="24.982545375823975" lon="121.56419268809259">
        <ele>24.0</ele>
      </trkpt>
      <trkpt lat="24.98239517211914" lon="121.56354904174805">
        <ele>24.0</ele>
      </trkpt>
      <trkpt lat="24.98233071528375" lon="121.56357041560113">
        <ele>25.0</ele>
      </trkpt>
      <trkpt lat="24.982395255938172" lon="121.56354904174805">
        <ele>26.0</ele>
      </trkpt>
      <trkpt lat="24.982223510742188" lon="121.56284093856812">
        <ele>25.0</ele>
      </trkpt>
      <trkpt lat="24.98215913772583" lon="121.56256190501153">
        <ele>26.0</ele>
      </trkpt>
      <trkpt lat="24.98213768005371" lon="121.56247607432306">
        <ele>26.0</ele>
      </trkpt>
      <trkpt lat="24.982030391693115" lon="121.5619610901922">
        <ele>26.0</ele>
      </trkpt>
      <trkpt lat="24.98198756016791" lon="121.5618109703064">
        <ele>26.0</ele>
      </trkpt>
      <trkpt lat="24.981901729479432" lon="121.56144610606134">
        <ele>26.0</ele>
      </trkpt>
      <trkpt lat="24.981837272644043" lon="121.56110286712646">
        <ele>26.0</ele>
      </trkpt>
      <trkpt lat="24.981751441955566" lon="121.56073800288141">
        <ele>26.0</ele>
      </trkpt>
      <trkpt lat="24.98164415359497" lon="121.56024447642267">
        <ele>26.0</ele>
      </trkpt>
      <trkpt lat="24.981558406725526" lon="121.559944069013">
        <ele>26.0</ele>
      </trkpt>
      <trkpt lat="24.9814510345459" lon="121.55947208404541">
        <ele>26.0</ele>
      </trkpt>
      <trkpt lat="24.981365287676454" lon="121.55912867747247">
        <ele>26.0</ele>
      </trkpt>
      <trkpt lat="24.981257999315858" lon="121.558678150177">
        <ele>26.0</ele>
      </trkpt>
      <trkpt lat="24.981107711791992" lon="121.55807733535767">
        <ele>26.0</ele>
      </trkpt>
      <trkpt lat="24.980850303545594" lon="121.55715465545654">
        <ele>25.0</ele>
      </trkpt>
      <trkpt lat="24.980850219726562" lon="121.55715465545654">
        <ele>25.0</ele>
      </trkpt>
      <trkpt lat="24.980657184496522" lon="121.55638209544122">
        <ele>25.0</ele>
      </trkpt>
      <trkpt lat="24.980335235595703" lon="121.55518046580255">
        <ele>25.0</ele>
      </trkpt>
      <trkpt lat="24.98024948872626" lon="121.5548586845398">
        <ele>24.0</ele>
      </trkpt>
      <trkpt lat="24.980249404907227" lon="121.5548586845398">
        <ele>24.0</ele>
      </trkpt>
      <trkpt lat="24.980184948071837" lon="121.55460110865533">
        <ele>23.0</ele>
      </trkpt>
      <trkpt lat="24.980249404907227" lon="121.55445098876953">
        <ele>23.0</ele>
      </trkpt>
      <trkpt lat="24.980335235595703" lon="121.55434370040894">
        <ele>23.0</ele>
      </trkpt>
      <trkpt lat="24.98067855834961" lon="121.55393600463867">
        <ele>23.0</ele>
      </trkpt>
      <trkpt lat="24.980779644101858" lon="121.55383475124836">
        <ele>23.0</ele>
      </trkpt>
      <trkpt lat="24.980779895558953" lon="121.55383466742933">
        <ele>23.0</ele>
      </trkpt>
      <trkpt lat="24.980807220563293" lon="121.55380725860596">
        <ele>23.0</ele>
      </trkpt>
      <trkpt lat="24.981064880266786" lon="121.55365697108209">
        <ele>22.0</ele>
      </trkpt>
      <trkpt lat="24.98117208480835" lon="121.55365697108209">
        <ele>22.0</ele>
      </trkpt>
      <trkpt lat="24.981300747022033" lon="121.55361413955688">
        <ele>22.0</ele>
      </trkpt>
      <trkpt lat="24.98149403370917" lon="121.55361413955688">
        <ele>21.0</ele>
      </trkpt>
      <trkpt lat="24.981729900464416" lon="121.55365697108209">
        <ele>21.0</ele>
      </trkpt>
      <trkpt lat="24.98198756016791" lon="121.55369997024536">
        <ele>21.0</ele>
      </trkpt>
      <trkpt lat="24.982545375823975" lon="121.55385009013116">
        <ele>21.0</ele>
      </trkpt>
      <trkpt lat="24.983232021331787" lon="121.55402183532715">
        <ele>20.0</ele>
      </trkpt>
      <trkpt lat="24.983790004625916" lon="121.55417195521295">
        <ele>21.0</ele>
      </trkpt>
      <trkpt lat="24.984133327379823" lon="121.55425778590143">
        <ele>20.0</ele>
      </trkpt>
      <trkpt lat="24.9843692779541" lon="121.55430070124567">
        <ele>20.0</ele>
      </trkpt>
      <trkpt lat="24.984583854675293" lon="121.55427924357355">
        <ele>20.0</ele>
      </trkpt>
      <trkpt lat="24.984862804412842" lon="121.55419341288507">
        <ele>20.0</ele>
      </trkpt>
      <trkpt lat="24.985248958691955" lon="121.55400037765503">
        <ele>21.0</ele>
      </trkpt>
      <trkpt lat="24.98537770472467" lon="121.55393600463867">
        <ele>21.0</ele>
      </trkpt>
      <trkpt lat="24.985506618395448" lon="121.55380725860596">
        <ele>21.0</ele>
      </trkpt>
      <trkpt lat="24.98584977351129" lon="121.55350685119629">
        <ele>21.0</ele>
      </trkpt>
      <trkpt lat="24.986171638593078" lon="121.55333518981934">
        <ele>21.0</ele>
      </trkpt>
      <trkpt lat="24.98617172241211" lon="121.55333518981934">
        <ele>22.0</ele>
      </trkpt>
      <trkpt lat="24.98636475764215" lon="121.55327073298395">
        <ele>22.0</ele>
      </trkpt>
      <trkpt lat="24.986579418182373" lon="121.55314198695123">
        <ele>22.0</ele>
      </trkpt>
      <trkpt lat="24.986686622723937" lon="121.55305615626276">
        <ele>22.0</ele>
      </trkpt>
      <trkpt lat="24.9870943184942" lon="121.55256262980402">
        <ele>23.0</ele>
      </trkpt>
      <trkpt lat="24.987201690673828" lon="121.55247679911554">
        <ele>23.0</ele>
      </trkpt>
      <trkpt lat="24.987265979871154" lon="121.5524338837713">
        <ele>24.0</ele>
      </trkpt>
      <trkpt lat="24.98741626739502" lon="121.5523910522461">
        <ele>24.0</ele>
      </trkpt>
      <trkpt lat="24.987780964002013" lon="121.55234805308282">
        <ele>24.0</ele>
      </trkpt>
      <trkpt lat="24.987845504656434" lon="121.55232667922974">
        <ele>24.0</ele>
      </trkpt>
      <trkpt lat="24.987845420837402" lon="121.55232667922974">
        <ele>25.0</ele>
      </trkpt>
      <trkpt lat="24.987823963165283" lon="121.55209064483643">
        <ele>25.0</ele>
      </trkpt>
      <trkpt lat="24.987716674804688" lon="121.5513180848211">
        <ele>24.0</ele>
      </trkpt>
      <trkpt lat="24.987652385607362" lon="121.55095330439508">
        <ele>24.0</ele>
      </trkpt>
      <trkpt lat="24.98765230178833" lon="121.55095330439508">
        <ele>24.0</ele>
      </trkpt>
      <trkpt lat="24.987523555755615" lon="121.5501594543457">
        <ele>24.0</ele>
      </trkpt>
      <trkpt lat="24.98745926655829" lon="121.54985904693604">
        <ele>24.0</ele>
      </trkpt>
      <trkpt lat="24.987373435869813" lon="121.54938697814941">
        <ele>24.0</ele>
      </trkpt>
      <trkpt lat="24.987308979034424" lon="121.54895782470703">
        <ele>24.0</ele>
      </trkpt>
      <trkpt lat="24.987266147509217" lon="121.54876470565796">
        <ele>23.0</ele>
      </trkpt>
      <trkpt lat="24.987223148345947" lon="121.54848567210138">
        <ele>23.0</ele>
      </trkpt>
      <trkpt lat="24.98718023300171" lon="121.5482497215271">
        <ele>23.0</ele>
      </trkpt>
      <trkpt lat="24.987094402313232" lon="121.54769173823297">
        <ele>23.0</ele>
      </trkpt>
      <trkpt lat="24.987051570788026" lon="121.5474986191839">
        <ele>22.0</ele>
      </trkpt>
      <trkpt lat="24.987030113115907" lon="121.5472840424627">
        <ele>22.0</ele>
      </trkpt>
      <trkpt lat="24.98694428242743" lon="121.54689780436456">
        <ele>21.0</ele>
      </trkpt>
      <trkpt lat="24.98690128326416" lon="121.54666176997125">
        <ele>21.0</ele>
      </trkpt>
      <trkpt lat="24.986858451738954" lon="121.54640427790582">
        <ele>21.0</ele>
      </trkpt>
      <trkpt lat="24.986793994903564" lon="121.54597512446344">
        <ele>21.0</ele>
      </trkpt>
      <trkpt lat="24.986772453412414" lon="121.54576054774225">
        <ele>21.0</ele>
      </trkpt>
      <trkpt lat="24.986772537231445" lon="121.5453743096441">
        <ele>20.0</ele>
      </trkpt>
      <trkpt lat="24.98687982559204" lon="121.54531002044678">
        <ele>20.0</ele>
      </trkpt>
      <trkpt lat="24.987523555755615" lon="121.54488078318536">
        <ele>21.0</ele>
      </trkpt>
      <trkpt lat="24.98765230178833" lon="121.54483786784112">
        <ele>21.0</ele>
      </trkpt>
      <trkpt lat="24.988016998395324" lon="121.54470920562744">
        <ele>21.0</ele>
      </trkpt>
      <trkpt lat="24.988017082214355" lon="121.54470920562744">
        <ele>21.0</ele>
      </trkpt>
      <trkpt lat="24.98812437057495" lon="121.54466620646417">
        <ele>21.0</ele>
      </trkpt>
      <trkpt lat="24.988274574279785" lon="121.5445803757757">
        <ele>21.0</ele>
      </trkpt>
      <trkpt lat="24.98838177882135" lon="121.54440879821777">
        <ele>21.0</ele>
      </trkpt>
      <trkpt lat="24.988424694165587" lon="121.54430150985718">
        <ele>21.0</ele>
      </trkpt>
      <trkpt lat="24.988510524854064" lon="121.54387227259576">
        <ele>21.0</ele>
      </trkpt>
      <trkpt lat="24.988510608673096" lon="121.54387227259576">
        <ele>21.0</ele>
      </trkpt>
      <trkpt lat="24.98859635554254" lon="121.54352894984186">
        <ele>22.0</ele>
      </trkpt>
      <trkpt lat="24.98859635554254" lon="121.54342166148126">
        <ele>22.0</ele>
      </trkpt>
      <trkpt lat="24.988553607836366" lon="121.54327154159546">
        <ele>22.0</ele>
      </trkpt>
      <trkpt lat="24.9884033203125" lon="121.54294959269464">
        <ele>22.0</ele>
      </trkpt>
      <trkpt lat="24.988338947296143" lon="121.54260635375977">
        <ele>22.0</ele>
      </trkpt>
      <trkpt lat="24.988295948132873" lon="121.54217720031738">
        <ele>22.0</ele>
      </trkpt>
      <trkpt lat="24.988317489624023" lon="121.54189825057983">
        <ele>22.0</ele>
      </trkpt>
      <trkpt lat="24.98838177882135" lon="121.540846824646">
        <ele>22.0</ele>
      </trkpt>
      <trkpt lat="24.98832855373621" lon="121.54088940471411">
        <ele>22.0</ele>
      </trkpt>
      <trkpt lat="24.988328469917178" lon="121.54088948853314">
        <ele>22.0</ele>
      </trkpt>
      <trkpt lat="24.98838177882135" lon="121.540846824646">
        <ele>22.0</ele>
      </trkpt>
      <trkpt lat="24.988317489624023" lon="121.54189825057983">
        <ele>22.0</ele>
      </trkpt>
      <trkpt lat="24.988295948132873" lon="121.54217720031738">
        <ele>22.0</ele>
      </trkpt>
      <trkpt lat="24.988338947296143" lon="121.54260635375977">
        <ele>22.0</ele>
      </trkpt>
      <trkpt lat="24.9884033203125" lon="121.54294959269464">
        <ele>22.0</ele>
      </trkpt>
      <trkpt lat="24.988553607836366" lon="121.54327154159546">
        <ele>22.0</ele>
      </trkpt>
      <trkpt lat="24.98859635554254" lon="121.54342166148126">
        <ele>22.0</ele>
      </trkpt>
      <trkpt lat="24.98859635554254" lon="121.54352894984186">
        <ele>22.0</ele>
      </trkpt>
      <trkpt lat="24.988510608673096" lon="121.54387227259576">
        <ele>21.0</ele>
      </trkpt>
      <trkpt lat="24.988510524854064" lon="121.54387227259576">
        <ele>21.0</ele>
      </trkpt>
      <trkpt lat="24.988424694165587" lon="121.54430150985718">
        <ele>21.0</ele>
      </trkpt>
      <trkpt lat="24.98838177882135" lon="121.54440879821777">
        <ele>21.0</ele>
      </trkpt>
      <trkpt lat="24.988274574279785" lon="121.5445803757757">
        <ele>21.0</ele>
      </trkpt>
      <trkpt lat="24.98812437057495" lon="121.54466620646417">
        <ele>21.0</ele>
      </trkpt>
      <trkpt lat="24.988017082214355" lon="121.54470920562744">
        <ele>21.0</ele>
      </trkpt>
      <trkpt lat="24.988016998395324" lon="121.54470920562744">
        <ele>21.0</ele>
      </trkpt>
      <trkpt lat="24.98765230178833" lon="121.54483786784112">
        <ele>21.0</ele>
      </trkpt>
      <trkpt lat="24.987523555755615" lon="121.54488078318536">
        <ele>21.0</ele>
      </trkpt>
      <trkpt lat="24.98687982559204" lon="121.54531002044678">
        <ele>20.0</ele>
      </trkpt>
      <trkpt lat="24.986772537231445" lon="121.5453743096441">
        <ele>20.0</ele>
      </trkpt>
      <trkpt lat="24.986708164215088" lon="121.54541730880737">
        <ele>19.0</ele>
      </trkpt>
      <trkpt lat="24.986708164215088" lon="121.54578200541437">
        <ele>19.0</ele>
      </trkpt>
      <trkpt lat="24.98672970570624" lon="121.54597512446344">
        <ele>19.0</ele>
      </trkpt>
      <trkpt lat="24.986793994903564" lon="121.54642581939697">
        <ele>20.0</ele>
      </trkpt>
      <trkpt lat="24.986836994066834" lon="121.54666176997125">
        <ele>19.0</ele>
      </trkpt>
      <trkpt lat="24.98687974177301" lon="121.54691934585571">
        <ele>19.0</ele>
      </trkpt>
      <trkpt lat="24.98694428242743" lon="121.54689780436456">
        <ele>21.0</ele>
      </trkpt>
      <trkpt lat="24.986934894695878" lon="121.54684659093618">
        <ele>20.0</ele>
      </trkpt>
      <trkpt lat="24.98690119944513" lon="121.54666176997125">
        <ele>20.0</ele>
      </trkpt>
      <trkpt lat="24.986836994066834" lon="121.54666176997125">
        <ele>19.0</ele>
      </trkpt>
      <trkpt lat="24.98687982559204" lon="121.54691934585571">
        <ele>21.0</ele>
      </trkpt>
      <trkpt lat="24.98694428242743" lon="121.54730550013483">
        <ele>21.0</ele>
      </trkpt>
      <trkpt lat="24.986987113952637" lon="121.5474986191839">
        <ele>21.0</ele>
      </trkpt>
      <trkpt lat="24.987030113115907" lon="121.54771319590509">
        <ele>21.0</ele>
      </trkpt>
      <trkpt lat="24.98709079809487" lon="121.54809356667101">
        <ele>21.0</ele>
      </trkpt>
      <trkpt lat="24.98709079809487" lon="121.54809390194714">
        <ele>21.0</ele>
      </trkpt>
      <trkpt lat="24.98711585998535" lon="121.5482497215271">
        <ele>21.0</ele>
      </trkpt>
      <trkpt lat="24.98718023300171" lon="121.5482497215271">
        <ele>23.0</ele>
      </trkpt>
      <trkpt lat="24.987094402313232" lon="121.54769173823297">
        <ele>23.0</ele>
      </trkpt>
      <trkpt lat="24.987051570788026" lon="121.5474986191839">
        <ele>22.0</ele>
      </trkpt>
      <trkpt lat="24.987030113115907" lon="121.5472840424627">
        <ele>22.0</ele>
      </trkpt>
      <trkpt lat="24.98694428242743" lon="121.54689780436456">
        <ele>21.0</ele>
      </trkpt>
      <trkpt lat="24.98690128326416" lon="121.54666176997125">
        <ele>21.0</ele>
      </trkpt>
      <trkpt lat="24.986858451738954" lon="121.54640427790582">
        <ele>21.0</ele>
      </trkpt>
      <trkpt lat="24.986793994903564" lon="121.54597512446344">
        <ele>21.0</ele>
      </trkpt>
      <trkpt lat="24.986772453412414" lon="121.54576054774225">
        <ele>21.0</ele>
      </trkpt>
      <trkpt lat="24.986772537231445" lon="121.5453743096441">
        <ele>20.0</ele>
      </trkpt>
      <trkpt lat="24.98687982559204" lon="121.54531002044678">
        <ele>20.0</ele>
      </trkpt>
      <trkpt lat="24.987523555755615" lon="121.54488078318536">
        <ele>21.0</ele>
      </trkpt>
      <trkpt lat="24.98765230178833" lon="121.54483786784112">
        <ele>21.0</ele>
      </trkpt>
      <trkpt lat="24.988016998395324" lon="121.54470920562744">
        <ele>21.0</ele>
      </trkpt>
      <trkpt lat="24.988017082214355" lon="121.54470920562744">
        <ele>21.0</ele>
      </trkpt>
      <trkpt lat="24.98812437057495" lon="121.54466620646417">
        <ele>21.0</ele>
      </trkpt>
      <trkpt lat="24.988274574279785" lon="121.5445803757757">
        <ele>21.0</ele>
      </trkpt>
      <trkpt lat="24.98838177882135" lon="121.54440879821777">
        <ele>21.0</ele>
      </trkpt>
      <trkpt lat="24.988424694165587" lon="121.54430150985718">
        <ele>21.0</ele>
      </trkpt>
      <trkpt lat="24.988510524854064" lon="121.54387227259576">
        <ele>21.0</ele>
      </trkpt>
      <trkpt lat="24.988510608673096" lon="121.54387227259576">
        <ele>21.0</ele>
      </trkpt>
      <trkpt lat="24.98859635554254" lon="121.54352894984186">
        <ele>22.0</ele>
      </trkpt>
      <trkpt lat="24.98859635554254" lon="121.54342166148126">
        <ele>22.0</ele>
      </trkpt>
      <trkpt lat="24.988553607836366" lon="121.54327154159546">
        <ele>22.0</ele>
      </trkpt>
      <trkpt lat="24.9884033203125" lon="121.54294959269464">
        <ele>22.0</ele>
      </trkpt>
      <trkpt lat="24.988338947296143" lon="121.54260635375977">
        <ele>22.0</ele>
      </trkpt>
      <trkpt lat="24.988295948132873" lon="121.54217720031738">
        <ele>22.0</ele>
      </trkpt>
      <trkpt lat="24.988317489624023" lon="121.54189825057983">
        <ele>22.0</ele>
      </trkpt>
      <trkpt lat="24.98837792314589" lon="121.5409121196717">
        <ele>21.0</ele>
      </trkpt>
      <trkpt lat="24.98837792314589" lon="121.5409123711288">
        <ele>21.0</ele>
      </trkpt>
      <trkpt lat="24.98837792314589" lon="121.54091186821461">
        <ele>21.0</ele>
      </trkpt>
      <trkpt lat="24.988317489624023" lon="121.54189825057983">
        <ele>22.0</ele>
      </trkpt>
      <trkpt lat="24.98830609023571" lon="121.54204526916146">
        <ele>21.0</ele>
      </trkpt>
      <trkpt lat="24.988306174054742" lon="121.5420451015234">
        <ele>21.0</ele>
      </trkpt>
      <trkpt lat="24.988317489624023" lon="121.54189825057983">
        <ele>22.0</ele>
      </trkpt>
      <trkpt lat="24.98837549239397" lon="121.54094950295985">
        <ele>20.0</ele>
      </trkpt>
      <trkpt lat="24.988375576213002" lon="121.54094925150275">
        <ele>20.0</ele>
      </trkpt>
      <trkpt lat="24.98837004415691" lon="121.54103994369507">
        <ele>20.0</ele>
      </trkpt>
    </trkseg>
  </trk>
</gpx>
